[
  {
    "province": "AB", 
    "latitude": "53.9225", 
    "postal_code": "T0A", 
    "longitude": "-111.0585"
  }, 
  {
    "province": "AB", 
    "latitude": "53.0635", 
    "postal_code": "T0B", 
    "longitude": "-112.3067"
  }, 
  {
    "province": "AB", 
    "latitude": "51.9565", 
    "postal_code": "T0C", 
    "longitude": "-110.0761"
  }, 
  {
    "province": "AB", 
    "latitude": "53.8486", 
    "postal_code": "T0E", 
    "longitude": "-114.4361"
  }, 
  {
    "province": "AB", 
    "latitude": "54.2653", 
    "postal_code": "T0G", 
    "longitude": "-115.3827"
  }, 
  {
    "province": "AB", 
    "latitude": "56.6598", 
    "postal_code": "T0H", 
    "longitude": "-117.2896"
  }, 
  {
    "province": "AB", 
    "latitude": "49.8442", 
    "postal_code": "T0J", 
    "longitude": "-110.78"
  }, 
  {
    "province": "AB", 
    "latitude": "49.7318", 
    "postal_code": "T0K", 
    "longitude": "-112.6171"
  }, 
  {
    "province": "AB", 
    "latitude": "49.8736", 
    "postal_code": "T0L", 
    "longitude": "-113.5074"
  }, 
  {
    "province": "AB", 
    "latitude": "52.0306", 
    "postal_code": "T0M", 
    "longitude": "-113.9565"
  }, 
  {
    "province": "AB", 
    "latitude": "58.759", 
    "postal_code": "T0P", 
    "longitude": "-111.0874"
  }, 
  {
    "province": "AB", 
    "latitude": "59.8685", 
    "postal_code": "T0V", 
    "longitude": "-111.6329"
  }, 
  {
    "province": "AB", 
    "latitude": "50.0365", 
    "postal_code": "T1A", 
    "longitude": "-110.661"
  }, 
  {
    "province": "AB", 
    "latitude": "50.0172", 
    "postal_code": "T1B", 
    "longitude": "-110.651"
  }, 
  {
    "province": "AB", 
    "latitude": "50.0556", 
    "postal_code": "T1C", 
    "longitude": "-110.6822"
  }, 
  {
    "province": "AB", 
    "latitude": "49.7773", 
    "postal_code": "T1G", 
    "longitude": "-112.158"
  }, 
  {
    "province": "AB", 
    "latitude": "49.7118", 
    "postal_code": "T1H", 
    "longitude": "-112.8196"
  }, 
  {
    "province": "AB", 
    "latitude": "49.6915", 
    "postal_code": "T1J", 
    "longitude": "-112.8294"
  }, 
  {
    "province": "AB", 
    "latitude": "49.6765", 
    "postal_code": "T1K", 
    "longitude": "-112.8035"
  }, 
  {
    "province": "AB", 
    "latitude": "51.1791", 
    "postal_code": "T1L", 
    "longitude": "-115.5697"
  }, 
  {
    "province": "AB", 
    "latitude": "49.7285", 
    "postal_code": "T1M", 
    "longitude": "-112.6146"
  }, 
  {
    "province": "AB", 
    "latitude": "51.0459", 
    "postal_code": "T1P", 
    "longitude": "-113.3967"
  }, 
  {
    "province": "AB", 
    "latitude": "50.5659", 
    "postal_code": "T1R", 
    "longitude": "-111.8896"
  }, 
  {
    "province": "AB", 
    "latitude": "50.7064", 
    "postal_code": "T1S", 
    "longitude": "-113.9554"
  }, 
  {
    "province": "AB", 
    "latitude": "50.5775", 
    "postal_code": "T1V", 
    "longitude": "-113.8747"
  }, 
  {
    "province": "AB", 
    "latitude": "51.0868", 
    "postal_code": "T1W", 
    "longitude": "-115.3384"
  }, 
  {
    "province": "AB", 
    "latitude": "51.0512", 
    "postal_code": "T1X", 
    "longitude": "-113.8155"
  }, 
  {
    "province": "AB", 
    "latitude": "51.0759", 
    "postal_code": "T1Y", 
    "longitude": "-114.0015"
  }, 
  {
    "province": "AB", 
    "latitude": "51.0402", 
    "postal_code": "T2A", 
    "longitude": "-113.9844"
  }, 
  {
    "province": "AB", 
    "latitude": "51.0318", 
    "postal_code": "T2B", 
    "longitude": "-113.9786"
  }, 
  {
    "province": "AB", 
    "latitude": "50.9878", 
    "postal_code": "T2C", 
    "longitude": "-114.0001"
  }, 
  {
    "province": "AB", 
    "latitude": "51.0632", 
    "postal_code": "T2E", 
    "longitude": "-114.0614"
  }, 
  {
    "province": "AB", 
    "latitude": "51.0415", 
    "postal_code": "T2G", 
    "longitude": "-114.0599"
  }, 
  {
    "province": "AB", 
    "latitude": "50.9857", 
    "postal_code": "T2H", 
    "longitude": "-114.0631"
  }, 
  {
    "province": "AB", 
    "latitude": "50.9693", 
    "postal_code": "T2J", 
    "longitude": "-114.0514"
  }, 
  {
    "province": "AB", 
    "latitude": "51.0857", 
    "postal_code": "T2K", 
    "longitude": "-114.0714"
  }, 
  {
    "province": "AB", 
    "latitude": "51.0917", 
    "postal_code": "T2L", 
    "longitude": "-114.1127"
  }, 
  {
    "province": "AB", 
    "latitude": "51.0696", 
    "postal_code": "T2M", 
    "longitude": "-114.0862"
  }, 
  {
    "province": "AB", 
    "latitude": "51.0591", 
    "postal_code": "T2N", 
    "longitude": "-114.1146"
  }, 
  {
    "province": "AB", 
    "latitude": "51.0472", 
    "postal_code": "T2P", 
    "longitude": "-114.0802"
  }, 
  {
    "province": "AB", 
    "latitude": "51.0426", 
    "postal_code": "T2R", 
    "longitude": "-114.0791"
  }, 
  {
    "province": "AB", 
    "latitude": "51.0171", 
    "postal_code": "T2S", 
    "longitude": "-114.0812"
  }, 
  {
    "province": "AB", 
    "latitude": "51.0316", 
    "postal_code": "T2T", 
    "longitude": "-114.0994"
  }, 
  {
    "province": "AB", 
    "latitude": "50.9909", 
    "postal_code": "T2V", 
    "longitude": "-114.074"
  }, 
  {
    "province": "AB", 
    "latitude": "50.9604", 
    "postal_code": "T2W", 
    "longitude": "-114.1001"
  }, 
  {
    "province": "AB", 
    "latitude": "50.9204", 
    "postal_code": "T2X", 
    "longitude": "-114.0674"
  }, 
  {
    "province": "AB", 
    "latitude": "50.9093", 
    "postal_code": "T2Y", 
    "longitude": "-114.0721"
  }, 
  {
    "province": "AB", 
    "latitude": "50.9023", 
    "postal_code": "T2Z", 
    "longitude": "-113.9873"
  }, 
  {
    "province": "AB", 
    "latitude": "51.0922", 
    "postal_code": "T3A", 
    "longitude": "-114.1479"
  }, 
  {
    "province": "AB", 
    "latitude": "51.0809", 
    "postal_code": "T3B", 
    "longitude": "-114.1616"
  }, 
  {
    "province": "AB", 
    "latitude": "51.0388", 
    "postal_code": "T3C", 
    "longitude": "-114.098"
  }, 
  {
    "province": "AB", 
    "latitude": "51.0227", 
    "postal_code": "T3E", 
    "longitude": "-114.1342"
  }, 
  {
    "province": "AB", 
    "latitude": "51.1147", 
    "postal_code": "T3G", 
    "longitude": "-114.1796"
  }, 
  {
    "province": "AB", 
    "latitude": "51.0566", 
    "postal_code": "T3H", 
    "longitude": "-114.1815"
  }, 
  {
    "province": "AB", 
    "latitude": "51.0999", 
    "postal_code": "T3J", 
    "longitude": "-113.9422"
  }, 
  {
    "province": "AB", 
    "latitude": "51.127", 
    "postal_code": "T3K", 
    "longitude": "-114.0787"
  }, 
  {
    "province": "AB", 
    "latitude": "51.1162", 
    "postal_code": "T3L", 
    "longitude": "-114.2089"
  }, 
  {
    "province": "AB", 
    "latitude": "50.8902", 
    "postal_code": "T3M", 
    "longitude": "-113.9892"
  }, 
  {
    "province": "AB", 
    "latitude": "51.1494", 
    "postal_code": "T3N", 
    "longitude": "-114.0019"
  }, 
  {
    "province": "AB", 
    "latitude": "51.1793", 
    "postal_code": "T3P", 
    "longitude": "-114.1333"
  }, 
  {
    "province": "AB", 
    "latitude": "51.1497", 
    "postal_code": "T3R", 
    "longitude": "-114.2695"
  }, 
  {
    "province": "AB", 
    "latitude": "50.9821", 
    "postal_code": "T3Z", 
    "longitude": "-114.5178"
  }, 
  {
    "province": "AB", 
    "latitude": "51.2733", 
    "postal_code": "T4A", 
    "longitude": "-113.9909"
  }, 
  {
    "province": "AB", 
    "latitude": "51.2816", 
    "postal_code": "T4B", 
    "longitude": "-114.0153"
  }, 
  {
    "province": "AB", 
    "latitude": "51.1896", 
    "postal_code": "T4C", 
    "longitude": "-114.4774"
  }, 
  {
    "province": "AB", 
    "latitude": "52.2911", 
    "postal_code": "T4E", 
    "longitude": "-113.7027"
  }, 
  {
    "province": "AB", 
    "latitude": "52.029", 
    "postal_code": "T4G", 
    "longitude": "-113.9474"
  }, 
  {
    "province": "AB", 
    "latitude": "51.7956", 
    "postal_code": "T4H", 
    "longitude": "-114.0944"
  }, 
  {
    "province": "AB", 
    "latitude": "52.6649", 
    "postal_code": "T4J", 
    "longitude": "-113.5823"
  }, 
  {
    "province": "AB", 
    "latitude": "52.36", 
    "postal_code": "T4L", 
    "longitude": "-114.3736"
  }, 
  {
    "province": "AB", 
    "latitude": "52.2592", 
    "postal_code": "T4N", 
    "longitude": "-113.8237"
  }, 
  {
    "province": "AB", 
    "latitude": "52.2887", 
    "postal_code": "T4P", 
    "longitude": "-113.8394"
  }, 
  {
    "province": "AB", 
    "latitude": "52.2451", 
    "postal_code": "T4R", 
    "longitude": "-113.7855"
  }, 
  {
    "province": "AB", 
    "latitude": "52.3083", 
    "postal_code": "T4S", 
    "longitude": "-114.0949"
  }, 
  {
    "province": "AB", 
    "latitude": "52.378", 
    "postal_code": "T4T", 
    "longitude": "-114.9307"
  }, 
  {
    "province": "AB", 
    "latitude": "53.0204", 
    "postal_code": "T4V", 
    "longitude": "-112.8129"
  }, 
  {
    "province": "AB", 
    "latitude": "53.3571", 
    "postal_code": "T4X", 
    "longitude": "-113.4129"
  }, 
  {
    "province": "AB", 
    "latitude": "53.5899", 
    "postal_code": "T5A", 
    "longitude": "-113.4413"
  }, 
  {
    "province": "AB", 
    "latitude": "53.5766", 
    "postal_code": "T5B", 
    "longitude": "-113.4608"
  }, 
  {
    "province": "AB", 
    "latitude": "53.6129", 
    "postal_code": "T5C", 
    "longitude": "-113.4572"
  }, 
  {
    "province": "AB", 
    "latitude": "53.5923", 
    "postal_code": "T5E", 
    "longitude": "-113.5168"
  }, 
  {
    "province": "AB", 
    "latitude": "53.5682", 
    "postal_code": "T5G", 
    "longitude": "-113.4822"
  }, 
  {
    "province": "AB", 
    "latitude": "53.555", 
    "postal_code": "T5H", 
    "longitude": "-113.4822"
  }, 
  {
    "province": "AB", 
    "latitude": "53.5421", 
    "postal_code": "T5J", 
    "longitude": "-113.4989"
  }, 
  {
    "province": "AB", 
    "latitude": "53.535", 
    "postal_code": "T5K", 
    "longitude": "-113.501"
  }, 
  {
    "province": "AB", 
    "latitude": "53.5801", 
    "postal_code": "T5L", 
    "longitude": "-113.541"
  }, 
  {
    "province": "AB", 
    "latitude": "53.5614", 
    "postal_code": "T5M", 
    "longitude": "-113.5461"
  }, 
  {
    "province": "AB", 
    "latitude": "53.5495", 
    "postal_code": "T5N", 
    "longitude": "-113.5453"
  }, 
  {
    "province": "AB", 
    "latitude": "53.5529", 
    "postal_code": "T5P", 
    "longitude": "-113.584"
  }, 
  {
    "province": "AB", 
    "latitude": "53.5224", 
    "postal_code": "T5R", 
    "longitude": "-113.5763"
  }, 
  {
    "province": "AB", 
    "latitude": "53.5416", 
    "postal_code": "T5S", 
    "longitude": "-113.6249"
  }, 
  {
    "province": "AB", 
    "latitude": "53.5157", 
    "postal_code": "T5T", 
    "longitude": "-113.6339"
  }, 
  {
    "province": "AB", 
    "latitude": "53.58", 
    "postal_code": "T5V", 
    "longitude": "-113.5873"
  }, 
  {
    "province": "AB", 
    "latitude": "53.5705", 
    "postal_code": "T5W", 
    "longitude": "-113.4036"
  }, 
  {
    "province": "AB", 
    "latitude": "53.6072", 
    "postal_code": "T5X", 
    "longitude": "-113.5183"
  }, 
  {
    "province": "AB", 
    "latitude": "53.6026", 
    "postal_code": "T5Y", 
    "longitude": "-113.3837"
  }, 
  {
    "province": "AB", 
    "latitude": "53.5966", 
    "postal_code": "T5Z", 
    "longitude": "-113.4882"
  }, 
  {
    "province": "AB", 
    "latitude": "53.5483", 
    "postal_code": "T6A", 
    "longitude": "-113.408"
  }, 
  {
    "province": "AB", 
    "latitude": "53.5322", 
    "postal_code": "T6B", 
    "longitude": "-113.4404"
  }, 
  {
    "province": "AB", 
    "latitude": "53.5182", 
    "postal_code": "T6C", 
    "longitude": "-113.4769"
  }, 
  {
    "province": "AB", 
    "latitude": "53.5087", 
    "postal_code": "T6E", 
    "longitude": "-113.5078"
  }, 
  {
    "province": "AB", 
    "latitude": "53.5248", 
    "postal_code": "T6G", 
    "longitude": "-113.5334"
  }, 
  {
    "province": "AB", 
    "latitude": "53.4839", 
    "postal_code": "T6H", 
    "longitude": "-113.5227"
  }, 
  {
    "province": "AB", 
    "latitude": "53.4822", 
    "postal_code": "T6J", 
    "longitude": "-113.5269"
  }, 
  {
    "province": "AB", 
    "latitude": "53.4816", 
    "postal_code": "T6K", 
    "longitude": "-113.4623"
  }, 
  {
    "province": "AB", 
    "latitude": "53.4681", 
    "postal_code": "T6L", 
    "longitude": "-113.4339"
  }, 
  {
    "province": "AB", 
    "latitude": "53.4967", 
    "postal_code": "T6M", 
    "longitude": "-113.6162"
  }, 
  {
    "province": "AB", 
    "latitude": "53.458", 
    "postal_code": "T6N", 
    "longitude": "-113.4826"
  }, 
  {
    "province": "AB", 
    "latitude": "53.4996", 
    "postal_code": "T6P", 
    "longitude": "-113.3678"
  }, 
  {
    "province": "AB", 
    "latitude": "53.4782", 
    "postal_code": "T6R", 
    "longitude": "-113.5873"
  }, 
  {
    "province": "AB", 
    "latitude": "53.5729", 
    "postal_code": "T6S", 
    "longitude": "-113.3518"
  }, 
  {
    "province": "AB", 
    "latitude": "53.4768", 
    "postal_code": "T6T", 
    "longitude": "-113.3662"
  }, 
  {
    "province": "AB", 
    "latitude": "53.6202", 
    "postal_code": "T6V", 
    "longitude": "-113.543"
  }, 
  {
    "province": "AB", 
    "latitude": "53.4129", 
    "postal_code": "T6W", 
    "longitude": "-113.4957"
  }, 
  {
    "province": "AB", 
    "latitude": "53.4154", 
    "postal_code": "T6X", 
    "longitude": "-113.4917"
  }, 
  {
    "province": "AB", 
    "latitude": "53.2165", 
    "postal_code": "T7A", 
    "longitude": "-114.9893"
  }, 
  {
    "province": "AB", 
    "latitude": "53.5908", 
    "postal_code": "T7E", 
    "longitude": "-116.4104"
  }, 
  {
    "province": "AB", 
    "latitude": "54.1136", 
    "postal_code": "T7N", 
    "longitude": "-114.3932"
  }, 
  {
    "province": "AB", 
    "latitude": "54.166", 
    "postal_code": "T7P", 
    "longitude": "-113.8452"
  }, 
  {
    "province": "AB", 
    "latitude": "54.1407", 
    "postal_code": "T7S", 
    "longitude": "-115.6873"
  }, 
  {
    "province": "AB", 
    "latitude": "53.3981", 
    "postal_code": "T7V", 
    "longitude": "-117.5552"
  }, 
  {
    "province": "AB", 
    "latitude": "53.549", 
    "postal_code": "T7X", 
    "longitude": "-113.8995"
  }, 
  {
    "province": "AB", 
    "latitude": "53.4495", 
    "postal_code": "T7Y", 
    "longitude": "-113.7135"
  }, 
  {
    "province": "AB", 
    "latitude": "53.5202", 
    "postal_code": "T7Z", 
    "longitude": "-114.0135"
  }, 
  {
    "province": "AB", 
    "latitude": "53.519", 
    "postal_code": "T8A", 
    "longitude": "-113.3216"
  }, 
  {
    "province": "AB", 
    "latitude": "53.4482", 
    "postal_code": "T8B", 
    "longitude": "-113.2706"
  }, 
  {
    "province": "AB", 
    "latitude": "53.4162", 
    "postal_code": "T8C", 
    "longitude": "-113.148"
  }, 
  {
    "province": "AB", 
    "latitude": "53.4548", 
    "postal_code": "T8E", 
    "longitude": "-113.0498"
  }, 
  {
    "province": "AB", 
    "latitude": "53.4749", 
    "postal_code": "T8G", 
    "longitude": "-112.9512"
  }, 
  {
    "province": "AB", 
    "latitude": "53.5462", 
    "postal_code": "T8H", 
    "longitude": "-113.2562"
  }, 
  {
    "province": "AB", 
    "latitude": "53.6916", 
    "postal_code": "T8L", 
    "longitude": "-113.2286"
  }, 
  {
    "province": "AB", 
    "latitude": "53.6199", 
    "postal_code": "T8N", 
    "longitude": "-113.6377"
  }, 
  {
    "province": "AB", 
    "latitude": "53.7903", 
    "postal_code": "T8R", 
    "longitude": "-113.646"
  }, 
  {
    "province": "AB", 
    "latitude": "56.2539", 
    "postal_code": "T8S", 
    "longitude": "-117.2849"
  }, 
  {
    "province": "AB", 
    "latitude": "55.1726", 
    "postal_code": "T8V", 
    "longitude": "-118.7997"
  }, 
  {
    "province": "AB", 
    "latitude": "55.1389", 
    "postal_code": "T8W", 
    "longitude": "-118.773"
  }, 
  {
    "province": "AB", 
    "latitude": "55.1749", 
    "postal_code": "T8X", 
    "longitude": "-118.7633"
  }, 
  {
    "province": "AB", 
    "latitude": "52.9741", 
    "postal_code": "T9A", 
    "longitude": "-113.3646"
  }, 
  {
    "province": "AB", 
    "latitude": "53.4874", 
    "postal_code": "T9C", 
    "longitude": "-112.0636"
  }, 
  {
    "province": "AB", 
    "latitude": "53.2524", 
    "postal_code": "T9E", 
    "longitude": "-113.5388"
  }, 
  {
    "province": "AB", 
    "latitude": "53.3632", 
    "postal_code": "T9G", 
    "longitude": "-113.7286"
  }, 
  {
    "province": "AB", 
    "latitude": "56.6977", 
    "postal_code": "T9H", 
    "longitude": "-111.3389"
  }, 
  {
    "province": "AB", 
    "latitude": "56.7057", 
    "postal_code": "T9J", 
    "longitude": "-111.3723"
  }, 
  {
    "province": "AB", 
    "latitude": "56.7273", 
    "postal_code": "T9K", 
    "longitude": "-111.4361"
  }, 
  {
    "province": "AB", 
    "latitude": "54.4127", 
    "postal_code": "T9M", 
    "longitude": "-110.2162"
  }, 
  {
    "province": "AB", 
    "latitude": "54.2678", 
    "postal_code": "T9N", 
    "longitude": "-110.7324"
  }, 
  {
    "province": "AB", 
    "latitude": "54.7139", 
    "postal_code": "T9S", 
    "longitude": "-113.2942"
  }, 
  {
    "province": "AB", 
    "latitude": "53.2786", 
    "postal_code": "T9V", 
    "longitude": "-110.0233"
  }, 
  {
    "province": "AB", 
    "latitude": "52.8403", 
    "postal_code": "T9W", 
    "longitude": "-110.8704"
  }, 
  {
    "province": "AB", 
    "latitude": "53.3515", 
    "postal_code": "T9X", 
    "longitude": "-110.8451"
  }, 
  {
    "province": "BC", 
    "latitude": "50.5402", 
    "postal_code": "V0A", 
    "longitude": "-116.0019"
  }, 
  {
    "province": "BC", 
    "latitude": "49.4539", 
    "postal_code": "V0B", 
    "longitude": "-116.763"
  }, 
  {
    "province": "BC", 
    "latitude": "56.2478", 
    "postal_code": "V0C", 
    "longitude": "-120.8491"
  }, 
  {
    "province": "BC", 
    "latitude": "50.9647", 
    "postal_code": "V0E", 
    "longitude": "-119.1638"
  }, 
  {
    "province": "BC", 
    "latitude": "49.7332", 
    "postal_code": "V0G", 
    "longitude": "-116.913"
  }, 
  {
    "province": "BC", 
    "latitude": "49.2357", 
    "postal_code": "V0H", 
    "longitude": "-119.0117"
  }, 
  {
    "province": "BC", 
    "latitude": "55.2046", 
    "postal_code": "V0J", 
    "longitude": "-129.0828"
  }, 
  {
    "province": "BC", 
    "latitude": "50.7372", 
    "postal_code": "V0K", 
    "longitude": "-121.2713"
  }, 
  {
    "province": "BC", 
    "latitude": "52.4018", 
    "postal_code": "V0L", 
    "longitude": "-124.0226"
  }, 
  {
    "province": "BC", 
    "latitude": "49.2341", 
    "postal_code": "V0M", 
    "longitude": "-121.7705"
  }, 
  {
    "province": "BC", 
    "latitude": "50.5899", 
    "postal_code": "V0N", 
    "longitude": "-126.9517"
  }, 
  {
    "province": "BC", 
    "latitude": "50.898", 
    "postal_code": "V0P", 
    "longitude": "-124.8633"
  }, 
  {
    "province": "BC", 
    "latitude": "49.2818", 
    "postal_code": "V0R", 
    "longitude": "-126.0627"
  }, 
  {
    "province": "BC", 
    "latitude": "48.5788", 
    "postal_code": "V0S", 
    "longitude": "-123.4637"
  }, 
  {
    "province": "BC", 
    "latitude": "54.7992", 
    "postal_code": "V0T", 
    "longitude": "-130.0782"
  }, 
  {
    "province": "BC", 
    "latitude": "53.4242", 
    "postal_code": "V0V", 
    "longitude": "-129.263"
  }, 
  {
    "province": "BC", 
    "latitude": "59.4808", 
    "postal_code": "V0W", 
    "longitude": "-133.6312"
  }, 
  {
    "province": "BC", 
    "latitude": "49.0538", 
    "postal_code": "V0X", 
    "longitude": "-122.476"
  }, 
  {
    "province": "BC", 
    "latitude": "49.6626", 
    "postal_code": "V1A", 
    "longitude": "-115.9667"
  }, 
  {
    "province": "BC", 
    "latitude": "50.2158", 
    "postal_code": "V1B", 
    "longitude": "-119.2709"
  }, 
  {
    "province": "BC", 
    "latitude": "49.512", 
    "postal_code": "V1C", 
    "longitude": "-115.7703"
  }, 
  {
    "province": "BC", 
    "latitude": "50.6947", 
    "postal_code": "V1E", 
    "longitude": "-119.2915"
  }, 
  {
    "province": "BC", 
    "latitude": "55.7741", 
    "postal_code": "V1G", 
    "longitude": "-120.2533"
  }, 
  {
    "province": "BC", 
    "latitude": "50.2629", 
    "postal_code": "V1H", 
    "longitude": "-119.3037"
  }, 
  {
    "province": "BC", 
    "latitude": "56.2306", 
    "postal_code": "V1J", 
    "longitude": "-120.8277"
  }, 
  {
    "province": "BC", 
    "latitude": "50.1076", 
    "postal_code": "V1K", 
    "longitude": "-120.7755"
  }, 
  {
    "province": "BC", 
    "latitude": "49.4832", 
    "postal_code": "V1L", 
    "longitude": "-117.3031"
  }, 
  {
    "province": "BC", 
    "latitude": "49.164", 
    "postal_code": "V1M", 
    "longitude": "-122.656"
  }, 
  {
    "province": "BC", 
    "latitude": "49.3298", 
    "postal_code": "V1N", 
    "longitude": "-117.6607"
  }, 
  {
    "province": "BC", 
    "latitude": "49.8808", 
    "postal_code": "V1P", 
    "longitude": "-119.3647"
  }, 
  {
    "province": "BC", 
    "latitude": "49.1135", 
    "postal_code": "V1R", 
    "longitude": "-117.716"
  }, 
  {
    "province": "BC", 
    "latitude": "50.6553", 
    "postal_code": "V1S", 
    "longitude": "-120.3811"
  }, 
  {
    "province": "BC", 
    "latitude": "50.2533", 
    "postal_code": "V1T", 
    "longitude": "-119.2798"
  }, 
  {
    "province": "BC", 
    "latitude": "49.929", 
    "postal_code": "V1V", 
    "longitude": "-119.4676"
  }, 
  {
    "province": "BC", 
    "latitude": "49.842", 
    "postal_code": "V1W", 
    "longitude": "-119.4903"
  }, 
  {
    "province": "BC", 
    "latitude": "49.8754", 
    "postal_code": "V1X", 
    "longitude": "-119.3958"
  }, 
  {
    "province": "BC", 
    "latitude": "49.8803", 
    "postal_code": "V1Y", 
    "longitude": "-119.5004"
  }, 
  {
    "province": "BC", 
    "latitude": "49.88", 
    "postal_code": "V1Z", 
    "longitude": "-119.5355"
  }, 
  {
    "province": "BC", 
    "latitude": "49.5031", 
    "postal_code": "V2A", 
    "longitude": "-119.5905"
  }, 
  {
    "province": "BC", 
    "latitude": "50.6903", 
    "postal_code": "V2B", 
    "longitude": "-120.3634"
  }, 
  {
    "province": "BC", 
    "latitude": "50.6764", 
    "postal_code": "V2C", 
    "longitude": "-120.3399"
  }, 
  {
    "province": "BC", 
    "latitude": "50.6598", 
    "postal_code": "V2E", 
    "longitude": "-120.3837"
  }, 
  {
    "province": "BC", 
    "latitude": "52.1276", 
    "postal_code": "V2G", 
    "longitude": "-122.1271"
  }, 
  {
    "province": "BC", 
    "latitude": "50.6902", 
    "postal_code": "V2H", 
    "longitude": "-120.0461"
  }, 
  {
    "province": "BC", 
    "latitude": "52.9692", 
    "postal_code": "V2J", 
    "longitude": "-122.5057"
  }, 
  {
    "province": "BC", 
    "latitude": "53.9313", 
    "postal_code": "V2K", 
    "longitude": "-122.7823"
  }, 
  {
    "province": "BC", 
    "latitude": "53.9112", 
    "postal_code": "V2L", 
    "longitude": "-122.728"
  }, 
  {
    "province": "BC", 
    "latitude": "53.928", 
    "postal_code": "V2M", 
    "longitude": "-122.7878"
  }, 
  {
    "province": "BC", 
    "latitude": "53.9103", 
    "postal_code": "V2N", 
    "longitude": "-122.7835"
  }, 
  {
    "province": "BC", 
    "latitude": "49.1551", 
    "postal_code": "V2P", 
    "longitude": "-121.9459"
  }, 
  {
    "province": "BC", 
    "latitude": "49.1409", 
    "postal_code": "V2R", 
    "longitude": "-121.962"
  }, 
  {
    "province": "BC", 
    "latitude": "49.0312", 
    "postal_code": "V2S", 
    "longitude": "-122.3012"
  }, 
  {
    "province": "BC", 
    "latitude": "49.0382", 
    "postal_code": "V2T", 
    "longitude": "-122.335"
  }, 
  {
    "province": "BC", 
    "latitude": "49.1337", 
    "postal_code": "V2V", 
    "longitude": "-122.3434"
  }, 
  {
    "province": "BC", 
    "latitude": "49.2201", 
    "postal_code": "V2W", 
    "longitude": "-122.4985"
  }, 
  {
    "province": "BC", 
    "latitude": "49.2007", 
    "postal_code": "V2X", 
    "longitude": "-122.6641"
  }, 
  {
    "province": "BC", 
    "latitude": "49.1175", 
    "postal_code": "V2Y", 
    "longitude": "-122.6684"
  }, 
  {
    "province": "BC", 
    "latitude": "49.0501", 
    "postal_code": "V2Z", 
    "longitude": "-122.6745"
  }, 
  {
    "province": "BC", 
    "latitude": "49.0764", 
    "postal_code": "V3A", 
    "longitude": "-122.6797"
  }, 
  {
    "province": "BC", 
    "latitude": "49.2733", 
    "postal_code": "V3B", 
    "longitude": "-122.7965"
  }, 
  {
    "province": "BC", 
    "latitude": "49.2334", 
    "postal_code": "V3C", 
    "longitude": "-122.77"
  }, 
  {
    "province": "BC", 
    "latitude": "49.2796", 
    "postal_code": "V3E", 
    "longitude": "-122.8105"
  }, 
  {
    "province": "BC", 
    "latitude": "49.0625", 
    "postal_code": "V3G", 
    "longitude": "-122.2457"
  }, 
  {
    "province": "BC", 
    "latitude": "49.2707", 
    "postal_code": "V3H", 
    "longitude": "-122.883"
  }, 
  {
    "province": "BC", 
    "latitude": "49.2536", 
    "postal_code": "V3J", 
    "longitude": "-122.9085"
  }, 
  {
    "province": "BC", 
    "latitude": "49.2358", 
    "postal_code": "V3K", 
    "longitude": "-122.8693"
  }, 
  {
    "province": "BC", 
    "latitude": "49.2136", 
    "postal_code": "V3L", 
    "longitude": "-122.8949"
  }, 
  {
    "province": "BC", 
    "latitude": "49.2007", 
    "postal_code": "V3M", 
    "longitude": "-122.9074"
  }, 
  {
    "province": "BC", 
    "latitude": "49.2201", 
    "postal_code": "V3N", 
    "longitude": "-122.9478"
  }, 
  {
    "province": "BC", 
    "latitude": "49.1641", 
    "postal_code": "V3R", 
    "longitude": "-122.8193"
  }, 
  {
    "province": "BC", 
    "latitude": "49.1011", 
    "postal_code": "V3S", 
    "longitude": "-122.8141"
  }, 
  {
    "province": "BC", 
    "latitude": "49.1783", 
    "postal_code": "V3T", 
    "longitude": "-122.8665"
  }, 
  {
    "province": "BC", 
    "latitude": "49.1647", 
    "postal_code": "V3V", 
    "longitude": "-122.8487"
  }, 
  {
    "province": "BC", 
    "latitude": "49.0992", 
    "postal_code": "V3W", 
    "longitude": "-122.8691"
  }, 
  {
    "province": "BC", 
    "latitude": "49.1173", 
    "postal_code": "V3X", 
    "longitude": "-122.8234"
  }, 
  {
    "province": "BC", 
    "latitude": "49.2273", 
    "postal_code": "V3Y", 
    "longitude": "-122.6883"
  }, 
  {
    "province": "BC", 
    "latitude": "49.0168", 
    "postal_code": "V4A", 
    "longitude": "-122.7738"
  }, 
  {
    "province": "BC", 
    "latitude": "49.0268", 
    "postal_code": "V4B", 
    "longitude": "-122.8369"
  }, 
  {
    "province": "BC", 
    "latitude": "49.1348", 
    "postal_code": "V4C", 
    "longitude": "-122.9131"
  }, 
  {
    "province": "BC", 
    "latitude": "49.0482", 
    "postal_code": "V4E", 
    "longitude": "-122.9587"
  }, 
  {
    "province": "BC", 
    "latitude": "49.1367", 
    "postal_code": "V4G", 
    "longitude": "-123.0115"
  }, 
  {
    "province": "BC", 
    "latitude": "49.0798", 
    "postal_code": "V4K", 
    "longitude": "-123.0882"
  }, 
  {
    "province": "BC", 
    "latitude": "49.0023", 
    "postal_code": "V4L", 
    "longitude": "-123.0368"
  }, 
  {
    "province": "BC", 
    "latitude": "49.0025", 
    "postal_code": "V4M", 
    "longitude": "-123.0746"
  }, 
  {
    "province": "BC", 
    "latitude": "49.1636", 
    "postal_code": "V4N", 
    "longitude": "-122.7677"
  }, 
  {
    "province": "BC", 
    "latitude": "49.0499", 
    "postal_code": "V4P", 
    "longitude": "-122.804"
  }, 
  {
    "province": "BC", 
    "latitude": "49.2225", 
    "postal_code": "V4R", 
    "longitude": "-122.4984"
  }, 
  {
    "province": "BC", 
    "latitude": "49.1589", 
    "postal_code": "V4S", 
    "longitude": "-122.3089"
  }, 
  {
    "province": "BC", 
    "latitude": "49.838", 
    "postal_code": "V4T", 
    "longitude": "-119.6667"
  }, 
  {
    "province": "BC", 
    "latitude": "50.0734", 
    "postal_code": "V4V", 
    "longitude": "-119.4444"
  }, 
  {
    "province": "BC", 
    "latitude": "49.1307", 
    "postal_code": "V4W", 
    "longitude": "-122.5369"
  }, 
  {
    "province": "BC", 
    "latitude": "49.0024", 
    "postal_code": "V4X", 
    "longitude": "-122.4419"
  }, 
  {
    "province": "BC", 
    "latitude": "49.146", 
    "postal_code": "V4Z", 
    "longitude": "-121.9435"
  }, 
  {
    "province": "BC", 
    "latitude": "49.2869", 
    "postal_code": "V5A", 
    "longitude": "-122.958"
  }, 
  {
    "province": "BC", 
    "latitude": "49.2846", 
    "postal_code": "V5B", 
    "longitude": "-122.9914"
  }, 
  {
    "province": "BC", 
    "latitude": "49.2848", 
    "postal_code": "V5C", 
    "longitude": "-123.0222"
  }, 
  {
    "province": "BC", 
    "latitude": "49.2124", 
    "postal_code": "V5E", 
    "longitude": "-122.9696"
  }, 
  {
    "province": "BC", 
    "latitude": "49.2591", 
    "postal_code": "V5G", 
    "longitude": "-123.0226"
  }, 
  {
    "province": "BC", 
    "latitude": "49.2371", 
    "postal_code": "V5H", 
    "longitude": "-123.0229"
  }, 
  {
    "province": "BC", 
    "latitude": "49.2218", 
    "postal_code": "V5J", 
    "longitude": "-123.022"
  }, 
  {
    "province": "BC", 
    "latitude": "49.293", 
    "postal_code": "V5K", 
    "longitude": "-123.0489"
  }, 
  {
    "province": "BC", 
    "latitude": "49.2835", 
    "postal_code": "V5L", 
    "longitude": "-123.0786"
  }, 
  {
    "province": "BC", 
    "latitude": "49.2695", 
    "postal_code": "V5M", 
    "longitude": "-123.0556"
  }, 
  {
    "province": "BC", 
    "latitude": "49.2699", 
    "postal_code": "V5N", 
    "longitude": "-123.0765"
  }, 
  {
    "province": "BC", 
    "latitude": "49.2393", 
    "postal_code": "V5P", 
    "longitude": "-123.0729"
  }, 
  {
    "province": "BC", 
    "latitude": "49.2499", 
    "postal_code": "V5R", 
    "longitude": "-123.0556"
  }, 
  {
    "province": "BC", 
    "latitude": "49.2286", 
    "postal_code": "V5S", 
    "longitude": "-123.057"
  }, 
  {
    "province": "BC", 
    "latitude": "49.2701", 
    "postal_code": "V5T", 
    "longitude": "-123.1038"
  }, 
  {
    "province": "BC", 
    "latitude": "49.2558", 
    "postal_code": "V5V", 
    "longitude": "-123.1037"
  }, 
  {
    "province": "BC", 
    "latitude": "49.2396", 
    "postal_code": "V5W", 
    "longitude": "-123.0984"
  }, 
  {
    "province": "BC", 
    "latitude": "49.2249", 
    "postal_code": "V5X", 
    "longitude": "-123.1052"
  }, 
  {
    "province": "BC", 
    "latitude": "49.2702", 
    "postal_code": "V5Y", 
    "longitude": "-123.1017"
  }, 
  {
    "province": "BC", 
    "latitude": "49.2658", 
    "postal_code": "V5Z", 
    "longitude": "-123.1151"
  }, 
  {
    "province": "BC", 
    "latitude": "49.2862", 
    "postal_code": "V6A", 
    "longitude": "-123.0925"
  }, 
  {
    "province": "BC", 
    "latitude": "49.2836", 
    "postal_code": "V6B", 
    "longitude": "-123.1041"
  }, 
  {
    "province": "BC", 
    "latitude": "49.2857", 
    "postal_code": "V6C", 
    "longitude": "-123.1142"
  }, 
  {
    "province": "BC", 
    "latitude": "49.2848", 
    "postal_code": "V6E", 
    "longitude": "-123.1228"
  }, 
  {
    "province": "BC", 
    "latitude": "49.289", 
    "postal_code": "V6G", 
    "longitude": "-123.1294"
  }, 
  {
    "province": "BC", 
    "latitude": "49.2661", 
    "postal_code": "V6H", 
    "longitude": "-123.1276"
  }, 
  {
    "province": "BC", 
    "latitude": "49.2768", 
    "postal_code": "V6J", 
    "longitude": "-123.1469"
  }, 
  {
    "province": "BC", 
    "latitude": "49.2738", 
    "postal_code": "V6K", 
    "longitude": "-123.161"
  }, 
  {
    "province": "BC", 
    "latitude": "49.2571", 
    "postal_code": "V6L", 
    "longitude": "-123.1662"
  }, 
  {
    "province": "BC", 
    "latitude": "49.2417", 
    "postal_code": "V6M", 
    "longitude": "-123.1293"
  }, 
  {
    "province": "BC", 
    "latitude": "49.2376", 
    "postal_code": "V6N", 
    "longitude": "-123.1639"
  }, 
  {
    "province": "BC", 
    "latitude": "49.2254", 
    "postal_code": "V6P", 
    "longitude": "-123.1176"
  }, 
  {
    "province": "BC", 
    "latitude": "49.273", 
    "postal_code": "V6R", 
    "longitude": "-123.185"
  }, 
  {
    "province": "BC", 
    "latitude": "49.2574", 
    "postal_code": "V6S", 
    "longitude": "-123.1836"
  }, 
  {
    "province": "BC", 
    "latitude": "49.2765", 
    "postal_code": "V6T", 
    "longitude": "-123.2177"
  }, 
  {
    "province": "BC", 
    "latitude": "49.1699", 
    "postal_code": "V6V", 
    "longitude": "-123.0912"
  }, 
  {
    "province": "BC", 
    "latitude": "49.1261", 
    "postal_code": "V6W", 
    "longitude": "-123.0897"
  }, 
  {
    "province": "BC", 
    "latitude": "49.1701", 
    "postal_code": "V6X", 
    "longitude": "-123.1438"
  }, 
  {
    "province": "BC", 
    "latitude": "49.1483", 
    "postal_code": "V6Y", 
    "longitude": "-123.1469"
  }, 
  {
    "province": "BC", 
    "latitude": "49.2814", 
    "postal_code": "V6Z", 
    "longitude": "-123.12"
  }, 
  {
    "province": "BC", 
    "latitude": "49.1467", 
    "postal_code": "V7A", 
    "longitude": "-123.1463"
  }, 
  {
    "province": "BC", 
    "latitude": "49.178", 
    "postal_code": "V7B", 
    "longitude": "-123.1701"
  }, 
  {
    "province": "BC", 
    "latitude": "49.1745", 
    "postal_code": "V7C", 
    "longitude": "-123.1978"
  }, 
  {
    "province": "BC", 
    "latitude": "49.1476", 
    "postal_code": "V7E", 
    "longitude": "-123.1897"
  }, 
  {
    "province": "BC", 
    "latitude": "49.304", 
    "postal_code": "V7G", 
    "longitude": "-122.9689"
  }, 
  {
    "province": "BC", 
    "latitude": "49.3011", 
    "postal_code": "V7H", 
    "longitude": "-123.0205"
  }, 
  {
    "province": "BC", 
    "latitude": "49.3016", 
    "postal_code": "V7J", 
    "longitude": "-123.0309"
  }, 
  {
    "province": "BC", 
    "latitude": "49.3322", 
    "postal_code": "V7K", 
    "longitude": "-123.0518"
  }, 
  {
    "province": "BC", 
    "latitude": "49.3042", 
    "postal_code": "V7L", 
    "longitude": "-123.0651"
  }, 
  {
    "province": "BC", 
    "latitude": "49.3111", 
    "postal_code": "V7M", 
    "longitude": "-123.0798"
  }, 
  {
    "province": "BC", 
    "latitude": "49.3325", 
    "postal_code": "V7N", 
    "longitude": "-123.0674"
  }, 
  {
    "province": "BC", 
    "latitude": "49.3181", 
    "postal_code": "V7P", 
    "longitude": "-123.096"
  }, 
  {
    "province": "BC", 
    "latitude": "49.3328", 
    "postal_code": "V7R", 
    "longitude": "-123.1043"
  }, 
  {
    "province": "BC", 
    "latitude": "49.3585", 
    "postal_code": "V7S", 
    "longitude": "-123.1186"
  }, 
  {
    "province": "BC", 
    "latitude": "49.324", 
    "postal_code": "V7T", 
    "longitude": "-123.1036"
  }, 
  {
    "province": "BC", 
    "latitude": "49.3271", 
    "postal_code": "V7V", 
    "longitude": "-123.1578"
  }, 
  {
    "province": "BC", 
    "latitude": "49.3465", 
    "postal_code": "V7W", 
    "longitude": "-123.238"
  }, 
  {
    "province": "BC", 
    "latitude": "49.2935", 
    "postal_code": "V7X", 
    "longitude": "-123.1162"
  }, 
  {
    "province": "BC", 
    "latitude": "49.2816", 
    "postal_code": "V7Y", 
    "longitude": "-123.1247"
  }, 
  {
    "province": "BC", 
    "latitude": "49.8021", 
    "postal_code": "V8A", 
    "longitude": "-124.5124"
  }, 
  {
    "province": "BC", 
    "latitude": "49.7497", 
    "postal_code": "V8B", 
    "longitude": "-123.136"
  }, 
  {
    "province": "BC", 
    "latitude": "54.0662", 
    "postal_code": "V8C", 
    "longitude": "-128.6508"
  }, 
  {
    "province": "BC", 
    "latitude": "54.5058", 
    "postal_code": "V8G", 
    "longitude": "-128.5823"
  }, 
  {
    "province": "BC", 
    "latitude": "54.3146", 
    "postal_code": "V8J", 
    "longitude": "-130.3413"
  }, 
  {
    "province": "BC", 
    "latitude": "48.9145", 
    "postal_code": "V8K", 
    "longitude": "-123.5657"
  }, 
  {
    "province": "BC", 
    "latitude": "48.6128", 
    "postal_code": "V8L", 
    "longitude": "-123.4198"
  }, 
  {
    "province": "BC", 
    "latitude": "48.566", 
    "postal_code": "V8M", 
    "longitude": "-123.4579"
  }, 
  {
    "province": "BC", 
    "latitude": "48.471", 
    "postal_code": "V8N", 
    "longitude": "-123.3438"
  }, 
  {
    "province": "BC", 
    "latitude": "48.4458", 
    "postal_code": "V8P", 
    "longitude": "-123.3328"
  }, 
  {
    "province": "BC", 
    "latitude": "48.4266", 
    "postal_code": "V8R", 
    "longitude": "-123.3444"
  }, 
  {
    "province": "BC", 
    "latitude": "48.4061", 
    "postal_code": "V8S", 
    "longitude": "-123.3504"
  }, 
  {
    "province": "BC", 
    "latitude": "48.4278", 
    "postal_code": "V8T", 
    "longitude": "-123.3574"
  }, 
  {
    "province": "BC", 
    "latitude": "48.4192", 
    "postal_code": "V8V", 
    "longitude": "-123.3856"
  }, 
  {
    "province": "BC", 
    "latitude": "48.4202", 
    "postal_code": "V8W", 
    "longitude": "-123.3671"
  }, 
  {
    "province": "BC", 
    "latitude": "48.4488", 
    "postal_code": "V8X", 
    "longitude": "-123.3501"
  }, 
  {
    "province": "BC", 
    "latitude": "48.501", 
    "postal_code": "V8Y", 
    "longitude": "-123.3804"
  }, 
  {
    "province": "BC", 
    "latitude": "48.4449", 
    "postal_code": "V8Z", 
    "longitude": "-123.3745"
  }, 
  {
    "province": "BC", 
    "latitude": "48.449", 
    "postal_code": "V9A", 
    "longitude": "-123.3842"
  }, 
  {
    "province": "BC", 
    "latitude": "48.4519", 
    "postal_code": "V9B", 
    "longitude": "-123.4417"
  }, 
  {
    "province": "BC", 
    "latitude": "48.4544", 
    "postal_code": "V9C", 
    "longitude": "-123.458"
  }, 
  {
    "province": "BC", 
    "latitude": "48.4633", 
    "postal_code": "V9E", 
    "longitude": "-123.4538"
  }, 
  {
    "province": "BC", 
    "latitude": "50.089", 
    "postal_code": "V9G", 
    "longitude": "-125.3444"
  }, 
  {
    "province": "BC", 
    "latitude": "49.9164", 
    "postal_code": "V9H", 
    "longitude": "-125.1875"
  }, 
  {
    "province": "BC", 
    "latitude": "49.8684", 
    "postal_code": "V9J", 
    "longitude": "-125.1252"
  }, 
  {
    "province": "BC", 
    "latitude": "49.3506", 
    "postal_code": "V9K", 
    "longitude": "-124.409"
  }, 
  {
    "province": "BC", 
    "latitude": "48.7768", 
    "postal_code": "V9L", 
    "longitude": "-123.7077"
  }, 
  {
    "province": "BC", 
    "latitude": "49.6728", 
    "postal_code": "V9M", 
    "longitude": "-124.947"
  }, 
  {
    "province": "BC", 
    "latitude": "49.686", 
    "postal_code": "V9N", 
    "longitude": "-125.0191"
  }, 
  {
    "province": "BC", 
    "latitude": "49.3233", 
    "postal_code": "V9P", 
    "longitude": "-124.3227"
  }, 
  {
    "province": "BC", 
    "latitude": "49.136", 
    "postal_code": "V9R", 
    "longitude": "-123.9483"
  }, 
  {
    "province": "BC", 
    "latitude": "49.174", 
    "postal_code": "V9S", 
    "longitude": "-123.9422"
  }, 
  {
    "province": "BC", 
    "latitude": "49.2079", 
    "postal_code": "V9T", 
    "longitude": "-123.979"
  }, 
  {
    "province": "BC", 
    "latitude": "49.2477", 
    "postal_code": "V9V", 
    "longitude": "-124.0501"
  }, 
  {
    "province": "BC", 
    "latitude": "50.0059", 
    "postal_code": "V9W", 
    "longitude": "-125.2343"
  }, 
  {
    "province": "BC", 
    "latitude": "49.1207", 
    "postal_code": "V9X", 
    "longitude": "-123.9284"
  }, 
  {
    "province": "BC", 
    "latitude": "49.2197", 
    "postal_code": "V9Y", 
    "longitude": "-124.8101"
  }, 
  {
    "province": "MB", 
    "latitude": "49.0563", 
    "postal_code": "R0A", 
    "longitude": "-96.1126"
  }, 
  {
    "province": "MB", 
    "latitude": "55.8244", 
    "postal_code": "R0B", 
    "longitude": "-98.8348"
  }, 
  {
    "province": "MB", 
    "latitude": "50.7011", 
    "postal_code": "R0C", 
    "longitude": "-97.1462"
  }, 
  {
    "province": "MB", 
    "latitude": "50.4275", 
    "postal_code": "R0E", 
    "longitude": "-95.3439"
  }, 
  {
    "province": "MB", 
    "latitude": "49.0698", 
    "postal_code": "R0G", 
    "longitude": "-98.7619"
  }, 
  {
    "province": "MB", 
    "latitude": "49.7223", 
    "postal_code": "R0H", 
    "longitude": "-99.0009"
  }, 
  {
    "province": "MB", 
    "latitude": "50.7774", 
    "postal_code": "R0J", 
    "longitude": "-99.5546"
  }, 
  {
    "province": "MB", 
    "latitude": "49.0694", 
    "postal_code": "R0K", 
    "longitude": "-99.527"
  }, 
  {
    "province": "MB", 
    "latitude": "52.4175", 
    "postal_code": "R0L", 
    "longitude": "-100.9577"
  }, 
  {
    "province": "MB", 
    "latitude": "50.0226", 
    "postal_code": "R0M", 
    "longitude": "-101.3637"
  }, 
  {
    "province": "MB", 
    "latitude": "50.1483", 
    "postal_code": "R1A", 
    "longitude": "-96.8756"
  }, 
  {
    "province": "MB", 
    "latitude": "50.0958", 
    "postal_code": "R1B", 
    "longitude": "-96.9329"
  }, 
  {
    "province": "MB", 
    "latitude": "49.9694", 
    "postal_code": "R1N", 
    "longitude": "-98.3131"
  }, 
  {
    "province": "MB", 
    "latitude": "49.9069", 
    "postal_code": "R2C", 
    "longitude": "-97.0011"
  }, 
  {
    "province": "MB", 
    "latitude": "49.9611", 
    "postal_code": "R2E", 
    "longitude": "-97.0212"
  }, 
  {
    "province": "MB", 
    "latitude": "49.9465", 
    "postal_code": "R2G", 
    "longitude": "-97.0585"
  }, 
  {
    "province": "MB", 
    "latitude": "49.8792", 
    "postal_code": "R2H", 
    "longitude": "-97.1062"
  }, 
  {
    "province": "MB", 
    "latitude": "49.8717", 
    "postal_code": "R2J", 
    "longitude": "-97.0765"
  }, 
  {
    "province": "MB", 
    "latitude": "49.9225", 
    "postal_code": "R2K", 
    "longitude": "-97.0947"
  }, 
  {
    "province": "MB", 
    "latitude": "49.9069", 
    "postal_code": "R2L", 
    "longitude": "-97.0845"
  }, 
  {
    "province": "MB", 
    "latitude": "49.853", 
    "postal_code": "R2M", 
    "longitude": "-97.0998"
  }, 
  {
    "province": "MB", 
    "latitude": "49.819", 
    "postal_code": "R2N", 
    "longitude": "-97.0926"
  }, 
  {
    "province": "MB", 
    "latitude": "49.9585", 
    "postal_code": "R2P", 
    "longitude": "-97.1796"
  }, 
  {
    "province": "MB", 
    "latitude": "49.9324", 
    "postal_code": "R2R", 
    "longitude": "-97.1988"
  }, 
  {
    "province": "MB", 
    "latitude": "49.9378", 
    "postal_code": "R2V", 
    "longitude": "-97.1183"
  }, 
  {
    "province": "MB", 
    "latitude": "49.9241", 
    "postal_code": "R2W", 
    "longitude": "-97.1292"
  }, 
  {
    "province": "MB", 
    "latitude": "49.928", 
    "postal_code": "R2X", 
    "longitude": "-97.1618"
  }, 
  {
    "province": "MB", 
    "latitude": "49.8963", 
    "postal_code": "R2Y", 
    "longitude": "-97.297"
  }, 
  {
    "province": "MB", 
    "latitude": "49.9004", 
    "postal_code": "R3A", 
    "longitude": "-97.1457"
  }, 
  {
    "province": "MB", 
    "latitude": "49.8972", 
    "postal_code": "R3B", 
    "longitude": "-97.1366"
  }, 
  {
    "province": "MB", 
    "latitude": "49.8788", 
    "postal_code": "R3C", 
    "longitude": "-97.159"
  }, 
  {
    "province": "MB", 
    "latitude": "49.9139", 
    "postal_code": "R3E", 
    "longitude": "-97.1847"
  }, 
  {
    "province": "MB", 
    "latitude": "49.8826", 
    "postal_code": "R3G", 
    "longitude": "-97.1623"
  }, 
  {
    "province": "MB", 
    "latitude": "49.8971", 
    "postal_code": "R3H", 
    "longitude": "-97.2163"
  }, 
  {
    "province": "MB", 
    "latitude": "49.8858", 
    "postal_code": "R3J", 
    "longitude": "-97.2601"
  }, 
  {
    "province": "MB", 
    "latitude": "49.8811", 
    "postal_code": "R3K", 
    "longitude": "-97.3194"
  }, 
  {
    "province": "MB", 
    "latitude": "49.8671", 
    "postal_code": "R3L", 
    "longitude": "-97.1225"
  }, 
  {
    "province": "MB", 
    "latitude": "49.8663", 
    "postal_code": "R3M", 
    "longitude": "-97.1639"
  }, 
  {
    "province": "MB", 
    "latitude": "49.8722", 
    "postal_code": "R3N", 
    "longitude": "-97.1888"
  }, 
  {
    "province": "MB", 
    "latitude": "49.834", 
    "postal_code": "R3P", 
    "longitude": "-97.1865"
  }, 
  {
    "province": "MB", 
    "latitude": "49.854", 
    "postal_code": "R3R", 
    "longitude": "-97.2712"
  }, 
  {
    "province": "MB", 
    "latitude": "49.842", 
    "postal_code": "R3S", 
    "longitude": "-97.3083"
  }, 
  {
    "province": "MB", 
    "latitude": "49.849", 
    "postal_code": "R3T", 
    "longitude": "-97.1497"
  }, 
  {
    "province": "MB", 
    "latitude": "49.7732", 
    "postal_code": "R3V", 
    "longitude": "-97.1561"
  }, 
  {
    "province": "MB", 
    "latitude": "49.8968", 
    "postal_code": "R3W", 
    "longitude": "-97.0279"
  }, 
  {
    "province": "MB", 
    "latitude": "49.8378", 
    "postal_code": "R3X", 
    "longitude": "-97.0675"
  }, 
  {
    "province": "MB", 
    "latitude": "49.8275", 
    "postal_code": "R3Y", 
    "longitude": "-97.183"
  }, 
  {
    "province": "MB", 
    "latitude": "49.977", 
    "postal_code": "R4A", 
    "longitude": "-97.0633"
  }, 
  {
    "province": "MB", 
    "latitude": "49.8628", 
    "postal_code": "R4H", 
    "longitude": "-97.3348"
  }, 
  {
    "province": "MB", 
    "latitude": "49.8987", 
    "postal_code": "R4J", 
    "longitude": "-97.3843"
  }, 
  {
    "province": "MB", 
    "latitude": "49.8298", 
    "postal_code": "R4K", 
    "longitude": "-97.7549"
  }, 
  {
    "province": "MB", 
    "latitude": "49.8943", 
    "postal_code": "R4L", 
    "longitude": "-97.5178"
  }, 
  {
    "province": "MB", 
    "latitude": "49.7082", 
    "postal_code": "R5A", 
    "longitude": "-96.9867"
  }, 
  {
    "province": "MB", 
    "latitude": "49.5264", 
    "postal_code": "R5G", 
    "longitude": "-96.6867"
  }, 
  {
    "province": "MB", 
    "latitude": "49.6667", 
    "postal_code": "R5H", 
    "longitude": "-96.648"
  }, 
  {
    "province": "MB", 
    "latitude": "49.1861", 
    "postal_code": "R6M", 
    "longitude": "-98.1204"
  }, 
  {
    "province": "MB", 
    "latitude": "49.1859", 
    "postal_code": "R6W", 
    "longitude": "-97.9396"
  }, 
  {
    "province": "MB", 
    "latitude": "49.8431", 
    "postal_code": "R7A", 
    "longitude": "-99.9452"
  }, 
  {
    "province": "MB", 
    "latitude": "49.8373", 
    "postal_code": "R7B", 
    "longitude": "-99.9747"
  }, 
  {
    "province": "MB", 
    "latitude": "49.8688", 
    "postal_code": "R7C", 
    "longitude": "-99.9684"
  }, 
  {
    "province": "MB", 
    "latitude": "51.1465", 
    "postal_code": "R7N", 
    "longitude": "-100.0421"
  }, 
  {
    "province": "MB", 
    "latitude": "54.76", 
    "postal_code": "R8A", 
    "longitude": "-101.8704"
  }, 
  {
    "province": "MB", 
    "latitude": "55.7428", 
    "postal_code": "R8N", 
    "longitude": "-97.8779"
  }, 
  {
    "province": "MB", 
    "latitude": "53.8228", 
    "postal_code": "R9A", 
    "longitude": "-101.2356"
  }, 
  {
    "province": "NB", 
    "latitude": "46.0625", 
    "postal_code": "E1A", 
    "longitude": "-64.7105"
  }, 
  {
    "province": "NB", 
    "latitude": "46.0738", 
    "postal_code": "E1B", 
    "longitude": "-64.755"
  }, 
  {
    "province": "NB", 
    "latitude": "46.0888", 
    "postal_code": "E1C", 
    "longitude": "-64.7723"
  }, 
  {
    "province": "NB", 
    "latitude": "46.0599", 
    "postal_code": "E1E", 
    "longitude": "-64.844"
  }, 
  {
    "province": "NB", 
    "latitude": "46.1117", 
    "postal_code": "E1G", 
    "longitude": "-64.834"
  }, 
  {
    "province": "NB", 
    "latitude": "46.1506", 
    "postal_code": "E1H", 
    "longitude": "-64.6799"
  }, 
  {
    "province": "NB", 
    "latitude": "45.9829", 
    "postal_code": "E1J", 
    "longitude": "-64.8634"
  }, 
  {
    "province": "NB", 
    "latitude": "47.0155", 
    "postal_code": "E1N", 
    "longitude": "-65.5071"
  }, 
  {
    "province": "NB", 
    "latitude": "47.0085", 
    "postal_code": "E1V", 
    "longitude": "-65.5833"
  }, 
  {
    "province": "NB", 
    "latitude": "47.7624", 
    "postal_code": "E1W", 
    "longitude": "-65.0324"
  }, 
  {
    "province": "NB", 
    "latitude": "47.4883", 
    "postal_code": "E1X", 
    "longitude": "-64.9189"
  }, 
  {
    "province": "NB", 
    "latitude": "47.6605", 
    "postal_code": "E2A", 
    "longitude": "-65.6414"
  }, 
  {
    "province": "NB", 
    "latitude": "45.4165", 
    "postal_code": "E2E", 
    "longitude": "-65.9913"
  }, 
  {
    "province": "NB", 
    "latitude": "45.4397", 
    "postal_code": "E2G", 
    "longitude": "-65.9392"
  }, 
  {
    "province": "NB", 
    "latitude": "45.3481", 
    "postal_code": "E2H", 
    "longitude": "-66.0186"
  }, 
  {
    "province": "NB", 
    "latitude": "45.286", 
    "postal_code": "E2J", 
    "longitude": "-66.0421"
  }, 
  {
    "province": "NB", 
    "latitude": "45.2746", 
    "postal_code": "E2K", 
    "longitude": "-66.0871"
  }, 
  {
    "province": "NB", 
    "latitude": "45.2742", 
    "postal_code": "E2L", 
    "longitude": "-66.0645"
  }, 
  {
    "province": "NB", 
    "latitude": "45.2758", 
    "postal_code": "E2M", 
    "longitude": "-66.0845"
  }, 
  {
    "province": "NB", 
    "latitude": "45.3151", 
    "postal_code": "E2N", 
    "longitude": "-65.9615"
  }, 
  {
    "province": "NB", 
    "latitude": "45.2488", 
    "postal_code": "E2P", 
    "longitude": "-66.0025"
  }, 
  {
    "province": "NB", 
    "latitude": "45.2735", 
    "postal_code": "E2R", 
    "longitude": "-66.0099"
  }, 
  {
    "province": "NB", 
    "latitude": "45.3679", 
    "postal_code": "E2S", 
    "longitude": "-65.9564"
  }, 
  {
    "province": "NB", 
    "latitude": "45.8509", 
    "postal_code": "E2V", 
    "longitude": "-66.467"
  }, 
  {
    "province": "NB", 
    "latitude": "45.9784", 
    "postal_code": "E3A", 
    "longitude": "-66.6905"
  }, 
  {
    "province": "NB", 
    "latitude": "45.9535", 
    "postal_code": "E3B", 
    "longitude": "-66.6704"
  }, 
  {
    "province": "NB", 
    "latitude": "45.9356", 
    "postal_code": "E3C", 
    "longitude": "-66.6609"
  }, 
  {
    "province": "NB", 
    "latitude": "45.8134", 
    "postal_code": "E3E", 
    "longitude": "-66.932"
  }, 
  {
    "province": "NB", 
    "latitude": "45.1728", 
    "postal_code": "E3L", 
    "longitude": "-67.2946"
  }, 
  {
    "province": "NB", 
    "latitude": "48.0091", 
    "postal_code": "E3N", 
    "longitude": "-66.6707"
  }, 
  {
    "province": "NB", 
    "latitude": "47.3614", 
    "postal_code": "E3V", 
    "longitude": "-68.3218"
  }, 
  {
    "province": "NB", 
    "latitude": "47.052", 
    "postal_code": "E3Y", 
    "longitude": "-67.7368"
  }, 
  {
    "province": "NB", 
    "latitude": "47.0471", 
    "postal_code": "E3Z", 
    "longitude": "-67.7527"
  }, 
  {
    "province": "NB", 
    "latitude": "46.1655", 
    "postal_code": "E4A", 
    "longitude": "-65.872"
  }, 
  {
    "province": "NB", 
    "latitude": "45.9393", 
    "postal_code": "E4B", 
    "longitude": "-66.09"
  }, 
  {
    "province": "NB", 
    "latitude": "45.808", 
    "postal_code": "E4C", 
    "longitude": "-65.9652"
  }, 
  {
    "province": "NB", 
    "latitude": "45.7223", 
    "postal_code": "E4E", 
    "longitude": "-65.5108"
  }, 
  {
    "province": "NB", 
    "latitude": "45.9078", 
    "postal_code": "E4G", 
    "longitude": "-65.5334"
  }, 
  {
    "province": "NB", 
    "latitude": "45.9078", 
    "postal_code": "E4H", 
    "longitude": "-64.8245"
  }, 
  {
    "province": "NB", 
    "latitude": "45.9787", 
    "postal_code": "E4J", 
    "longitude": "-64.9898"
  }, 
  {
    "province": "NB", 
    "latitude": "46.0477", 
    "postal_code": "E4K", 
    "longitude": "-64.6202"
  }, 
  {
    "province": "NB", 
    "latitude": "45.8919", 
    "postal_code": "E4L", 
    "longitude": "-64.3699"
  }, 
  {
    "province": "NB", 
    "latitude": "46.0957", 
    "postal_code": "E4M", 
    "longitude": "-63.9068"
  }, 
  {
    "province": "NB", 
    "latitude": "46.2313", 
    "postal_code": "E4N", 
    "longitude": "-64.2615"
  }, 
  {
    "province": "NB", 
    "latitude": "46.2165", 
    "postal_code": "E4P", 
    "longitude": "-64.5128"
  }, 
  {
    "province": "NB", 
    "latitude": "46.2324", 
    "postal_code": "E4R", 
    "longitude": "-64.785"
  }, 
  {
    "province": "NB", 
    "latitude": "46.4171", 
    "postal_code": "E4S", 
    "longitude": "-64.9241"
  }, 
  {
    "province": "NB", 
    "latitude": "46.3026", 
    "postal_code": "E4T", 
    "longitude": "-64.9648"
  }, 
  {
    "province": "NB", 
    "latitude": "46.3131", 
    "postal_code": "E4V", 
    "longitude": "-64.5853"
  }, 
  {
    "province": "NB", 
    "latitude": "46.6493", 
    "postal_code": "E4W", 
    "longitude": "-64.8842"
  }, 
  {
    "province": "NB", 
    "latitude": "46.735", 
    "postal_code": "E4X", 
    "longitude": "-64.9744"
  }, 
  {
    "province": "NB", 
    "latitude": "46.7333", 
    "postal_code": "E4Y", 
    "longitude": "-65.4489"
  }, 
  {
    "province": "NB", 
    "latitude": "45.751", 
    "postal_code": "E4Z", 
    "longitude": "-65.048"
  }, 
  {
    "province": "NB", 
    "latitude": "45.2441", 
    "postal_code": "E5A", 
    "longitude": "-66.9929"
  }, 
  {
    "province": "NB", 
    "latitude": "45.0732", 
    "postal_code": "E5B", 
    "longitude": "-67.0428"
  }, 
  {
    "province": "NB", 
    "latitude": "45.2441", 
    "postal_code": "E5C", 
    "longitude": "-66.9929"
  }, 
  {
    "province": "NB", 
    "latitude": "44.887", 
    "postal_code": "E5E", 
    "longitude": "-66.95"
  }, 
  {
    "province": "NB", 
    "latitude": "44.6586", 
    "postal_code": "E5G", 
    "longitude": "-66.8625"
  }, 
  {
    "province": "NB", 
    "latitude": "45.0766", 
    "postal_code": "E5H", 
    "longitude": "-66.77"
  }, 
  {
    "province": "NB", 
    "latitude": "45.2116", 
    "postal_code": "E5J", 
    "longitude": "-66.3491"
  }, 
  {
    "province": "NB", 
    "latitude": "45.331", 
    "postal_code": "E5K", 
    "longitude": "-66.2095"
  }, 
  {
    "province": "NB", 
    "latitude": "45.5281", 
    "postal_code": "E5L", 
    "longitude": "-66.511"
  }, 
  {
    "province": "NB", 
    "latitude": "45.6287", 
    "postal_code": "E5M", 
    "longitude": "-66.1751"
  }, 
  {
    "province": "NB", 
    "latitude": "45.5263", 
    "postal_code": "E5N", 
    "longitude": "-65.8155"
  }, 
  {
    "province": "NB", 
    "latitude": "45.8489", 
    "postal_code": "E5P", 
    "longitude": "-65.788"
  }, 
  {
    "province": "NB", 
    "latitude": "45.3849", 
    "postal_code": "E5R", 
    "longitude": "-65.6331"
  }, 
  {
    "province": "NB", 
    "latitude": "45.3571", 
    "postal_code": "E5S", 
    "longitude": "-66.0858"
  }, 
  {
    "province": "NB", 
    "latitude": "45.6769", 
    "postal_code": "E5T", 
    "longitude": "-65.884"
  }, 
  {
    "province": "NB", 
    "latitude": "45.0481", 
    "postal_code": "E5V", 
    "longitude": "-66.9556"
  }, 
  {
    "province": "NB", 
    "latitude": "46.2767", 
    "postal_code": "E6A", 
    "longitude": "-66.7384"
  }, 
  {
    "province": "NB", 
    "latitude": "46.2324", 
    "postal_code": "E6B", 
    "longitude": "-66.6683"
  }, 
  {
    "province": "NB", 
    "latitude": "45.9523", 
    "postal_code": "E6C", 
    "longitude": "-66.6717"
  }, 
  {
    "province": "NB", 
    "latitude": "46.1296", 
    "postal_code": "E6E", 
    "longitude": "-67.1953"
  }, 
  {
    "province": "NB", 
    "latitude": "45.9942", 
    "postal_code": "E6G", 
    "longitude": "-67.2397"
  }, 
  {
    "province": "NB", 
    "latitude": "45.7207", 
    "postal_code": "E6H", 
    "longitude": "-67.6516"
  }, 
  {
    "province": "NB", 
    "latitude": "45.5927", 
    "postal_code": "E6J", 
    "longitude": "-67.2973"
  }, 
  {
    "province": "NB", 
    "latitude": "45.6975", 
    "postal_code": "E6K", 
    "longitude": "-66.9557"
  }, 
  {
    "province": "NB", 
    "latitude": "46.12", 
    "postal_code": "E6L", 
    "longitude": "-66.9477"
  }, 
  {
    "province": "NB", 
    "latitude": "47.2542", 
    "postal_code": "E7A", 
    "longitude": "-68.7211"
  }, 
  {
    "province": "NB", 
    "latitude": "47.4785", 
    "postal_code": "E7B", 
    "longitude": "-68.415"
  }, 
  {
    "province": "NB", 
    "latitude": "47.3516", 
    "postal_code": "E7C", 
    "longitude": "-68.2208"
  }, 
  {
    "province": "NB", 
    "latitude": "47.1717", 
    "postal_code": "E7E", 
    "longitude": "-67.925"
  }, 
  {
    "province": "NB", 
    "latitude": "46.9097", 
    "postal_code": "E7G", 
    "longitude": "-67.3971"
  }, 
  {
    "province": "NB", 
    "latitude": "46.7284", 
    "postal_code": "E7H", 
    "longitude": "-67.7057"
  }, 
  {
    "province": "NB", 
    "latitude": "46.5082", 
    "postal_code": "E7J", 
    "longitude": "-67.5871"
  }, 
  {
    "province": "NB", 
    "latitude": "46.4328", 
    "postal_code": "E7K", 
    "longitude": "-67.7105"
  }, 
  {
    "province": "NB", 
    "latitude": "46.4418", 
    "postal_code": "E7L", 
    "longitude": "-67.63"
  }, 
  {
    "province": "NB", 
    "latitude": "46.1368", 
    "postal_code": "E7M", 
    "longitude": "-67.5817"
  }, 
  {
    "province": "NB", 
    "latitude": "46.0089", 
    "postal_code": "E7N", 
    "longitude": "-67.7236"
  }, 
  {
    "province": "NB", 
    "latitude": "46.3709", 
    "postal_code": "E7P", 
    "longitude": "-67.445"
  }, 
  {
    "province": "NB", 
    "latitude": "47.5021", 
    "postal_code": "E8A", 
    "longitude": "-67.3897"
  }, 
  {
    "province": "NB", 
    "latitude": "47.6454", 
    "postal_code": "E8B", 
    "longitude": "-67.3437"
  }, 
  {
    "province": "NB", 
    "latitude": "48.0477", 
    "postal_code": "E8C", 
    "longitude": "-66.4004"
  }, 
  {
    "province": "NB", 
    "latitude": "47.9879", 
    "postal_code": "E8E", 
    "longitude": "-66.5145"
  }, 
  {
    "province": "NB", 
    "latitude": "47.8741", 
    "postal_code": "E8G", 
    "longitude": "-65.9102"
  }, 
  {
    "province": "NB", 
    "latitude": "47.7634", 
    "postal_code": "E8J", 
    "longitude": "-65.8276"
  }, 
  {
    "province": "NB", 
    "latitude": "47.6736", 
    "postal_code": "E8K", 
    "longitude": "-65.6795"
  }, 
  {
    "province": "NB", 
    "latitude": "47.5887", 
    "postal_code": "E8L", 
    "longitude": "-65.0979"
  }, 
  {
    "province": "NB", 
    "latitude": "47.8022", 
    "postal_code": "E8M", 
    "longitude": "-65.1862"
  }, 
  {
    "province": "NB", 
    "latitude": "47.8219", 
    "postal_code": "E8N", 
    "longitude": "-65.0917"
  }, 
  {
    "province": "NB", 
    "latitude": "47.6656", 
    "postal_code": "E8P", 
    "longitude": "-64.9543"
  }, 
  {
    "province": "NB", 
    "latitude": "47.7443", 
    "postal_code": "E8R", 
    "longitude": "-64.7222"
  }, 
  {
    "province": "NB", 
    "latitude": "47.7456", 
    "postal_code": "E8S", 
    "longitude": "-64.7143"
  }, 
  {
    "province": "NB", 
    "latitude": "47.792", 
    "postal_code": "E8T", 
    "longitude": "-64.652"
  }, 
  {
    "province": "NB", 
    "latitude": "46.7385", 
    "postal_code": "E9A", 
    "longitude": "-65.8528"
  }, 
  {
    "province": "NB", 
    "latitude": "46.7772", 
    "postal_code": "E9B", 
    "longitude": "-65.8638"
  }, 
  {
    "province": "NB", 
    "latitude": "46.4477", 
    "postal_code": "E9C", 
    "longitude": "-66.2584"
  }, 
  {
    "province": "NB", 
    "latitude": "46.9795", 
    "postal_code": "E9E", 
    "longitude": "-65.6715"
  }, 
  {
    "province": "NB", 
    "latitude": "47.2316", 
    "postal_code": "E9G", 
    "longitude": "-65.1378"
  }, 
  {
    "province": "NB", 
    "latitude": "47.3272", 
    "postal_code": "E9H", 
    "longitude": "-65.011"
  }, 
  {
    "province": "NL", 
    "latitude": "47.0073", 
    "postal_code": "A0A", 
    "longitude": "-52.9589"
  }, 
  {
    "province": "NL", 
    "latitude": "47.7609", 
    "postal_code": "A0B", 
    "longitude": "-53.9834"
  }, 
  {
    "province": "NL", 
    "latitude": "48.3464", 
    "postal_code": "A0C", 
    "longitude": "-53.9646"
  }, 
  {
    "province": "NL", 
    "latitude": "47.3597", 
    "postal_code": "A0E", 
    "longitude": "-54.8984"
  }, 
  {
    "province": "NL", 
    "latitude": "49.4536", 
    "postal_code": "A0G", 
    "longitude": "-54.1045"
  }, 
  {
    "province": "NL", 
    "latitude": "49.1301", 
    "postal_code": "A0H", 
    "longitude": "-56.0845"
  }, 
  {
    "province": "NL", 
    "latitude": "49.5959", 
    "postal_code": "A0J", 
    "longitude": "-55.6739"
  }, 
  {
    "province": "NL", 
    "latitude": "51.2327", 
    "postal_code": "A0K", 
    "longitude": "-56.7969"
  }, 
  {
    "province": "NL", 
    "latitude": "48.9934", 
    "postal_code": "A0L", 
    "longitude": "-58.1009"
  }, 
  {
    "province": "NL", 
    "latitude": "48.1816", 
    "postal_code": "A0M", 
    "longitude": "-58.858"
  }, 
  {
    "province": "NL", 
    "latitude": "48.6113", 
    "postal_code": "A0N", 
    "longitude": "-58.8736"
  }, 
  {
    "province": "NL", 
    "latitude": "55.8889", 
    "postal_code": "A0P", 
    "longitude": "-60.8805"
  }, 
  {
    "province": "NL", 
    "latitude": "53.5329", 
    "postal_code": "A0R", 
    "longitude": "-64.0145"
  }, 
  {
    "province": "NL", 
    "latitude": "47.571", 
    "postal_code": "A1A", 
    "longitude": "-52.6961"
  }, 
  {
    "province": "NL", 
    "latitude": "47.5736", 
    "postal_code": "A1B", 
    "longitude": "-52.7083"
  }, 
  {
    "province": "NL", 
    "latitude": "47.5677", 
    "postal_code": "A1C", 
    "longitude": "-52.7031"
  }, 
  {
    "province": "NL", 
    "latitude": "47.5507", 
    "postal_code": "A1E", 
    "longitude": "-52.7147"
  }, 
  {
    "province": "NL", 
    "latitude": "47.5295", 
    "postal_code": "A1G", 
    "longitude": "-52.7417"
  }, 
  {
    "province": "NL", 
    "latitude": "47.4926", 
    "postal_code": "A1H", 
    "longitude": "-52.8123"
  }, 
  {
    "province": "NL", 
    "latitude": "47.6542", 
    "postal_code": "A1K", 
    "longitude": "-52.7367"
  }, 
  {
    "province": "NL", 
    "latitude": "47.5363", 
    "postal_code": "A1L", 
    "longitude": "-52.8389"
  }, 
  {
    "province": "NL", 
    "latitude": "47.5982", 
    "postal_code": "A1M", 
    "longitude": "-52.8384"
  }, 
  {
    "province": "NL", 
    "latitude": "47.5203", 
    "postal_code": "A1N", 
    "longitude": "-52.7789"
  }, 
  {
    "province": "NL", 
    "latitude": "47.462", 
    "postal_code": "A1S", 
    "longitude": "-52.7895"
  }, 
  {
    "province": "NL", 
    "latitude": "48.9632", 
    "postal_code": "A1V", 
    "longitude": "-54.6169"
  }, 
  {
    "province": "NL", 
    "latitude": "47.5329", 
    "postal_code": "A1W", 
    "longitude": "-52.9132"
  }, 
  {
    "province": "NL", 
    "latitude": "47.5238", 
    "postal_code": "A1X", 
    "longitude": "-52.9595"
  }, 
  {
    "province": "NL", 
    "latitude": "48.9268", 
    "postal_code": "A1Y", 
    "longitude": "-55.6613"
  }, 
  {
    "province": "NL", 
    "latitude": "48.9249", 
    "postal_code": "A2A", 
    "longitude": "-55.6493"
  }, 
  {
    "province": "NL", 
    "latitude": "48.949", 
    "postal_code": "A2B", 
    "longitude": "-55.6725"
  }, 
  {
    "province": "NL", 
    "latitude": "48.9654", 
    "postal_code": "A2H", 
    "longitude": "-57.9225"
  }, 
  {
    "province": "NL", 
    "latitude": "48.5656", 
    "postal_code": "A2N", 
    "longitude": "-58.6"
  }, 
  {
    "province": "NL", 
    "latitude": "52.9348", 
    "postal_code": "A2V", 
    "longitude": "-66.9145"
  }, 
  {
    "province": "NL", 
    "latitude": "48.1666", 
    "postal_code": "A5A", 
    "longitude": "-53.9628"
  }, 
  {
    "province": "NL", 
    "latitude": "49.1778", 
    "postal_code": "A8A", 
    "longitude": "-57.413"
  }, 
  {
    "province": "NS", 
    "latitude": "46.2811", 
    "postal_code": "B0C", 
    "longitude": "-60.2825"
  }, 
  {
    "province": "NS", 
    "latitude": "45.5148", 
    "postal_code": "B0E", 
    "longitude": "-60.966"
  }, 
  {
    "province": "NS", 
    "latitude": "45.6051", 
    "postal_code": "B0H", 
    "longitude": "-61.6975"
  }, 
  {
    "province": "NS", 
    "latitude": "45.1458", 
    "postal_code": "B0J", 
    "longitude": "-61.8108"
  }, 
  {
    "province": "NS", 
    "latitude": "45.5808", 
    "postal_code": "B0K", 
    "longitude": "-62.1969"
  }, 
  {
    "province": "NS", 
    "latitude": "45.5802", 
    "postal_code": "B0L", 
    "longitude": "-64.6646"
  }, 
  {
    "province": "NS", 
    "latitude": "45.3317", 
    "postal_code": "B0M", 
    "longitude": "-64.7596"
  }, 
  {
    "province": "NS", 
    "latitude": "44.8794", 
    "postal_code": "B0N", 
    "longitude": "-63.7254"
  }, 
  {
    "province": "NS", 
    "latitude": "45.0191", 
    "postal_code": "B0P", 
    "longitude": "-64.8882"
  }, 
  {
    "province": "NS", 
    "latitude": "44.7424", 
    "postal_code": "B0R", 
    "longitude": "-65.5111"
  }, 
  {
    "province": "NS", 
    "latitude": "44.6491", 
    "postal_code": "B0S", 
    "longitude": "-65.5472"
  }, 
  {
    "province": "NS", 
    "latitude": "43.7029", 
    "postal_code": "B0T", 
    "longitude": "-65.1119"
  }, 
  {
    "province": "NS", 
    "latitude": "44.03", 
    "postal_code": "B0V", 
    "longitude": "-65.9445"
  }, 
  {
    "province": "NS", 
    "latitude": "43.8187", 
    "postal_code": "B0W", 
    "longitude": "-65.9517"
  }, 
  {
    "province": "NS", 
    "latitude": "46.1794", 
    "postal_code": "B1A", 
    "longitude": "-59.9477"
  }, 
  {
    "province": "NS", 
    "latitude": "46.1365", 
    "postal_code": "B1B", 
    "longitude": "-59.8717"
  }, 
  {
    "province": "NS", 
    "latitude": "46.2152", 
    "postal_code": "B1C", 
    "longitude": "-60.2452"
  }, 
  {
    "province": "NS", 
    "latitude": "46.2003", 
    "postal_code": "B1E", 
    "longitude": "-60.0215"
  }, 
  {
    "province": "NS", 
    "latitude": "46.2063", 
    "postal_code": "B1G", 
    "longitude": "-60.0255"
  }, 
  {
    "province": "NS", 
    "latitude": "46.2295", 
    "postal_code": "B1H", 
    "longitude": "-60.0941"
  }, 
  {
    "province": "NS", 
    "latitude": "45.8365", 
    "postal_code": "B1J", 
    "longitude": "-60.4435"
  }, 
  {
    "province": "NS", 
    "latitude": "46.1309", 
    "postal_code": "B1K", 
    "longitude": "-60.1864"
  }, 
  {
    "province": "NS", 
    "latitude": "46.0911", 
    "postal_code": "B1L", 
    "longitude": "-60.2462"
  }, 
  {
    "province": "NS", 
    "latitude": "46.169", 
    "postal_code": "B1M", 
    "longitude": "-60.1013"
  }, 
  {
    "province": "NS", 
    "latitude": "46.167", 
    "postal_code": "B1N", 
    "longitude": "-60.1943"
  }, 
  {
    "province": "NS", 
    "latitude": "46.1337", 
    "postal_code": "B1P", 
    "longitude": "-60.1939"
  }, 
  {
    "province": "NS", 
    "latitude": "46.1224", 
    "postal_code": "B1R", 
    "longitude": "-60.2236"
  }, 
  {
    "province": "NS", 
    "latitude": "46.1334", 
    "postal_code": "B1S", 
    "longitude": "-60.1947"
  }, 
  {
    "province": "NS", 
    "latitude": "46.1122", 
    "postal_code": "B1T", 
    "longitude": "-60.2372"
  }, 
  {
    "province": "NS", 
    "latitude": "46.2383", 
    "postal_code": "B1V", 
    "longitude": "-60.2165"
  }, 
  {
    "province": "NS", 
    "latitude": "45.9245", 
    "postal_code": "B1W", 
    "longitude": "-60.6449"
  }, 
  {
    "province": "NS", 
    "latitude": "46.2667", 
    "postal_code": "B1X", 
    "longitude": "-60.4333"
  }, 
  {
    "province": "NS", 
    "latitude": "46.1811", 
    "postal_code": "B1Y", 
    "longitude": "-60.5067"
  }, 
  {
    "province": "NS", 
    "latitude": "46.2397", 
    "postal_code": "B2A", 
    "longitude": "-60.0998"
  }, 
  {
    "province": "NS", 
    "latitude": "45.6218", 
    "postal_code": "B2C", 
    "longitude": "-62.0004"
  }, 
  {
    "province": "NS", 
    "latitude": "45.6272", 
    "postal_code": "B2E", 
    "longitude": "-61.9977"
  }, 
  {
    "province": "NS", 
    "latitude": "45.6243", 
    "postal_code": "B2G", 
    "longitude": "-61.9996"
  }, 
  {
    "province": "NS", 
    "latitude": "45.5937", 
    "postal_code": "B2H", 
    "longitude": "-62.6585"
  }, 
  {
    "province": "NS", 
    "latitude": "45.3747", 
    "postal_code": "B2J", 
    "longitude": "-63.2951"
  }, 
  {
    "province": "NS", 
    "latitude": "45.3486", 
    "postal_code": "B2N", 
    "longitude": "-63.3029"
  }, 
  {
    "province": "NS", 
    "latitude": "44.7431", 
    "postal_code": "B2R", 
    "longitude": "-63.5144"
  }, 
  {
    "province": "NS", 
    "latitude": "44.9775", 
    "postal_code": "B2S", 
    "longitude": "-63.4209"
  }, 
  {
    "province": "NS", 
    "latitude": "44.8488", 
    "postal_code": "B2T", 
    "longitude": "-63.5999"
  }, 
  {
    "province": "NS", 
    "latitude": "44.669", 
    "postal_code": "B2V", 
    "longitude": "-63.5019"
  }, 
  {
    "province": "NS", 
    "latitude": "44.6449", 
    "postal_code": "B2W", 
    "longitude": "-63.5433"
  }, 
  {
    "province": "NS", 
    "latitude": "44.6829", 
    "postal_code": "B2X", 
    "longitude": "-63.5442"
  }, 
  {
    "province": "NS", 
    "latitude": "44.7314", 
    "postal_code": "B2Y", 
    "longitude": "-63.6482"
  }, 
  {
    "province": "NS", 
    "latitude": "44.7104", 
    "postal_code": "B2Z", 
    "longitude": "-63.4759"
  }, 
  {
    "province": "NS", 
    "latitude": "44.6663", 
    "postal_code": "B3A", 
    "longitude": "-63.5763"
  }, 
  {
    "province": "NS", 
    "latitude": "44.6886", 
    "postal_code": "B3B", 
    "longitude": "-63.6076"
  }, 
  {
    "province": "NS", 
    "latitude": "44.7227", 
    "postal_code": "B3E", 
    "longitude": "-63.3973"
  }, 
  {
    "province": "NS", 
    "latitude": "44.6156", 
    "postal_code": "B3G", 
    "longitude": "-63.4929"
  }, 
  {
    "province": "NS", 
    "latitude": "44.6224", 
    "postal_code": "B3H", 
    "longitude": "-63.5736"
  }, 
  {
    "province": "NS", 
    "latitude": "44.641", 
    "postal_code": "B3J", 
    "longitude": "-63.5682"
  }, 
  {
    "province": "NS", 
    "latitude": "44.6514", 
    "postal_code": "B3K", 
    "longitude": "-63.5818"
  }, 
  {
    "province": "NS", 
    "latitude": "44.6464", 
    "postal_code": "B3L", 
    "longitude": "-63.5929"
  }, 
  {
    "province": "NS", 
    "latitude": "44.6617", 
    "postal_code": "B3M", 
    "longitude": "-63.6291"
  }, 
  {
    "province": "NS", 
    "latitude": "44.6327", 
    "postal_code": "B3N", 
    "longitude": "-63.6219"
  }, 
  {
    "province": "NS", 
    "latitude": "44.6284", 
    "postal_code": "B3P", 
    "longitude": "-63.596"
  }, 
  {
    "province": "NS", 
    "latitude": "44.5829", 
    "postal_code": "B3R", 
    "longitude": "-63.5671"
  }, 
  {
    "province": "NS", 
    "latitude": "44.6408", 
    "postal_code": "B3S", 
    "longitude": "-63.6723"
  }, 
  {
    "province": "NS", 
    "latitude": "44.6404", 
    "postal_code": "B3T", 
    "longitude": "-63.6888"
  }, 
  {
    "province": "NS", 
    "latitude": "44.5682", 
    "postal_code": "B3V", 
    "longitude": "-63.6177"
  }, 
  {
    "province": "NS", 
    "latitude": "44.5539", 
    "postal_code": "B3Z", 
    "longitude": "-63.8307"
  }, 
  {
    "province": "NS", 
    "latitude": "44.7089", 
    "postal_code": "B4A", 
    "longitude": "-63.6676"
  }, 
  {
    "province": "NS", 
    "latitude": "44.7235", 
    "postal_code": "B4B", 
    "longitude": "-63.6899"
  }, 
  {
    "province": "NS", 
    "latitude": "44.7765", 
    "postal_code": "B4C", 
    "longitude": "-63.6854"
  }, 
  {
    "province": "NS", 
    "latitude": "44.7803", 
    "postal_code": "B4E", 
    "longitude": "-63.6916"
  }, 
  {
    "province": "NS", 
    "latitude": "44.805", 
    "postal_code": "B4G", 
    "longitude": "-63.667"
  }, 
  {
    "province": "NS", 
    "latitude": "45.8353", 
    "postal_code": "B4H", 
    "longitude": "-64.2182"
  }, 
  {
    "province": "NS", 
    "latitude": "45.0899", 
    "postal_code": "B4N", 
    "longitude": "-64.4963"
  }, 
  {
    "province": "NS", 
    "latitude": "45.0917", 
    "postal_code": "B4P", 
    "longitude": "-64.3599"
  }, 
  {
    "province": "NS", 
    "latitude": "44.3695", 
    "postal_code": "B4R", 
    "longitude": "-64.5197"
  }, 
  {
    "province": "NS", 
    "latitude": "44.3683", 
    "postal_code": "B4V", 
    "longitude": "-64.506"
  }, 
  {
    "province": "NS", 
    "latitude": "43.8245", 
    "postal_code": "B5A", 
    "longitude": "-66.1207"
  }, 
  {
    "province": "NS", 
    "latitude": "45.612", 
    "postal_code": "B9A", 
    "longitude": "-61.3486"
  }, 
  {
    "province": "NT", 
    "latitude": "62.4043", 
    "postal_code": "X0E", 
    "longitude": "-110.7417"
  }, 
  {
    "province": "NT", 
    "latitude": "60.25", 
    "postal_code": "X0G", 
    "longitude": "-123.41"
  }, 
  {
    "province": "NT", 
    "latitude": "62.4725", 
    "postal_code": "X1A", 
    "longitude": "-114.3417"
  }, 
  {
    "province": "NU", 
    "latitude": "70.4643", 
    "postal_code": "X0A", 
    "longitude": "-68.4789"
  }, 
  {
    "province": "NU", 
    "latitude": "67.6963", 
    "postal_code": "X0B", 
    "longitude": "-107.9068"
  }, 
  {
    "province": "NU", 
    "latitude": "62.2237", 
    "postal_code": "X0C", 
    "longitude": "-92.5904"
  }, 
  {
    "province": "ON", 
    "latitude": "45.1953", 
    "postal_code": "K0A", 
    "longitude": "-76.1496"
  }, 
  {
    "province": "ON", 
    "latitude": "45.4131", 
    "postal_code": "K0B", 
    "longitude": "-74.9148"
  }, 
  {
    "province": "ON", 
    "latitude": "45.2228", 
    "postal_code": "K0C", 
    "longitude": "-75.032"
  }, 
  {
    "province": "ON", 
    "latitude": "44.6478", 
    "postal_code": "K0E", 
    "longitude": "-75.7656"
  }, 
  {
    "province": "ON", 
    "latitude": "45.0113", 
    "postal_code": "K0G", 
    "longitude": "-75.6459"
  }, 
  {
    "province": "ON", 
    "latitude": "44.2166", 
    "postal_code": "K0H", 
    "longitude": "-76.6455"
  }, 
  {
    "province": "ON", 
    "latitude": "45.3985", 
    "postal_code": "K0J", 
    "longitude": "-78.0836"
  }, 
  {
    "province": "ON", 
    "latitude": "44.0594", 
    "postal_code": "K0K", 
    "longitude": "-77.386"
  }, 
  {
    "province": "ON", 
    "latitude": "44.8324", 
    "postal_code": "K0L", 
    "longitude": "-77.9302"
  }, 
  {
    "province": "ON", 
    "latitude": "44.438", 
    "postal_code": "K0M", 
    "longitude": "-78.6828"
  }, 
  {
    "province": "ON", 
    "latitude": "45.4207", 
    "postal_code": "K1A", 
    "longitude": "-75.7023"
  }, 
  {
    "province": "ON", 
    "latitude": "45.4325", 
    "postal_code": "K1B", 
    "longitude": "-75.5624"
  }, 
  {
    "province": "ON", 
    "latitude": "45.4805", 
    "postal_code": "K1C", 
    "longitude": "-75.5237"
  }, 
  {
    "province": "ON", 
    "latitude": "45.4882", 
    "postal_code": "K1E", 
    "longitude": "-75.5199"
  }, 
  {
    "province": "ON", 
    "latitude": "45.4118", 
    "postal_code": "K1G", 
    "longitude": "-75.6304"
  }, 
  {
    "province": "ON", 
    "latitude": "45.3938", 
    "postal_code": "K1H", 
    "longitude": "-75.6639"
  }, 
  {
    "province": "ON", 
    "latitude": "45.422", 
    "postal_code": "K1J", 
    "longitude": "-75.6303"
  }, 
  {
    "province": "ON", 
    "latitude": "45.4354", 
    "postal_code": "K1K", 
    "longitude": "-75.6475"
  }, 
  {
    "province": "ON", 
    "latitude": "45.44", 
    "postal_code": "K1L", 
    "longitude": "-75.6524"
  }, 
  {
    "province": "ON", 
    "latitude": "45.4461", 
    "postal_code": "K1M", 
    "longitude": "-75.6744"
  }, 
  {
    "province": "ON", 
    "latitude": "45.3176", 
    "postal_code": "K1N", 
    "longitude": "-75.895"
  }, 
  {
    "province": "ON", 
    "latitude": "45.423", 
    "postal_code": "K1P", 
    "longitude": "-75.702"
  }, 
  {
    "province": "ON", 
    "latitude": "45.4", 
    "postal_code": "K1R", 
    "longitude": "-75.7235"
  }, 
  {
    "province": "ON", 
    "latitude": "45.4127", 
    "postal_code": "K1S", 
    "longitude": "-75.6742"
  }, 
  {
    "province": "ON", 
    "latitude": "45.352", 
    "postal_code": "K1T", 
    "longitude": "-75.6421"
  }, 
  {
    "province": "ON", 
    "latitude": "45.3523", 
    "postal_code": "K1V", 
    "longitude": "-75.6512"
  }, 
  {
    "province": "ON", 
    "latitude": "45.436", 
    "postal_code": "K1W", 
    "longitude": "-75.5471"
  }, 
  {
    "province": "ON", 
    "latitude": "45.2884", 
    "postal_code": "K1X", 
    "longitude": "-75.5992"
  }, 
  {
    "province": "ON", 
    "latitude": "45.399", 
    "postal_code": "K1Y", 
    "longitude": "-75.7304"
  }, 
  {
    "province": "ON", 
    "latitude": "45.3956", 
    "postal_code": "K1Z", 
    "longitude": "-75.7462"
  }, 
  {
    "province": "ON", 
    "latitude": "45.3778", 
    "postal_code": "K2A", 
    "longitude": "-75.7632"
  }, 
  {
    "province": "ON", 
    "latitude": "45.3679", 
    "postal_code": "K2B", 
    "longitude": "-75.7888"
  }, 
  {
    "province": "ON", 
    "latitude": "45.3594", 
    "postal_code": "K2C", 
    "longitude": "-75.7523"
  }, 
  {
    "province": "ON", 
    "latitude": "45.3353", 
    "postal_code": "K2E", 
    "longitude": "-75.7209"
  }, 
  {
    "province": "ON", 
    "latitude": "45.3286", 
    "postal_code": "K2G", 
    "longitude": "-75.7703"
  }, 
  {
    "province": "ON", 
    "latitude": "45.3155", 
    "postal_code": "K2H", 
    "longitude": "-75.837"
  }, 
  {
    "province": "ON", 
    "latitude": "45.2882", 
    "postal_code": "K2J", 
    "longitude": "-75.7566"
  }, 
  {
    "province": "ON", 
    "latitude": "45.3339", 
    "postal_code": "K2K", 
    "longitude": "-75.9098"
  }, 
  {
    "province": "ON", 
    "latitude": "45.3125", 
    "postal_code": "K2L", 
    "longitude": "-75.8838"
  }, 
  {
    "province": "ON", 
    "latitude": "45.2884", 
    "postal_code": "K2M", 
    "longitude": "-75.8648"
  }, 
  {
    "province": "ON", 
    "latitude": "45.4129", 
    "postal_code": "K2P", 
    "longitude": "-75.6901"
  }, 
  {
    "province": "ON", 
    "latitude": "45.2776", 
    "postal_code": "K2R", 
    "longitude": "-75.7902"
  }, 
  {
    "province": "ON", 
    "latitude": "45.2573", 
    "postal_code": "K2S", 
    "longitude": "-75.9153"
  }, 
  {
    "province": "ON", 
    "latitude": "45.3121", 
    "postal_code": "K2T", 
    "longitude": "-75.9217"
  }, 
  {
    "province": "ON", 
    "latitude": "45.3018", 
    "postal_code": "K2V", 
    "longitude": "-75.9081"
  }, 
  {
    "province": "ON", 
    "latitude": "45.3564", 
    "postal_code": "K2W", 
    "longitude": "-75.9445"
  }, 
  {
    "province": "ON", 
    "latitude": "45.4769", 
    "postal_code": "K4A", 
    "longitude": "-75.4835"
  }, 
  {
    "province": "ON", 
    "latitude": "45.4251", 
    "postal_code": "K4B", 
    "longitude": "-75.4288"
  }, 
  {
    "province": "ON", 
    "latitude": "45.5177", 
    "postal_code": "K4C", 
    "longitude": "-75.4108"
  }, 
  {
    "province": "ON", 
    "latitude": "45.5415", 
    "postal_code": "K4K", 
    "longitude": "-75.3062"
  }, 
  {
    "province": "ON", 
    "latitude": "45.2289", 
    "postal_code": "K4M", 
    "longitude": "-75.6817"
  }, 
  {
    "province": "ON", 
    "latitude": "45.258", 
    "postal_code": "K4P", 
    "longitude": "-75.5762"
  }, 
  {
    "province": "ON", 
    "latitude": "45.2573", 
    "postal_code": "K4R", 
    "longitude": "-75.3675"
  }, 
  {
    "province": "ON", 
    "latitude": "45.6101", 
    "postal_code": "K6A", 
    "longitude": "-74.6085"
  }, 
  {
    "province": "ON", 
    "latitude": "45.0186", 
    "postal_code": "K6H", 
    "longitude": "-74.7129"
  }, 
  {
    "province": "ON", 
    "latitude": "45.0149", 
    "postal_code": "K6J", 
    "longitude": "-74.7279"
  }, 
  {
    "province": "ON", 
    "latitude": "45.0607", 
    "postal_code": "K6K", 
    "longitude": "-74.7542"
  }, 
  {
    "province": "ON", 
    "latitude": "44.618", 
    "postal_code": "K6T", 
    "longitude": "-75.6895"
  }, 
  {
    "province": "ON", 
    "latitude": "44.5906", 
    "postal_code": "K6V", 
    "longitude": "-75.6808"
  }, 
  {
    "province": "ON", 
    "latitude": "44.8995", 
    "postal_code": "K7A", 
    "longitude": "-76.021"
  }, 
  {
    "province": "ON", 
    "latitude": "45.135", 
    "postal_code": "K7C", 
    "longitude": "-76.1313"
  }, 
  {
    "province": "ON", 
    "latitude": "44.3319", 
    "postal_code": "K7G", 
    "longitude": "-76.1471"
  }, 
  {
    "province": "ON", 
    "latitude": "44.902", 
    "postal_code": "K7H", 
    "longitude": "-76.2457"
  }, 
  {
    "province": "ON", 
    "latitude": "44.2322", 
    "postal_code": "K7K", 
    "longitude": "-76.4799"
  }, 
  {
    "province": "ON", 
    "latitude": "44.231", 
    "postal_code": "K7L", 
    "longitude": "-76.4791"
  }, 
  {
    "province": "ON", 
    "latitude": "44.2274", 
    "postal_code": "K7M", 
    "longitude": "-76.5134"
  }, 
  {
    "province": "ON", 
    "latitude": "44.2255", 
    "postal_code": "K7N", 
    "longitude": "-76.629"
  }, 
  {
    "province": "ON", 
    "latitude": "44.2507", 
    "postal_code": "K7P", 
    "longitude": "-76.5828"
  }, 
  {
    "province": "ON", 
    "latitude": "44.2538", 
    "postal_code": "K7R", 
    "longitude": "-76.943"
  }, 
  {
    "province": "ON", 
    "latitude": "45.4238", 
    "postal_code": "K7S", 
    "longitude": "-76.3624"
  }, 
  {
    "province": "ON", 
    "latitude": "45.4779", 
    "postal_code": "K7V", 
    "longitude": "-76.6731"
  }, 
  {
    "province": "ON", 
    "latitude": "45.8173", 
    "postal_code": "K8A", 
    "longitude": "-77.1174"
  }, 
  {
    "province": "ON", 
    "latitude": "45.815", 
    "postal_code": "K8B", 
    "longitude": "-77.1107"
  }, 
  {
    "province": "ON", 
    "latitude": "45.9151", 
    "postal_code": "K8H", 
    "longitude": "-77.2754"
  }, 
  {
    "province": "ON", 
    "latitude": "44.1607", 
    "postal_code": "K8N", 
    "longitude": "-77.369"
  }, 
  {
    "province": "ON", 
    "latitude": "44.1605", 
    "postal_code": "K8P", 
    "longitude": "-77.3846"
  }, 
  {
    "province": "ON", 
    "latitude": "44.1312", 
    "postal_code": "K8R", 
    "longitude": "-77.4521"
  }, 
  {
    "province": "ON", 
    "latitude": "44.1106", 
    "postal_code": "K8V", 
    "longitude": "-77.5569"
  }, 
  {
    "province": "ON", 
    "latitude": "43.9851", 
    "postal_code": "K9A", 
    "longitude": "-78.1621"
  }, 
  {
    "province": "ON", 
    "latitude": "44.299", 
    "postal_code": "K9H", 
    "longitude": "-78.3145"
  }, 
  {
    "province": "ON", 
    "latitude": "44.2763", 
    "postal_code": "K9J", 
    "longitude": "-78.313"
  }, 
  {
    "province": "ON", 
    "latitude": "44.279", 
    "postal_code": "K9K", 
    "longitude": "-78.3659"
  }, 
  {
    "province": "ON", 
    "latitude": "44.3238", 
    "postal_code": "K9L", 
    "longitude": "-78.303"
  }, 
  {
    "province": "ON", 
    "latitude": "44.3512", 
    "postal_code": "K9V", 
    "longitude": "-78.7192"
  }, 
  {
    "province": "ON", 
    "latitude": "44.1836", 
    "postal_code": "L0A", 
    "longitude": "-78.5563"
  }, 
  {
    "province": "ON", 
    "latitude": "44.0286", 
    "postal_code": "L0B", 
    "longitude": "-79.0015"
  }, 
  {
    "province": "ON", 
    "latitude": "44.0371", 
    "postal_code": "L0C", 
    "longitude": "-79.1964"
  }, 
  {
    "province": "ON", 
    "latitude": "44.2406", 
    "postal_code": "L0E", 
    "longitude": "-79.357"
  }, 
  {
    "province": "ON", 
    "latitude": "44.1595", 
    "postal_code": "L0G", 
    "longitude": "-79.8733"
  }, 
  {
    "province": "ON", 
    "latitude": "43.9282", 
    "postal_code": "L0H", 
    "longitude": "-79.1201"
  }, 
  {
    "province": "ON", 
    "latitude": "43.7788", 
    "postal_code": "L0J", 
    "longitude": "-79.4991"
  }, 
  {
    "province": "ON", 
    "latitude": "44.6072", 
    "postal_code": "L0K", 
    "longitude": "-79.6291"
  }, 
  {
    "province": "ON", 
    "latitude": "44.1535", 
    "postal_code": "L0L", 
    "longitude": "-79.8683"
  }, 
  {
    "province": "ON", 
    "latitude": "44.1476", 
    "postal_code": "L0M", 
    "longitude": "-79.872"
  }, 
  {
    "province": "ON", 
    "latitude": "43.8582", 
    "postal_code": "L0N", 
    "longitude": "-80.0696"
  }, 
  {
    "province": "ON", 
    "latitude": "43.7882", 
    "postal_code": "L0P", 
    "longitude": "-79.6754"
  }, 
  {
    "province": "ON", 
    "latitude": "43.1661", 
    "postal_code": "L0R", 
    "longitude": "-80.0702"
  }, 
  {
    "province": "ON", 
    "latitude": "43.0796", 
    "postal_code": "L0S", 
    "longitude": "-79.199"
  }, 
  {
    "province": "ON", 
    "latitude": "43.9427", 
    "postal_code": "L1A", 
    "longitude": "-78.2944"
  }, 
  {
    "province": "ON", 
    "latitude": "43.8966", 
    "postal_code": "L1B", 
    "longitude": "-78.6309"
  }, 
  {
    "province": "ON", 
    "latitude": "43.9014", 
    "postal_code": "L1C", 
    "longitude": "-78.6755"
  }, 
  {
    "province": "ON", 
    "latitude": "43.914", 
    "postal_code": "L1E", 
    "longitude": "-78.6925"
  }, 
  {
    "province": "ON", 
    "latitude": "43.898", 
    "postal_code": "L1G", 
    "longitude": "-78.8656"
  }, 
  {
    "province": "ON", 
    "latitude": "43.8973", 
    "postal_code": "L1H", 
    "longitude": "-78.8641"
  }, 
  {
    "province": "ON", 
    "latitude": "43.8587", 
    "postal_code": "L1J", 
    "longitude": "-78.8341"
  }, 
  {
    "province": "ON", 
    "latitude": "43.9091", 
    "postal_code": "L1K", 
    "longitude": "-78.8088"
  }, 
  {
    "province": "ON", 
    "latitude": "43.9527", 
    "postal_code": "L1L", 
    "longitude": "-78.8795"
  }, 
  {
    "province": "ON", 
    "latitude": "43.9561", 
    "postal_code": "L1M", 
    "longitude": "-78.9556"
  }, 
  {
    "province": "ON", 
    "latitude": "43.8581", 
    "postal_code": "L1N", 
    "longitude": "-78.9319"
  }, 
  {
    "province": "ON", 
    "latitude": "43.8744", 
    "postal_code": "L1P", 
    "longitude": "-78.9638"
  }, 
  {
    "province": "ON", 
    "latitude": "43.9018", 
    "postal_code": "L1R", 
    "longitude": "-78.9347"
  }, 
  {
    "province": "ON", 
    "latitude": "43.8265", 
    "postal_code": "L1S", 
    "longitude": "-78.9991"
  }, 
  {
    "province": "ON", 
    "latitude": "43.8603", 
    "postal_code": "L1T", 
    "longitude": "-79.0434"
  }, 
  {
    "province": "ON", 
    "latitude": "43.8087", 
    "postal_code": "L1V", 
    "longitude": "-79.1307"
  }, 
  {
    "province": "ON", 
    "latitude": "43.8125", 
    "postal_code": "L1W", 
    "longitude": "-79.0827"
  }, 
  {
    "province": "ON", 
    "latitude": "43.8449", 
    "postal_code": "L1X", 
    "longitude": "-79.0996"
  }, 
  {
    "province": "ON", 
    "latitude": "43.9903", 
    "postal_code": "L1Y", 
    "longitude": "-79.1004"
  }, 
  {
    "province": "ON", 
    "latitude": "43.8627", 
    "postal_code": "L1Z", 
    "longitude": "-79.0136"
  }, 
  {
    "province": "ON", 
    "latitude": "42.8845", 
    "postal_code": "L2A", 
    "longitude": "-78.9398"
  }, 
  {
    "province": "ON", 
    "latitude": "43.0939", 
    "postal_code": "L2E", 
    "longitude": "-79.0699"
  }, 
  {
    "province": "ON", 
    "latitude": "43.0963", 
    "postal_code": "L2G", 
    "longitude": "-79.074"
  }, 
  {
    "province": "ON", 
    "latitude": "43.1148", 
    "postal_code": "L2H", 
    "longitude": "-79.1238"
  }, 
  {
    "province": "ON", 
    "latitude": "43.1155", 
    "postal_code": "L2J", 
    "longitude": "-79.0916"
  }, 
  {
    "province": "ON", 
    "latitude": "43.2237", 
    "postal_code": "L2M", 
    "longitude": "-79.2191"
  }, 
  {
    "province": "ON", 
    "latitude": "43.1751", 
    "postal_code": "L2N", 
    "longitude": "-79.2389"
  }, 
  {
    "province": "ON", 
    "latitude": "43.1418", 
    "postal_code": "L2P", 
    "longitude": "-79.2133"
  }, 
  {
    "province": "ON", 
    "latitude": "43.1719", 
    "postal_code": "L2R", 
    "longitude": "-79.227"
  }, 
  {
    "province": "ON", 
    "latitude": "43.1275", 
    "postal_code": "L2S", 
    "longitude": "-79.2631"
  }, 
  {
    "province": "ON", 
    "latitude": "43.1334", 
    "postal_code": "L2T", 
    "longitude": "-79.1989"
  }, 
  {
    "province": "ON", 
    "latitude": "43.1017", 
    "postal_code": "L2V", 
    "longitude": "-79.1997"
  }, 
  {
    "province": "ON", 
    "latitude": "43.1743", 
    "postal_code": "L2W", 
    "longitude": "-79.2744"
  }, 
  {
    "province": "ON", 
    "latitude": "42.9859", 
    "postal_code": "L3B", 
    "longitude": "-79.2232"
  }, 
  {
    "province": "ON", 
    "latitude": "42.9989", 
    "postal_code": "L3C", 
    "longitude": "-79.2466"
  }, 
  {
    "province": "ON", 
    "latitude": "42.8754", 
    "postal_code": "L3K", 
    "longitude": "-79.237"
  }, 
  {
    "province": "ON", 
    "latitude": "43.2005", 
    "postal_code": "L3M", 
    "longitude": "-79.6292"
  }, 
  {
    "province": "ON", 
    "latitude": "43.8605", 
    "postal_code": "L3P", 
    "longitude": "-79.3279"
  }, 
  {
    "province": "ON", 
    "latitude": "43.86", 
    "postal_code": "L3R", 
    "longitude": "-79.3605"
  }, 
  {
    "province": "ON", 
    "latitude": "43.831", 
    "postal_code": "L3S", 
    "longitude": "-79.2768"
  }, 
  {
    "province": "ON", 
    "latitude": "43.7984", 
    "postal_code": "L3T", 
    "longitude": "-79.4186"
  }, 
  {
    "province": "ON", 
    "latitude": "44.6039", 
    "postal_code": "L3V", 
    "longitude": "-79.4126"
  }, 
  {
    "province": "ON", 
    "latitude": "44.0464", 
    "postal_code": "L3X", 
    "longitude": "-79.4874"
  }, 
  {
    "province": "ON", 
    "latitude": "44.0414", 
    "postal_code": "L3Y", 
    "longitude": "-79.4534"
  }, 
  {
    "province": "ON", 
    "latitude": "44.1208", 
    "postal_code": "L3Z", 
    "longitude": "-79.5656"
  }, 
  {
    "province": "ON", 
    "latitude": "43.9707", 
    "postal_code": "L4A", 
    "longitude": "-79.2503"
  }, 
  {
    "province": "ON", 
    "latitude": "43.8417", 
    "postal_code": "L4B", 
    "longitude": "-79.4011"
  }, 
  {
    "province": "ON", 
    "latitude": "43.8759", 
    "postal_code": "L4C", 
    "longitude": "-79.4381"
  }, 
  {
    "province": "ON", 
    "latitude": "43.9423", 
    "postal_code": "L4E", 
    "longitude": "-79.4595"
  }, 
  {
    "province": "ON", 
    "latitude": "43.9909", 
    "postal_code": "L4G", 
    "longitude": "-79.4639"
  }, 
  {
    "province": "ON", 
    "latitude": "43.8084", 
    "postal_code": "L4H", 
    "longitude": "-79.6089"
  }, 
  {
    "province": "ON", 
    "latitude": "43.7964", 
    "postal_code": "L4J", 
    "longitude": "-79.4278"
  }, 
  {
    "province": "ON", 
    "latitude": "43.7848", 
    "postal_code": "L4K", 
    "longitude": "-79.4811"
  }, 
  {
    "province": "ON", 
    "latitude": "43.7886", 
    "postal_code": "L4L", 
    "longitude": "-79.5919"
  }, 
  {
    "province": "ON", 
    "latitude": "44.3885", 
    "postal_code": "L4M", 
    "longitude": "-79.6886"
  }, 
  {
    "province": "ON", 
    "latitude": "44.3891", 
    "postal_code": "L4N", 
    "longitude": "-79.6901"
  }, 
  {
    "province": "ON", 
    "latitude": "44.2421", 
    "postal_code": "L4P", 
    "longitude": "-79.4818"
  }, 
  {
    "province": "ON", 
    "latitude": "44.7542", 
    "postal_code": "L4R", 
    "longitude": "-79.9005"
  }, 
  {
    "province": "ON", 
    "latitude": "43.8975", 
    "postal_code": "L4S", 
    "longitude": "-79.4415"
  }, 
  {
    "province": "ON", 
    "latitude": "43.6951", 
    "postal_code": "L4T", 
    "longitude": "-79.6525"
  }, 
  {
    "province": "ON", 
    "latitude": "43.6879", 
    "postal_code": "L4V", 
    "longitude": "-79.6072"
  }, 
  {
    "province": "ON", 
    "latitude": "43.6272", 
    "postal_code": "L4W", 
    "longitude": "-79.6222"
  }, 
  {
    "province": "ON", 
    "latitude": "43.5996", 
    "postal_code": "L4X", 
    "longitude": "-79.5664"
  }, 
  {
    "province": "ON", 
    "latitude": "43.5854", 
    "postal_code": "L4Y", 
    "longitude": "-79.583"
  }, 
  {
    "province": "ON", 
    "latitude": "43.6092", 
    "postal_code": "L4Z", 
    "longitude": "-79.6201"
  }, 
  {
    "province": "ON", 
    "latitude": "43.5701", 
    "postal_code": "L5A", 
    "longitude": "-79.5985"
  }, 
  {
    "province": "ON", 
    "latitude": "43.5665", 
    "postal_code": "L5B", 
    "longitude": "-79.6035"
  }, 
  {
    "province": "ON", 
    "latitude": "43.5591", 
    "postal_code": "L5C", 
    "longitude": "-79.6186"
  }, 
  {
    "province": "ON", 
    "latitude": "43.571", 
    "postal_code": "L5E", 
    "longitude": "-79.5668"
  }, 
  {
    "province": "ON", 
    "latitude": "43.5581", 
    "postal_code": "L5G", 
    "longitude": "-79.5738"
  }, 
  {
    "province": "ON", 
    "latitude": "43.5472", 
    "postal_code": "L5H", 
    "longitude": "-79.585"
  }, 
  {
    "province": "ON", 
    "latitude": "43.5146", 
    "postal_code": "L5J", 
    "longitude": "-79.6063"
  }, 
  {
    "province": "ON", 
    "latitude": "43.5319", 
    "postal_code": "L5K", 
    "longitude": "-79.6403"
  }, 
  {
    "province": "ON", 
    "latitude": "43.5372", 
    "postal_code": "L5L", 
    "longitude": "-79.6667"
  }, 
  {
    "province": "ON", 
    "latitude": "43.5747", 
    "postal_code": "L5M", 
    "longitude": "-79.7278"
  }, 
  {
    "province": "ON", 
    "latitude": "43.5892", 
    "postal_code": "L5N", 
    "longitude": "-79.7239"
  }, 
  {
    "province": "ON", 
    "latitude": "43.6904", 
    "postal_code": "L5P", 
    "longitude": "-79.6238"
  }, 
  {
    "province": "ON", 
    "latitude": "43.5974", 
    "postal_code": "L5R", 
    "longitude": "-79.6402"
  }, 
  {
    "province": "ON", 
    "latitude": "43.6975", 
    "postal_code": "L5S", 
    "longitude": "-79.6615"
  }, 
  {
    "province": "ON", 
    "latitude": "43.6578", 
    "postal_code": "L5T", 
    "longitude": "-79.6607"
  }, 
  {
    "province": "ON", 
    "latitude": "43.6097", 
    "postal_code": "L5V", 
    "longitude": "-79.704"
  }, 
  {
    "province": "ON", 
    "latitude": "43.6261", 
    "postal_code": "L5W", 
    "longitude": "-79.729"
  }, 
  {
    "province": "ON", 
    "latitude": "43.857", 
    "postal_code": "L6A", 
    "longitude": "-79.514"
  }, 
  {
    "province": "ON", 
    "latitude": "43.8845", 
    "postal_code": "L6B", 
    "longitude": "-79.2339"
  }, 
  {
    "province": "ON", 
    "latitude": "43.8842", 
    "postal_code": "L6C", 
    "longitude": "-79.3359"
  }, 
  {
    "province": "ON", 
    "latitude": "43.8927", 
    "postal_code": "L6E", 
    "longitude": "-79.2641"
  }, 
  {
    "province": "ON", 
    "latitude": "43.8478", 
    "postal_code": "L6G", 
    "longitude": "-79.3447"
  }, 
  {
    "province": "ON", 
    "latitude": "43.4543", 
    "postal_code": "L6H", 
    "longitude": "-79.6921"
  }, 
  {
    "province": "ON", 
    "latitude": "43.4427", 
    "postal_code": "L6J", 
    "longitude": "-79.6664"
  }, 
  {
    "province": "ON", 
    "latitude": "43.4401", 
    "postal_code": "L6K", 
    "longitude": "-79.669"
  }, 
  {
    "province": "ON", 
    "latitude": "43.4037", 
    "postal_code": "L6L", 
    "longitude": "-79.6934"
  }, 
  {
    "province": "ON", 
    "latitude": "43.4453", 
    "postal_code": "L6M", 
    "longitude": "-79.7095"
  }, 
  {
    "province": "ON", 
    "latitude": "43.7794", 
    "postal_code": "L6P", 
    "longitude": "-79.7284"
  }, 
  {
    "province": "ON", 
    "latitude": "43.7494", 
    "postal_code": "L6R", 
    "longitude": "-79.7511"
  }, 
  {
    "province": "ON", 
    "latitude": "43.7153", 
    "postal_code": "L6S", 
    "longitude": "-79.7321"
  }, 
  {
    "province": "ON", 
    "latitude": "43.6892", 
    "postal_code": "L6T", 
    "longitude": "-79.7079"
  }, 
  {
    "province": "ON", 
    "latitude": "43.7074", 
    "postal_code": "L6V", 
    "longitude": "-79.7853"
  }, 
  {
    "province": "ON", 
    "latitude": "43.6746", 
    "postal_code": "L6W", 
    "longitude": "-79.724"
  }, 
  {
    "province": "ON", 
    "latitude": "43.6858", 
    "postal_code": "L6X", 
    "longitude": "-79.7602"
  }, 
  {
    "province": "ON", 
    "latitude": "43.6699", 
    "postal_code": "L6Y", 
    "longitude": "-79.7444"
  }, 
  {
    "province": "ON", 
    "latitude": "43.7304", 
    "postal_code": "L6Z", 
    "longitude": "-79.8042"
  }, 
  {
    "province": "ON", 
    "latitude": "43.7023", 
    "postal_code": "L7A", 
    "longitude": "-79.7909"
  }, 
  {
    "province": "ON", 
    "latitude": "43.9327", 
    "postal_code": "L7B", 
    "longitude": "-79.5104"
  }, 
  {
    "province": "ON", 
    "latitude": "43.7467", 
    "postal_code": "L7C", 
    "longitude": "-79.8304"
  }, 
  {
    "province": "ON", 
    "latitude": "43.8628", 
    "postal_code": "L7E", 
    "longitude": "-79.7147"
  }, 
  {
    "province": "ON", 
    "latitude": "43.644", 
    "postal_code": "L7G", 
    "longitude": "-79.8787"
  }, 
  {
    "province": "ON", 
    "latitude": "43.634", 
    "postal_code": "L7J", 
    "longitude": "-80.0491"
  }, 
  {
    "province": "ON", 
    "latitude": "43.3479", 
    "postal_code": "L7L", 
    "longitude": "-79.7593"
  }, 
  {
    "province": "ON", 
    "latitude": "43.3585", 
    "postal_code": "L7M", 
    "longitude": "-79.8093"
  }, 
  {
    "province": "ON", 
    "latitude": "43.3336", 
    "postal_code": "L7N", 
    "longitude": "-79.7771"
  }, 
  {
    "province": "ON", 
    "latitude": "43.3503", 
    "postal_code": "L7P", 
    "longitude": "-79.8117"
  }, 
  {
    "province": "ON", 
    "latitude": "43.3248", 
    "postal_code": "L7R", 
    "longitude": "-79.7957"
  }, 
  {
    "province": "ON", 
    "latitude": "43.304", 
    "postal_code": "L7S", 
    "longitude": "-79.7991"
  }, 
  {
    "province": "ON", 
    "latitude": "43.3018", 
    "postal_code": "L7T", 
    "longitude": "-79.8497"
  }, 
  {
    "province": "ON", 
    "latitude": "43.2318", 
    "postal_code": "L8E", 
    "longitude": "-79.7696"
  }, 
  {
    "province": "ON", 
    "latitude": "43.2298", 
    "postal_code": "L8G", 
    "longitude": "-79.7722"
  }, 
  {
    "province": "ON", 
    "latitude": "43.2369", 
    "postal_code": "L8H", 
    "longitude": "-79.7991"
  }, 
  {
    "province": "ON", 
    "latitude": "43.1907", 
    "postal_code": "L8J", 
    "longitude": "-79.7878"
  }, 
  {
    "province": "ON", 
    "latitude": "43.2424", 
    "postal_code": "L8K", 
    "longitude": "-79.8192"
  }, 
  {
    "province": "ON", 
    "latitude": "43.2645", 
    "postal_code": "L8L", 
    "longitude": "-79.8664"
  }, 
  {
    "province": "ON", 
    "latitude": "43.2522", 
    "postal_code": "L8M", 
    "longitude": "-79.8489"
  }, 
  {
    "province": "ON", 
    "latitude": "43.2566", 
    "postal_code": "L8N", 
    "longitude": "-79.8683"
  }, 
  {
    "province": "ON", 
    "latitude": "43.257", 
    "postal_code": "L8P", 
    "longitude": "-79.8697"
  }, 
  {
    "province": "ON", 
    "latitude": "43.2574", 
    "postal_code": "L8R", 
    "longitude": "-79.8676"
  }, 
  {
    "province": "ON", 
    "latitude": "43.2604", 
    "postal_code": "L8S", 
    "longitude": "-79.8961"
  }, 
  {
    "province": "ON", 
    "latitude": "43.2365", 
    "postal_code": "L8T", 
    "longitude": "-79.8338"
  }, 
  {
    "province": "ON", 
    "latitude": "43.2428", 
    "postal_code": "L8V", 
    "longitude": "-79.8524"
  }, 
  {
    "province": "ON", 
    "latitude": "43.2141", 
    "postal_code": "L8W", 
    "longitude": "-79.8626"
  }, 
  {
    "province": "ON", 
    "latitude": "43.241", 
    "postal_code": "L9A", 
    "longitude": "-79.8452"
  }, 
  {
    "province": "ON", 
    "latitude": "43.2116", 
    "postal_code": "L9B", 
    "longitude": "-79.8915"
  }, 
  {
    "province": "ON", 
    "latitude": "43.2432", 
    "postal_code": "L9C", 
    "longitude": "-79.876"
  }, 
  {
    "province": "ON", 
    "latitude": "43.2199", 
    "postal_code": "L9G", 
    "longitude": "-79.9874"
  }, 
  {
    "province": "ON", 
    "latitude": "43.2638", 
    "postal_code": "L9H", 
    "longitude": "-79.9505"
  }, 
  {
    "province": "ON", 
    "latitude": "43.2359", 
    "postal_code": "L9K", 
    "longitude": "-79.9403"
  }, 
  {
    "province": "ON", 
    "latitude": "44.0905", 
    "postal_code": "L9L", 
    "longitude": "-78.9479"
  }, 
  {
    "province": "ON", 
    "latitude": "44.7672", 
    "postal_code": "L9M", 
    "longitude": "-79.9385"
  }, 
  {
    "province": "ON", 
    "latitude": "44.1315", 
    "postal_code": "L9N", 
    "longitude": "-79.4823"
  }, 
  {
    "province": "ON", 
    "latitude": "44.1065", 
    "postal_code": "L9P", 
    "longitude": "-79.1427"
  }, 
  {
    "province": "ON", 
    "latitude": "44.1513", 
    "postal_code": "L9R", 
    "longitude": "-79.8744"
  }, 
  {
    "province": "ON", 
    "latitude": "44.2871", 
    "postal_code": "L9S", 
    "longitude": "-79.6703"
  }, 
  {
    "province": "ON", 
    "latitude": "43.5034", 
    "postal_code": "L9T", 
    "longitude": "-79.8773"
  }, 
  {
    "province": "ON", 
    "latitude": "43.9471", 
    "postal_code": "L9V", 
    "longitude": "-80.1091"
  }, 
  {
    "province": "ON", 
    "latitude": "43.9258", 
    "postal_code": "L9W", 
    "longitude": "-80.1056"
  }, 
  {
    "province": "ON", 
    "latitude": "44.5029", 
    "postal_code": "L9Y", 
    "longitude": "-80.2176"
  }, 
  {
    "province": "ON", 
    "latitude": "44.5208", 
    "postal_code": "L9Z", 
    "longitude": "-80.0162"
  }, 
  {
    "province": "ON", 
    "latitude": "43.7976", 
    "postal_code": "M1B", 
    "longitude": "-79.227"
  }, 
  {
    "province": "ON", 
    "latitude": "43.7882", 
    "postal_code": "M1C", 
    "longitude": "-79.1911"
  }, 
  {
    "province": "ON", 
    "latitude": "43.7385", 
    "postal_code": "M1E", 
    "longitude": "-79.2021"
  }, 
  {
    "province": "ON", 
    "latitude": "43.7563", 
    "postal_code": "M1G", 
    "longitude": "-79.2224"
  }, 
  {
    "province": "ON", 
    "latitude": "43.7563", 
    "postal_code": "M1H", 
    "longitude": "-79.2417"
  }, 
  {
    "province": "ON", 
    "latitude": "43.7315", 
    "postal_code": "M1J", 
    "longitude": "-79.246"
  }, 
  {
    "province": "ON", 
    "latitude": "43.7025", 
    "postal_code": "M1K", 
    "longitude": "-79.2656"
  }, 
  {
    "province": "ON", 
    "latitude": "43.6905", 
    "postal_code": "M1L", 
    "longitude": "-79.2857"
  }, 
  {
    "province": "ON", 
    "latitude": "43.7041", 
    "postal_code": "M1M", 
    "longitude": "-79.2446"
  }, 
  {
    "province": "ON", 
    "latitude": "43.6748", 
    "postal_code": "M1N", 
    "longitude": "-79.2764"
  }, 
  {
    "province": "ON", 
    "latitude": "43.7422", 
    "postal_code": "M1P", 
    "longitude": "-79.2818"
  }, 
  {
    "province": "ON", 
    "latitude": "43.7293", 
    "postal_code": "M1R", 
    "longitude": "-79.3038"
  }, 
  {
    "province": "ON", 
    "latitude": "43.7807", 
    "postal_code": "M1S", 
    "longitude": "-79.2855"
  }, 
  {
    "province": "ON", 
    "latitude": "43.7719", 
    "postal_code": "M1T", 
    "longitude": "-79.3213"
  }, 
  {
    "province": "ON", 
    "latitude": "43.813", 
    "postal_code": "M1V", 
    "longitude": "-79.2781"
  }, 
  {
    "province": "ON", 
    "latitude": "43.7822", 
    "postal_code": "M1W", 
    "longitude": "-79.3261"
  }, 
  {
    "province": "ON", 
    "latitude": "43.8275", 
    "postal_code": "M1X", 
    "longitude": "-79.2437"
  }, 
  {
    "province": "ON", 
    "latitude": "43.7895", 
    "postal_code": "M2H", 
    "longitude": "-79.3735"
  }, 
  {
    "province": "ON", 
    "latitude": "43.7685", 
    "postal_code": "M2J", 
    "longitude": "-79.3584"
  }, 
  {
    "province": "ON", 
    "latitude": "43.7657", 
    "postal_code": "M2K", 
    "longitude": "-79.3835"
  }, 
  {
    "province": "ON", 
    "latitude": "43.7352", 
    "postal_code": "M2L", 
    "longitude": "-79.3818"
  }, 
  {
    "province": "ON", 
    "latitude": "43.784", 
    "postal_code": "M2M", 
    "longitude": "-79.4263"
  }, 
  {
    "province": "ON", 
    "latitude": "43.7521", 
    "postal_code": "M2N", 
    "longitude": "-79.4202"
  }, 
  {
    "province": "ON", 
    "latitude": "43.7393", 
    "postal_code": "M2P", 
    "longitude": "-79.4005"
  }, 
  {
    "province": "ON", 
    "latitude": "43.7648", 
    "postal_code": "M2R", 
    "longitude": "-79.4325"
  }, 
  {
    "province": "ON", 
    "latitude": "43.7358", 
    "postal_code": "M3A", 
    "longitude": "-79.328"
  }, 
  {
    "province": "ON", 
    "latitude": "43.7363", 
    "postal_code": "M3B", 
    "longitude": "-79.3498"
  }, 
  {
    "province": "ON", 
    "latitude": "43.7122", 
    "postal_code": "M3C", 
    "longitude": "-79.3237"
  }, 
  {
    "province": "ON", 
    "latitude": "43.7387", 
    "postal_code": "M3H", 
    "longitude": "-79.4337"
  }, 
  {
    "province": "ON", 
    "latitude": "43.7496", 
    "postal_code": "M3J", 
    "longitude": "-79.4886"
  }, 
  {
    "province": "ON", 
    "latitude": "43.7271", 
    "postal_code": "M3K", 
    "longitude": "-79.4666"
  }, 
  {
    "province": "ON", 
    "latitude": "43.7183", 
    "postal_code": "M3L", 
    "longitude": "-79.5119"
  }, 
  {
    "province": "ON", 
    "latitude": "43.72", 
    "postal_code": "M3M", 
    "longitude": "-79.5085"
  }, 
  {
    "province": "ON", 
    "latitude": "43.7387", 
    "postal_code": "M3N", 
    "longitude": "-79.5166"
  }, 
  {
    "province": "ON", 
    "latitude": "43.7159", 
    "postal_code": "M4A", 
    "longitude": "-79.3037"
  }, 
  {
    "province": "ON", 
    "latitude": "43.6979", 
    "postal_code": "M4B", 
    "longitude": "-79.2986"
  }, 
  {
    "province": "ON", 
    "latitude": "43.68", 
    "postal_code": "M4C", 
    "longitude": "-79.3218"
  }, 
  {
    "province": "ON", 
    "latitude": "43.6675", 
    "postal_code": "M4E", 
    "longitude": "-79.296"
  }, 
  {
    "province": "ON", 
    "latitude": "43.6918", 
    "postal_code": "M4G", 
    "longitude": "-79.3708"
  }, 
  {
    "province": "ON", 
    "latitude": "43.7018", 
    "postal_code": "M4H", 
    "longitude": "-79.3578"
  }, 
  {
    "province": "ON", 
    "latitude": "43.6713", 
    "postal_code": "M4J", 
    "longitude": "-79.3412"
  }, 
  {
    "province": "ON", 
    "latitude": "43.6668", 
    "postal_code": "M4K", 
    "longitude": "-79.3501"
  }, 
  {
    "province": "ON", 
    "latitude": "43.662", 
    "postal_code": "M4L", 
    "longitude": "-79.3281"
  }, 
  {
    "province": "ON", 
    "latitude": "43.6505", 
    "postal_code": "M4M", 
    "longitude": "-79.3369"
  }, 
  {
    "province": "ON", 
    "latitude": "43.7168", 
    "postal_code": "M4N", 
    "longitude": "-79.3998"
  }, 
  {
    "province": "ON", 
    "latitude": "43.7066", 
    "postal_code": "M4P", 
    "longitude": "-79.398"
  }, 
  {
    "province": "ON", 
    "latitude": "43.7066", 
    "postal_code": "M4R", 
    "longitude": "-79.3996"
  }, 
  {
    "province": "ON", 
    "latitude": "43.6964", 
    "postal_code": "M4S", 
    "longitude": "-79.3953"
  }, 
  {
    "province": "ON", 
    "latitude": "43.6825", 
    "postal_code": "M4T", 
    "longitude": "-79.3897"
  }, 
  {
    "province": "ON", 
    "latitude": "43.6778", 
    "postal_code": "M4V", 
    "longitude": "-79.3992"
  }, 
  {
    "province": "ON", 
    "latitude": "43.6699", 
    "postal_code": "M4W", 
    "longitude": "-79.3887"
  }, 
  {
    "province": "ON", 
    "latitude": "43.6647", 
    "postal_code": "M4X", 
    "longitude": "-79.3695"
  }, 
  {
    "province": "ON", 
    "latitude": "43.6618", 
    "postal_code": "M4Y", 
    "longitude": "-79.3847"
  }, 
  {
    "province": "ON", 
    "latitude": "43.6369", 
    "postal_code": "M5A", 
    "longitude": "-79.3505"
  }, 
  {
    "province": "ON", 
    "latitude": "43.6543", 
    "postal_code": "M5B", 
    "longitude": "-79.3796"
  }, 
  {
    "province": "ON", 
    "latitude": "43.687", 
    "postal_code": "M5C", 
    "longitude": "-79.5318"
  }, 
  {
    "province": "ON", 
    "latitude": "43.639", 
    "postal_code": "M5E", 
    "longitude": "-79.4499"
  }, 
  {
    "province": "ON", 
    "latitude": "43.6519", 
    "postal_code": "M5G", 
    "longitude": "-79.3874"
  }, 
  {
    "province": "ON", 
    "latitude": "43.649", 
    "postal_code": "M5H", 
    "longitude": "-79.3784"
  }, 
  {
    "province": "ON", 
    "latitude": "43.6441", 
    "postal_code": "M5J", 
    "longitude": "-79.3801"
  }, 
  {
    "province": "ON", 
    "latitude": "43.6469", 
    "postal_code": "M5K", 
    "longitude": "-79.3823"
  }, 
  {
    "province": "ON", 
    "latitude": "43.6492", 
    "postal_code": "M5L", 
    "longitude": "-79.3823"
  }, 
  {
    "province": "ON", 
    "latitude": "43.7248", 
    "postal_code": "M5M", 
    "longitude": "-79.4033"
  }, 
  {
    "province": "ON", 
    "latitude": "43.7043", 
    "postal_code": "M5N", 
    "longitude": "-79.4093"
  }, 
  {
    "province": "ON", 
    "latitude": "43.6981", 
    "postal_code": "M5P", 
    "longitude": "-79.3987"
  }, 
  {
    "province": "ON", 
    "latitude": "43.6705", 
    "postal_code": "M5R", 
    "longitude": "-79.3901"
  }, 
  {
    "province": "ON", 
    "latitude": "43.6619", 
    "postal_code": "M5S", 
    "longitude": "-79.3952"
  }, 
  {
    "province": "ON", 
    "latitude": "43.6497", 
    "postal_code": "M5T", 
    "longitude": "-79.3952"
  }, 
  {
    "province": "ON", 
    "latitude": "43.6525", 
    "postal_code": "M5V", 
    "longitude": "-79.3686"
  }, 
  {
    "province": "ON", 
    "latitude": "43.6437", 
    "postal_code": "M5W", 
    "longitude": "-79.3787"
  }, 
  {
    "province": "ON", 
    "latitude": "43.6492", 
    "postal_code": "M5X", 
    "longitude": "-79.3823"
  }, 
  {
    "province": "ON", 
    "latitude": "43.7193", 
    "postal_code": "M6A", 
    "longitude": "-79.43"
  }, 
  {
    "province": "ON", 
    "latitude": "43.7054", 
    "postal_code": "M6B", 
    "longitude": "-79.4272"
  }, 
  {
    "province": "ON", 
    "latitude": "43.683", 
    "postal_code": "M6C", 
    "longitude": "-79.4184"
  }, 
  {
    "province": "ON", 
    "latitude": "43.6797", 
    "postal_code": "M6E", 
    "longitude": "-79.4358"
  }, 
  {
    "province": "ON", 
    "latitude": "43.6565", 
    "postal_code": "M6G", 
    "longitude": "-79.4079"
  }, 
  {
    "province": "ON", 
    "latitude": "43.6536", 
    "postal_code": "M6H", 
    "longitude": "-79.4258"
  }, 
  {
    "province": "ON", 
    "latitude": "43.644", 
    "postal_code": "M6J", 
    "longitude": "-79.4062"
  }, 
  {
    "province": "ON", 
    "latitude": "43.6392", 
    "postal_code": "M6K", 
    "longitude": "-79.4058"
  }, 
  {
    "province": "ON", 
    "latitude": "43.7103", 
    "postal_code": "M6L", 
    "longitude": "-79.4714"
  }, 
  {
    "province": "ON", 
    "latitude": "43.6815", 
    "postal_code": "M6M", 
    "longitude": "-79.4668"
  }, 
  {
    "province": "ON", 
    "latitude": "43.668", 
    "postal_code": "M6N", 
    "longitude": "-79.4515"
  }, 
  {
    "province": "ON", 
    "latitude": "43.6558", 
    "postal_code": "M6P", 
    "longitude": "-79.4663"
  }, 
  {
    "province": "ON", 
    "latitude": "43.6403", 
    "postal_code": "M6R", 
    "longitude": "-79.4374"
  }, 
  {
    "province": "ON", 
    "latitude": "43.6358", 
    "postal_code": "M6S", 
    "longitude": "-79.4668"
  }, 
  {
    "province": "ON", 
    "latitude": "43.6641", 
    "postal_code": "M7A", 
    "longitude": "-79.3889"
  }, 
  {
    "province": "ON", 
    "latitude": "43.7804", 
    "postal_code": "M7Y", 
    "longitude": "-79.2505"
  }, 
  {
    "province": "ON", 
    "latitude": "43.6305", 
    "postal_code": "M8V", 
    "longitude": "-79.4762"
  }, 
  {
    "province": "ON", 
    "latitude": "43.5908", 
    "postal_code": "M8W", 
    "longitude": "-79.5218"
  }, 
  {
    "province": "ON", 
    "latitude": "43.649", 
    "postal_code": "M8X", 
    "longitude": "-79.4977"
  }, 
  {
    "province": "ON", 
    "latitude": "43.6181", 
    "postal_code": "M8Y", 
    "longitude": "-79.4967"
  }, 
  {
    "province": "ON", 
    "latitude": "43.6053", 
    "postal_code": "M8Z", 
    "longitude": "-79.5201"
  }, 
  {
    "province": "ON", 
    "latitude": "43.6434", 
    "postal_code": "M9A", 
    "longitude": "-79.5297"
  }, 
  {
    "province": "ON", 
    "latitude": "43.6383", 
    "postal_code": "M9B", 
    "longitude": "-79.5356"
  }, 
  {
    "province": "ON", 
    "latitude": "43.6088", 
    "postal_code": "M9C", 
    "longitude": "-79.5574"
  }, 
  {
    "province": "ON", 
    "latitude": "43.7494", 
    "postal_code": "M9L", 
    "longitude": "-79.5614"
  }, 
  {
    "province": "ON", 
    "latitude": "43.7182", 
    "postal_code": "M9M", 
    "longitude": "-79.5216"
  }, 
  {
    "province": "ON", 
    "latitude": "43.7087", 
    "postal_code": "M9N", 
    "longitude": "-79.5287"
  }, 
  {
    "province": "ON", 
    "latitude": "43.6814", 
    "postal_code": "M9P", 
    "longitude": "-79.5367"
  }, 
  {
    "province": "ON", 
    "latitude": "43.6808", 
    "postal_code": "M9R", 
    "longitude": "-79.5438"
  }, 
  {
    "province": "ON", 
    "latitude": "43.73", 
    "postal_code": "M9V", 
    "longitude": "-79.5542"
  }, 
  {
    "province": "ON", 
    "latitude": "43.6772", 
    "postal_code": "M9W", 
    "longitude": "-79.5894"
  }, 
  {
    "province": "ON", 
    "latitude": "42.9466", 
    "postal_code": "N0A", 
    "longitude": "-79.8509"
  }, 
  {
    "province": "ON", 
    "latitude": "43.7722", 
    "postal_code": "N0B", 
    "longitude": "-80.6586"
  }, 
  {
    "province": "ON", 
    "latitude": "44.2999", 
    "postal_code": "N0C", 
    "longitude": "-80.4804"
  }, 
  {
    "province": "ON", 
    "latitude": "43.0986", 
    "postal_code": "N0E", 
    "longitude": "-80.5633"
  }, 
  {
    "province": "ON", 
    "latitude": "43.8567", 
    "postal_code": "N0G", 
    "longitude": "-81.4023"
  }, 
  {
    "province": "ON", 
    "latitude": "44.3483", 
    "postal_code": "N0H", 
    "longitude": "-80.914"
  }, 
  {
    "province": "ON", 
    "latitude": "43.221", 
    "postal_code": "N0J", 
    "longitude": "-80.5613"
  }, 
  {
    "province": "ON", 
    "latitude": "43.5838", 
    "postal_code": "N0K", 
    "longitude": "-81.2351"
  }, 
  {
    "province": "ON", 
    "latitude": "42.8188", 
    "postal_code": "N0L", 
    "longitude": "-81.6437"
  }, 
  {
    "province": "ON", 
    "latitude": "43.5651", 
    "postal_code": "N0M", 
    "longitude": "-81.6986"
  }, 
  {
    "province": "ON", 
    "latitude": "42.7967", 
    "postal_code": "N0N", 
    "longitude": "-81.7938"
  }, 
  {
    "province": "ON", 
    "latitude": "42.5323", 
    "postal_code": "N0P", 
    "longitude": "-81.7991"
  }, 
  {
    "province": "ON", 
    "latitude": "42.2932", 
    "postal_code": "N0R", 
    "longitude": "-82.7075"
  }, 
  {
    "province": "ON", 
    "latitude": "42.9132", 
    "postal_code": "N1A", 
    "longitude": "-79.6101"
  }, 
  {
    "province": "ON", 
    "latitude": "43.5036", 
    "postal_code": "N1C", 
    "longitude": "-80.2394"
  }, 
  {
    "province": "ON", 
    "latitude": "43.5749", 
    "postal_code": "N1E", 
    "longitude": "-80.2688"
  }, 
  {
    "province": "ON", 
    "latitude": "43.5325", 
    "postal_code": "N1G", 
    "longitude": "-80.2531"
  }, 
  {
    "province": "ON", 
    "latitude": "43.555", 
    "postal_code": "N1H", 
    "longitude": "-80.2868"
  }, 
  {
    "province": "ON", 
    "latitude": "43.5156", 
    "postal_code": "N1K", 
    "longitude": "-80.2827"
  }, 
  {
    "province": "ON", 
    "latitude": "43.5225", 
    "postal_code": "N1L", 
    "longitude": "-80.2095"
  }, 
  {
    "province": "ON", 
    "latitude": "43.7157", 
    "postal_code": "N1M", 
    "longitude": "-80.387"
  }, 
  {
    "province": "ON", 
    "latitude": "43.3372", 
    "postal_code": "N1P", 
    "longitude": "-80.3021"
  }, 
  {
    "province": "ON", 
    "latitude": "43.3831", 
    "postal_code": "N1R", 
    "longitude": "-80.3191"
  }, 
  {
    "province": "ON", 
    "latitude": "43.3742", 
    "postal_code": "N1S", 
    "longitude": "-80.3457"
  }, 
  {
    "province": "ON", 
    "latitude": "43.4067", 
    "postal_code": "N1T", 
    "longitude": "-80.3037"
  }, 
  {
    "province": "ON", 
    "latitude": "43.4353", 
    "postal_code": "N2A", 
    "longitude": "-80.4527"
  }, 
  {
    "province": "ON", 
    "latitude": "43.448", 
    "postal_code": "N2B", 
    "longitude": "-80.4589"
  }, 
  {
    "province": "ON", 
    "latitude": "43.4346", 
    "postal_code": "N2C", 
    "longitude": "-80.4532"
  }, 
  {
    "province": "ON", 
    "latitude": "43.4236", 
    "postal_code": "N2E", 
    "longitude": "-80.48"
  }, 
  {
    "province": "ON", 
    "latitude": "43.4497", 
    "postal_code": "N2G", 
    "longitude": "-80.4893"
  }, 
  {
    "province": "ON", 
    "latitude": "43.4487", 
    "postal_code": "N2H", 
    "longitude": "-80.4849"
  }, 
  {
    "province": "ON", 
    "latitude": "43.4613", 
    "postal_code": "N2J", 
    "longitude": "-80.507"
  }, 
  {
    "province": "ON", 
    "latitude": "43.4801", 
    "postal_code": "N2K", 
    "longitude": "-80.4801"
  }, 
  {
    "province": "ON", 
    "latitude": "43.4529", 
    "postal_code": "N2L", 
    "longitude": "-80.5281"
  }, 
  {
    "province": "ON", 
    "latitude": "43.4422", 
    "postal_code": "N2M", 
    "longitude": "-80.4968"
  }, 
  {
    "province": "ON", 
    "latitude": "43.4241", 
    "postal_code": "N2N", 
    "longitude": "-80.5214"
  }, 
  {
    "province": "ON", 
    "latitude": "43.3938", 
    "postal_code": "N2P", 
    "longitude": "-80.4443"
  }, 
  {
    "province": "ON", 
    "latitude": "43.3965", 
    "postal_code": "N2R", 
    "longitude": "-80.4575"
  }, 
  {
    "province": "ON", 
    "latitude": "43.4511", 
    "postal_code": "N2T", 
    "longitude": "-80.5572"
  }, 
  {
    "province": "ON", 
    "latitude": "43.5036", 
    "postal_code": "N2V", 
    "longitude": "-80.5413"
  }, 
  {
    "province": "ON", 
    "latitude": "44.1821", 
    "postal_code": "N2Z", 
    "longitude": "-81.6373"
  }, 
  {
    "province": "ON", 
    "latitude": "43.4161", 
    "postal_code": "N3A", 
    "longitude": "-80.688"
  }, 
  {
    "province": "ON", 
    "latitude": "43.5852", 
    "postal_code": "N3B", 
    "longitude": "-80.5662"
  }, 
  {
    "province": "ON", 
    "latitude": "43.4317", 
    "postal_code": "N3C", 
    "longitude": "-80.3112"
  }, 
  {
    "province": "ON", 
    "latitude": "43.4244", 
    "postal_code": "N3E", 
    "longitude": "-80.3364"
  }, 
  {
    "province": "ON", 
    "latitude": "43.4061", 
    "postal_code": "N3H", 
    "longitude": "-80.3503"
  }, 
  {
    "province": "ON", 
    "latitude": "43.1834", 
    "postal_code": "N3L", 
    "longitude": "-80.3749"
  }, 
  {
    "province": "ON", 
    "latitude": "43.1884", 
    "postal_code": "N3P", 
    "longitude": "-80.2422"
  }, 
  {
    "province": "ON", 
    "latitude": "43.1501", 
    "postal_code": "N3R", 
    "longitude": "-80.2766"
  }, 
  {
    "province": "ON", 
    "latitude": "43.1242", 
    "postal_code": "N3S", 
    "longitude": "-80.2412"
  }, 
  {
    "province": "ON", 
    "latitude": "43.1094", 
    "postal_code": "N3T", 
    "longitude": "-80.275"
  }, 
  {
    "province": "ON", 
    "latitude": "43.1704", 
    "postal_code": "N3V", 
    "longitude": "-80.2937"
  }, 
  {
    "province": "ON", 
    "latitude": "43.0776", 
    "postal_code": "N3W", 
    "longitude": "-79.9639"
  }, 
  {
    "province": "ON", 
    "latitude": "42.8126", 
    "postal_code": "N3Y", 
    "longitude": "-80.3091"
  }, 
  {
    "province": "ON", 
    "latitude": "42.824", 
    "postal_code": "N4B", 
    "longitude": "-80.4811"
  }, 
  {
    "province": "ON", 
    "latitude": "42.8806", 
    "postal_code": "N4G", 
    "longitude": "-80.7527"
  }, 
  {
    "province": "ON", 
    "latitude": "44.5519", 
    "postal_code": "N4K", 
    "longitude": "-80.9385"
  }, 
  {
    "province": "ON", 
    "latitude": "44.6079", 
    "postal_code": "N4L", 
    "longitude": "-80.5922"
  }, 
  {
    "province": "ON", 
    "latitude": "44.1385", 
    "postal_code": "N4N", 
    "longitude": "-81.0237"
  }, 
  {
    "province": "ON", 
    "latitude": "43.1277", 
    "postal_code": "N4S", 
    "longitude": "-80.7743"
  }, 
  {
    "province": "ON", 
    "latitude": "43.1477", 
    "postal_code": "N4T", 
    "longitude": "-80.7285"
  }, 
  {
    "province": "ON", 
    "latitude": "43.1127", 
    "postal_code": "N4V", 
    "longitude": "-80.7368"
  }, 
  {
    "province": "ON", 
    "latitude": "43.7315", 
    "postal_code": "N4W", 
    "longitude": "-80.9533"
  }, 
  {
    "province": "ON", 
    "latitude": "43.261", 
    "postal_code": "N4X", 
    "longitude": "-81.1516"
  }, 
  {
    "province": "ON", 
    "latitude": "43.3555", 
    "postal_code": "N4Z", 
    "longitude": "-80.9961"
  }, 
  {
    "province": "ON", 
    "latitude": "43.3717", 
    "postal_code": "N5A", 
    "longitude": "-80.9844"
  }, 
  {
    "province": "ON", 
    "latitude": "43.027", 
    "postal_code": "N5C", 
    "longitude": "-80.8706"
  }, 
  {
    "province": "ON", 
    "latitude": "42.7797", 
    "postal_code": "N5H", 
    "longitude": "-80.9864"
  }, 
  {
    "province": "ON", 
    "latitude": "42.6652", 
    "postal_code": "N5L", 
    "longitude": "-81.2018"
  }, 
  {
    "province": "ON", 
    "latitude": "42.7788", 
    "postal_code": "N5P", 
    "longitude": "-81.2134"
  }, 
  {
    "province": "ON", 
    "latitude": "42.7725", 
    "postal_code": "N5R", 
    "longitude": "-81.2003"
  }, 
  {
    "province": "ON", 
    "latitude": "42.9927", 
    "postal_code": "N5V", 
    "longitude": "-81.1686"
  }, 
  {
    "province": "ON", 
    "latitude": "42.9778", 
    "postal_code": "N5W", 
    "longitude": "-81.1941"
  }, 
  {
    "province": "ON", 
    "latitude": "43.0303", 
    "postal_code": "N5X", 
    "longitude": "-81.2676"
  }, 
  {
    "province": "ON", 
    "latitude": "43.0093", 
    "postal_code": "N5Y", 
    "longitude": "-81.21"
  }, 
  {
    "province": "ON", 
    "latitude": "42.9743", 
    "postal_code": "N5Z", 
    "longitude": "-81.1946"
  }, 
  {
    "province": "ON", 
    "latitude": "42.9793", 
    "postal_code": "N6A", 
    "longitude": "-81.2556"
  }, 
  {
    "province": "ON", 
    "latitude": "42.9759", 
    "postal_code": "N6B", 
    "longitude": "-81.229"
  }, 
  {
    "province": "ON", 
    "latitude": "42.9799", 
    "postal_code": "N6C", 
    "longitude": "-81.2609"
  }, 
  {
    "province": "ON", 
    "latitude": "42.9419", 
    "postal_code": "N6E", 
    "longitude": "-81.2475"
  }, 
  {
    "province": "ON", 
    "latitude": "42.9943", 
    "postal_code": "N6G", 
    "longitude": "-81.2623"
  }, 
  {
    "province": "ON", 
    "latitude": "42.9899", 
    "postal_code": "N6H", 
    "longitude": "-81.2607"
  }, 
  {
    "province": "ON", 
    "latitude": "42.9797", 
    "postal_code": "N6J", 
    "longitude": "-81.2639"
  }, 
  {
    "province": "ON", 
    "latitude": "42.9627", 
    "postal_code": "N6K", 
    "longitude": "-81.2948"
  }, 
  {
    "province": "ON", 
    "latitude": "42.9344", 
    "postal_code": "N6L", 
    "longitude": "-81.2802"
  }, 
  {
    "province": "ON", 
    "latitude": "42.9922", 
    "postal_code": "N6M", 
    "longitude": "-81.1398"
  }, 
  {
    "province": "ON", 
    "latitude": "42.9324", 
    "postal_code": "N6N", 
    "longitude": "-81.1916"
  }, 
  {
    "province": "ON", 
    "latitude": "42.9114", 
    "postal_code": "N6P", 
    "longitude": "-81.2999"
  }, 
  {
    "province": "ON", 
    "latitude": "43.7347", 
    "postal_code": "N7A", 
    "longitude": "-81.7105"
  }, 
  {
    "province": "ON", 
    "latitude": "42.9625", 
    "postal_code": "N7G", 
    "longitude": "-81.6081"
  }, 
  {
    "province": "ON", 
    "latitude": "42.4029", 
    "postal_code": "N7L", 
    "longitude": "-82.1941"
  }, 
  {
    "province": "ON", 
    "latitude": "42.3997", 
    "postal_code": "N7M", 
    "longitude": "-82.1996"
  }, 
  {
    "province": "ON", 
    "latitude": "42.9607", 
    "postal_code": "N7S", 
    "longitude": "-82.3718"
  }, 
  {
    "province": "ON", 
    "latitude": "42.971", 
    "postal_code": "N7T", 
    "longitude": "-82.4084"
  }, 
  {
    "province": "ON", 
    "latitude": "42.9891", 
    "postal_code": "N7V", 
    "longitude": "-82.399"
  }, 
  {
    "province": "ON", 
    "latitude": "42.9838", 
    "postal_code": "N7W", 
    "longitude": "-82.3214"
  }, 
  {
    "province": "ON", 
    "latitude": "43.0147", 
    "postal_code": "N7X", 
    "longitude": "-82.3417"
  }, 
  {
    "province": "ON", 
    "latitude": "42.5799", 
    "postal_code": "N8A", 
    "longitude": "-82.3823"
  }, 
  {
    "province": "ON", 
    "latitude": "42.0606", 
    "postal_code": "N8H", 
    "longitude": "-82.6029"
  }, 
  {
    "province": "ON", 
    "latitude": "42.1754", 
    "postal_code": "N8M", 
    "longitude": "-82.8226"
  }, 
  {
    "province": "ON", 
    "latitude": "42.3326", 
    "postal_code": "N8N", 
    "longitude": "-82.8926"
  }, 
  {
    "province": "ON", 
    "latitude": "42.3391", 
    "postal_code": "N8P", 
    "longitude": "-82.9279"
  }, 
  {
    "province": "ON", 
    "latitude": "42.3136", 
    "postal_code": "N8R", 
    "longitude": "-82.9338"
  }, 
  {
    "province": "ON", 
    "latitude": "42.3307", 
    "postal_code": "N8S", 
    "longitude": "-82.9752"
  }, 
  {
    "province": "ON", 
    "latitude": "42.3188", 
    "postal_code": "N8T", 
    "longitude": "-82.965"
  }, 
  {
    "province": "ON", 
    "latitude": "42.2679", 
    "postal_code": "N8V", 
    "longitude": "-82.9699"
  }, 
  {
    "province": "ON", 
    "latitude": "42.3062", 
    "postal_code": "N8W", 
    "longitude": "-83.0017"
  }, 
  {
    "province": "ON", 
    "latitude": "42.3039", 
    "postal_code": "N8X", 
    "longitude": "-83.0308"
  }, 
  {
    "province": "ON", 
    "latitude": "42.3251", 
    "postal_code": "N8Y", 
    "longitude": "-83.0171"
  }, 
  {
    "province": "ON", 
    "latitude": "42.3159", 
    "postal_code": "N9A", 
    "longitude": "-83.0393"
  }, 
  {
    "province": "ON", 
    "latitude": "42.3158", 
    "postal_code": "N9B", 
    "longitude": "-83.0568"
  }, 
  {
    "province": "ON", 
    "latitude": "42.3077", 
    "postal_code": "N9C", 
    "longitude": "-83.0724"
  }, 
  {
    "province": "ON", 
    "latitude": "42.2736", 
    "postal_code": "N9E", 
    "longitude": "-83.0416"
  }, 
  {
    "province": "ON", 
    "latitude": "42.2581", 
    "postal_code": "N9G", 
    "longitude": "-82.9988"
  }, 
  {
    "province": "ON", 
    "latitude": "42.2351", 
    "postal_code": "N9H", 
    "longitude": "-82.998"
  }, 
  {
    "province": "ON", 
    "latitude": "42.247", 
    "postal_code": "N9J", 
    "longitude": "-83.1"
  }, 
  {
    "province": "ON", 
    "latitude": "42.049", 
    "postal_code": "N9K", 
    "longitude": "-83.1032"
  }, 
  {
    "province": "ON", 
    "latitude": "42.1106", 
    "postal_code": "N9V", 
    "longitude": "-83.1115"
  }, 
  {
    "province": "ON", 
    "latitude": "42.0377", 
    "postal_code": "N9Y", 
    "longitude": "-82.7394"
  }, 
  {
    "province": "ON", 
    "latitude": "45.4139", 
    "postal_code": "P0A", 
    "longitude": "-79.6728"
  }, 
  {
    "province": "ON", 
    "latitude": "45.1103", 
    "postal_code": "P0B", 
    "longitude": "-79.158"
  }, 
  {
    "province": "ON", 
    "latitude": "44.8462", 
    "postal_code": "P0C", 
    "longitude": "-79.7954"
  }, 
  {
    "province": "ON", 
    "latitude": "44.8935", 
    "postal_code": "P0E", 
    "longitude": "-79.741"
  }, 
  {
    "province": "ON", 
    "latitude": "45.9033", 
    "postal_code": "P0G", 
    "longitude": "-80.5762"
  }, 
  {
    "province": "ON", 
    "latitude": "45.8738", 
    "postal_code": "P0H", 
    "longitude": "-79.8846"
  }, 
  {
    "province": "ON", 
    "latitude": "47.6756", 
    "postal_code": "P0J", 
    "longitude": "-79.5424"
  }, 
  {
    "province": "ON", 
    "latitude": "48.1346", 
    "postal_code": "P0K", 
    "longitude": "-80.0769"
  }, 
  {
    "province": "ON", 
    "latitude": "52.923", 
    "postal_code": "P0L", 
    "longitude": "-82.4173"
  }, 
  {
    "province": "ON", 
    "latitude": "46.1329", 
    "postal_code": "P0M", 
    "longitude": "-80.8231"
  }, 
  {
    "province": "ON", 
    "latitude": "48.4466", 
    "postal_code": "P0N", 
    "longitude": "-80.8161"
  }, 
  {
    "province": "ON", 
    "latitude": "46.0182", 
    "postal_code": "P0P", 
    "longitude": "-82.2507"
  }, 
  {
    "province": "ON", 
    "latitude": "46.1849", 
    "postal_code": "P0R", 
    "longitude": "-82.8228"
  }, 
  {
    "province": "ON", 
    "latitude": "46.9551", 
    "postal_code": "P0S", 
    "longitude": "-84.5005"
  }, 
  {
    "province": "ON", 
    "latitude": "50.139", 
    "postal_code": "P0T", 
    "longitude": "-89.0561"
  }, 
  {
    "province": "ON", 
    "latitude": "50.2407", 
    "postal_code": "P0V", 
    "longitude": "-90.2024"
  }, 
  {
    "province": "ON", 
    "latitude": "48.7778", 
    "postal_code": "P0W", 
    "longitude": "-93.962"
  }, 
  {
    "province": "ON", 
    "latitude": "49.7003", 
    "postal_code": "P0X", 
    "longitude": "-94.8583"
  }, 
  {
    "province": "ON", 
    "latitude": "49.7857", 
    "postal_code": "P0Y", 
    "longitude": "-95.1168"
  }, 
  {
    "province": "ON", 
    "latitude": "46.3036", 
    "postal_code": "P1A", 
    "longitude": "-79.4624"
  }, 
  {
    "province": "ON", 
    "latitude": "46.3094", 
    "postal_code": "P1B", 
    "longitude": "-79.464"
  }, 
  {
    "province": "ON", 
    "latitude": "46.3411", 
    "postal_code": "P1C", 
    "longitude": "-79.4457"
  }, 
  {
    "province": "ON", 
    "latitude": "45.3272", 
    "postal_code": "P1H", 
    "longitude": "-79.2151"
  }, 
  {
    "province": "ON", 
    "latitude": "45.057", 
    "postal_code": "P1L", 
    "longitude": "-79.3366"
  }, 
  {
    "province": "ON", 
    "latitude": "44.9451", 
    "postal_code": "P1P", 
    "longitude": "-79.3549"
  }, 
  {
    "province": "ON", 
    "latitude": "45.3405", 
    "postal_code": "P2A", 
    "longitude": "-80.0365"
  }, 
  {
    "province": "ON", 
    "latitude": "46.3664", 
    "postal_code": "P2B", 
    "longitude": "-79.9178"
  }, 
  {
    "province": "ON", 
    "latitude": "48.151", 
    "postal_code": "P2N", 
    "longitude": "-80.0328"
  }, 
  {
    "province": "ON", 
    "latitude": "46.5076", 
    "postal_code": "P3A", 
    "longitude": "-80.9872"
  }, 
  {
    "province": "ON", 
    "latitude": "46.4769", 
    "postal_code": "P3B", 
    "longitude": "-80.9099"
  }, 
  {
    "province": "ON", 
    "latitude": "46.4727", 
    "postal_code": "P3C", 
    "longitude": "-81.0291"
  }, 
  {
    "province": "ON", 
    "latitude": "46.4918", 
    "postal_code": "P3E", 
    "longitude": "-80.9955"
  }, 
  {
    "province": "ON", 
    "latitude": "46.4106", 
    "postal_code": "P3G", 
    "longitude": "-81.0517"
  }, 
  {
    "province": "ON", 
    "latitude": "46.5625", 
    "postal_code": "P3L", 
    "longitude": "-80.8665"
  }, 
  {
    "province": "ON", 
    "latitude": "46.6191", 
    "postal_code": "P3N", 
    "longitude": "-81.0356"
  }, 
  {
    "province": "ON", 
    "latitude": "46.6318", 
    "postal_code": "P3P", 
    "longitude": "-81.0147"
  }, 
  {
    "province": "ON", 
    "latitude": "46.4223", 
    "postal_code": "P3Y", 
    "longitude": "-81.1165"
  }, 
  {
    "province": "ON", 
    "latitude": "48.4757", 
    "postal_code": "P4N", 
    "longitude": "-81.3366"
  }, 
  {
    "province": "ON", 
    "latitude": "48.4951", 
    "postal_code": "P4P", 
    "longitude": "-81.3513"
  }, 
  {
    "province": "ON", 
    "latitude": "48.473", 
    "postal_code": "P4R", 
    "longitude": "-81.3765"
  }, 
  {
    "province": "ON", 
    "latitude": "46.372", 
    "postal_code": "P5A", 
    "longitude": "-82.6721"
  }, 
  {
    "province": "ON", 
    "latitude": "46.2629", 
    "postal_code": "P5E", 
    "longitude": "-81.7719"
  }, 
  {
    "province": "ON", 
    "latitude": "49.4134", 
    "postal_code": "P5N", 
    "longitude": "-82.4203"
  }, 
  {
    "province": "ON", 
    "latitude": "46.5175", 
    "postal_code": "P6A", 
    "longitude": "-84.3414"
  }, 
  {
    "province": "ON", 
    "latitude": "46.5105", 
    "postal_code": "P6B", 
    "longitude": "-84.321"
  }, 
  {
    "province": "ON", 
    "latitude": "46.5245", 
    "postal_code": "P6C", 
    "longitude": "-84.3768"
  }, 
  {
    "province": "ON", 
    "latitude": "48.4578", 
    "postal_code": "P7A", 
    "longitude": "-89.1885"
  }, 
  {
    "province": "ON", 
    "latitude": "48.4349", 
    "postal_code": "P7B", 
    "longitude": "-89.2192"
  }, 
  {
    "province": "ON", 
    "latitude": "48.3852", 
    "postal_code": "P7C", 
    "longitude": "-89.242"
  }, 
  {
    "province": "ON", 
    "latitude": "48.3775", 
    "postal_code": "P7E", 
    "longitude": "-89.2704"
  }, 
  {
    "province": "ON", 
    "latitude": "48.4511", 
    "postal_code": "P7G", 
    "longitude": "-89.273"
  }, 
  {
    "province": "ON", 
    "latitude": "48.3187", 
    "postal_code": "P7J", 
    "longitude": "-89.3415"
  }, 
  {
    "province": "ON", 
    "latitude": "48.3959", 
    "postal_code": "P7K", 
    "longitude": "-89.3556"
  }, 
  {
    "province": "ON", 
    "latitude": "49.7856", 
    "postal_code": "P8N", 
    "longitude": "-92.8364"
  }, 
  {
    "province": "ON", 
    "latitude": "50.0885", 
    "postal_code": "P8T", 
    "longitude": "-91.9086"
  }, 
  {
    "province": "ON", 
    "latitude": "48.6075", 
    "postal_code": "P9A", 
    "longitude": "-93.3869"
  }, 
  {
    "province": "ON", 
    "latitude": "49.7667", 
    "postal_code": "P9N", 
    "longitude": "-94.4848"
  }, 
  {
    "province": "PE", 
    "latitude": "46.1668", 
    "postal_code": "C0A", 
    "longitude": "-62.6487"
  }, 
  {
    "province": "PE", 
    "latitude": "46.3182", 
    "postal_code": "C0B", 
    "longitude": "-63.5586"
  }, 
  {
    "province": "PE", 
    "latitude": "46.2318", 
    "postal_code": "C1A", 
    "longitude": "-63.1192"
  }, 
  {
    "province": "PE", 
    "latitude": "46.2067", 
    "postal_code": "C1B", 
    "longitude": "-63.0729"
  }, 
  {
    "province": "PE", 
    "latitude": "46.2688", 
    "postal_code": "C1C", 
    "longitude": "-63.1097"
  }, 
  {
    "province": "PE", 
    "latitude": "46.2607", 
    "postal_code": "C1E", 
    "longitude": "-63.16"
  }, 
  {
    "province": "PE", 
    "latitude": "46.3907", 
    "postal_code": "C1N", 
    "longitude": "-63.7868"
  }, 
  {
    "province": "QC", 
    "latitude": "46.8524", 
    "postal_code": "G0A", 
    "longitude": "-72.0259"
  }, 
  {
    "province": "QC", 
    "latitude": "47.3983", 
    "postal_code": "G0B", 
    "longitude": "-61.7742"
  }, 
  {
    "province": "QC", 
    "latitude": "48.1496", 
    "postal_code": "G0C", 
    "longitude": "-65.7053"
  }, 
  {
    "province": "QC", 
    "latitude": "48.9298", 
    "postal_code": "G0E", 
    "longitude": "-64.3438"
  }, 
  {
    "province": "QC", 
    "latitude": "50.1169", 
    "postal_code": "G0G", 
    "longitude": "-62.4136"
  }, 
  {
    "province": "QC", 
    "latitude": "49.1633", 
    "postal_code": "G0H", 
    "longitude": "-68.3335"
  }, 
  {
    "province": "QC", 
    "latitude": "49.0226", 
    "postal_code": "G0J", 
    "longitude": "-66.8158"
  }, 
  {
    "province": "QC", 
    "latitude": "48.3473", 
    "postal_code": "G0K", 
    "longitude": "-68.3948"
  }, 
  {
    "province": "QC", 
    "latitude": "47.6843", 
    "postal_code": "G0L", 
    "longitude": "-68.8681"
  }, 
  {
    "province": "QC", 
    "latitude": "46.2057", 
    "postal_code": "G0M", 
    "longitude": "-70.8326"
  }, 
  {
    "province": "QC", 
    "latitude": "46.0651", 
    "postal_code": "G0N", 
    "longitude": "-71.4352"
  }, 
  {
    "province": "QC", 
    "latitude": "45.8641", 
    "postal_code": "G0P", 
    "longitude": "-71.6523"
  }, 
  {
    "province": "QC", 
    "latitude": "46.9055", 
    "postal_code": "G0R", 
    "longitude": "-70.7456"
  }, 
  {
    "province": "QC", 
    "latitude": "46.2635", 
    "postal_code": "G0S", 
    "longitude": "-70.7929"
  }, 
  {
    "province": "QC", 
    "latitude": "47.6525", 
    "postal_code": "G0T", 
    "longitude": "-70.4067"
  }, 
  {
    "province": "QC", 
    "latitude": "48.3448", 
    "postal_code": "G0V", 
    "longitude": "-70.9869"
  }, 
  {
    "province": "QC", 
    "latitude": "48.8854", 
    "postal_code": "G0W", 
    "longitude": "-72.4433"
  }, 
  {
    "province": "QC", 
    "latitude": "46.6996", 
    "postal_code": "G0X", 
    "longitude": "-72.643"
  }, 
  {
    "province": "QC", 
    "latitude": "45.6544", 
    "postal_code": "G0Y", 
    "longitude": "-71.0379"
  }, 
  {
    "province": "QC", 
    "latitude": "46.152", 
    "postal_code": "G0Z", 
    "longitude": "-72.1347"
  }, 
  {
    "province": "QC", 
    "latitude": "46.9181", 
    "postal_code": "G1A", 
    "longitude": "-71.2036"
  }, 
  {
    "province": "QC", 
    "latitude": "46.9179", 
    "postal_code": "G1B", 
    "longitude": "-71.1964"
  }, 
  {
    "province": "QC", 
    "latitude": "46.8886", 
    "postal_code": "G1C", 
    "longitude": "-71.2212"
  }, 
  {
    "province": "QC", 
    "latitude": "46.876", 
    "postal_code": "G1E", 
    "longitude": "-71.192"
  }, 
  {
    "province": "QC", 
    "latitude": "46.8921", 
    "postal_code": "G1G", 
    "longitude": "-71.3056"
  }, 
  {
    "province": "QC", 
    "latitude": "46.8615", 
    "postal_code": "G1H", 
    "longitude": "-71.2698"
  }, 
  {
    "province": "QC", 
    "latitude": "46.8483", 
    "postal_code": "G1J", 
    "longitude": "-71.234"
  }, 
  {
    "province": "QC", 
    "latitude": "46.8143", 
    "postal_code": "G1K", 
    "longitude": "-71.2431"
  }, 
  {
    "province": "QC", 
    "latitude": "46.8396", 
    "postal_code": "G1L", 
    "longitude": "-71.2506"
  }, 
  {
    "province": "QC", 
    "latitude": "46.8165", 
    "postal_code": "G1M", 
    "longitude": "-71.236"
  }, 
  {
    "province": "QC", 
    "latitude": "46.81", 
    "postal_code": "G1N", 
    "longitude": "-71.2526"
  }, 
  {
    "province": "QC", 
    "latitude": "46.8257", 
    "postal_code": "G1P", 
    "longitude": "-71.331"
  }, 
  {
    "province": "QC", 
    "latitude": "46.8128", 
    "postal_code": "G1R", 
    "longitude": "-71.2194"
  }, 
  {
    "province": "QC", 
    "latitude": "46.7867", 
    "postal_code": "G1S", 
    "longitude": "-71.2436"
  }, 
  {
    "province": "QC", 
    "latitude": "46.7863", 
    "postal_code": "G1T", 
    "longitude": "-71.2579"
  }, 
  {
    "province": "QC", 
    "latitude": "46.789", 
    "postal_code": "G1V", 
    "longitude": "-71.2936"
  }, 
  {
    "province": "QC", 
    "latitude": "46.7673", 
    "postal_code": "G1W", 
    "longitude": "-71.2857"
  }, 
  {
    "province": "QC", 
    "latitude": "46.7828", 
    "postal_code": "G1X", 
    "longitude": "-71.3149"
  }, 
  {
    "province": "QC", 
    "latitude": "46.7595", 
    "postal_code": "G1Y", 
    "longitude": "-71.3433"
  }, 
  {
    "province": "QC", 
    "latitude": "46.8681", 
    "postal_code": "G2A", 
    "longitude": "-71.3787"
  }, 
  {
    "province": "QC", 
    "latitude": "46.8569", 
    "postal_code": "G2B", 
    "longitude": "-71.3506"
  }, 
  {
    "province": "QC", 
    "latitude": "46.8342", 
    "postal_code": "G2C", 
    "longitude": "-71.3463"
  }, 
  {
    "province": "QC", 
    "latitude": "46.8175", 
    "postal_code": "G2E", 
    "longitude": "-71.371"
  }, 
  {
    "province": "QC", 
    "latitude": "46.8119", 
    "postal_code": "G2G", 
    "longitude": "-71.3906"
  }, 
  {
    "province": "QC", 
    "latitude": "46.8428", 
    "postal_code": "G2J", 
    "longitude": "-71.2774"
  }, 
  {
    "province": "QC", 
    "latitude": "46.8105", 
    "postal_code": "G2K", 
    "longitude": "-71.2426"
  }, 
  {
    "province": "QC", 
    "latitude": "46.8921", 
    "postal_code": "G2L", 
    "longitude": "-71.2732"
  }, 
  {
    "province": "QC", 
    "latitude": "46.9159", 
    "postal_code": "G2M", 
    "longitude": "-71.3163"
  }, 
  {
    "province": "QC", 
    "latitude": "46.9338", 
    "postal_code": "G2N", 
    "longitude": "-71.3446"
  }, 
  {
    "province": "QC", 
    "latitude": "46.7529", 
    "postal_code": "G3A", 
    "longitude": "-71.3734"
  }, 
  {
    "province": "QC", 
    "latitude": "46.8765", 
    "postal_code": "G3E", 
    "longitude": "-71.3233"
  }, 
  {
    "province": "QC", 
    "latitude": "46.9445", 
    "postal_code": "G3G", 
    "longitude": "-71.4133"
  }, 
  {
    "province": "QC", 
    "latitude": "46.756", 
    "postal_code": "G3H", 
    "longitude": "-71.6969"
  }, 
  {
    "province": "QC", 
    "latitude": "46.8617", 
    "postal_code": "G3J", 
    "longitude": "-71.4241"
  }, 
  {
    "province": "QC", 
    "latitude": "46.8388", 
    "postal_code": "G3K", 
    "longitude": "-71.3998"
  }, 
  {
    "province": "QC", 
    "latitude": "46.8897", 
    "postal_code": "G3L", 
    "longitude": "-71.8349"
  }, 
  {
    "province": "QC", 
    "latitude": "46.6725", 
    "postal_code": "G3M", 
    "longitude": "-71.7368"
  }, 
  {
    "province": "QC", 
    "latitude": "47.4454", 
    "postal_code": "G3Z", 
    "longitude": "-70.5199"
  }, 
  {
    "province": "QC", 
    "latitude": "47.695", 
    "postal_code": "G4A", 
    "longitude": "-70.2239"
  }, 
  {
    "province": "QC", 
    "latitude": "50.2206", 
    "postal_code": "G4R", 
    "longitude": "-66.3581"
  }, 
  {
    "province": "QC", 
    "latitude": "50.2309", 
    "postal_code": "G4S", 
    "longitude": "-66.3901"
  }, 
  {
    "province": "QC", 
    "latitude": "47.5371", 
    "postal_code": "G4T", 
    "longitude": "-61.5387"
  }, 
  {
    "province": "QC", 
    "latitude": "49.1283", 
    "postal_code": "G4V", 
    "longitude": "-66.4906"
  }, 
  {
    "province": "QC", 
    "latitude": "48.8526", 
    "postal_code": "G4W", 
    "longitude": "-67.518"
  }, 
  {
    "province": "QC", 
    "latitude": "48.8319", 
    "postal_code": "G4X", 
    "longitude": "-64.4813"
  }, 
  {
    "province": "QC", 
    "latitude": "49.2446", 
    "postal_code": "G4Z", 
    "longitude": "-68.1442"
  }, 
  {
    "province": "QC", 
    "latitude": "47.6259", 
    "postal_code": "G5A", 
    "longitude": "-70.0967"
  }, 
  {
    "province": "QC", 
    "latitude": "50.0382", 
    "postal_code": "G5B", 
    "longitude": "-66.8659"
  }, 
  {
    "province": "QC", 
    "latitude": "49.1962", 
    "postal_code": "G5C", 
    "longitude": "-68.2976"
  }, 
  {
    "province": "QC", 
    "latitude": "48.5949", 
    "postal_code": "G5H", 
    "longitude": "-68.1883"
  }, 
  {
    "province": "QC", 
    "latitude": "48.4584", 
    "postal_code": "G5J", 
    "longitude": "-67.4333"
  }, 
  {
    "province": "QC", 
    "latitude": "48.4525", 
    "postal_code": "G5L", 
    "longitude": "-68.5232"
  }, 
  {
    "province": "QC", 
    "latitude": "48.4547", 
    "postal_code": "G5M", 
    "longitude": "-68.4973"
  }, 
  {
    "province": "QC", 
    "latitude": "48.4277", 
    "postal_code": "G5N", 
    "longitude": "-68.5122"
  }, 
  {
    "province": "QC", 
    "latitude": "47.8559", 
    "postal_code": "G5R", 
    "longitude": "-69.5376"
  }, 
  {
    "province": "QC", 
    "latitude": "47.5521", 
    "postal_code": "G5T", 
    "longitude": "-68.6441"
  }, 
  {
    "province": "QC", 
    "latitude": "46.9984", 
    "postal_code": "G5V", 
    "longitude": "-70.5595"
  }, 
  {
    "province": "QC", 
    "latitude": "46.2093", 
    "postal_code": "G5X", 
    "longitude": "-70.7788"
  }, 
  {
    "province": "QC", 
    "latitude": "46.13", 
    "postal_code": "G5Y", 
    "longitude": "-70.6557"
  }, 
  {
    "province": "QC", 
    "latitude": "46.1231", 
    "postal_code": "G5Z", 
    "longitude": "-70.647"
  }, 
  {
    "province": "QC", 
    "latitude": "46.1379", 
    "postal_code": "G6A", 
    "longitude": "-70.6715"
  }, 
  {
    "province": "QC", 
    "latitude": "45.5946", 
    "postal_code": "G6B", 
    "longitude": "-70.9176"
  }, 
  {
    "province": "QC", 
    "latitude": "46.7557", 
    "postal_code": "G6C", 
    "longitude": "-71.124"
  }, 
  {
    "province": "QC", 
    "latitude": "46.4691", 
    "postal_code": "G6E", 
    "longitude": "-71.0427"
  }, 
  {
    "province": "QC", 
    "latitude": "46.1134", 
    "postal_code": "G6G", 
    "longitude": "-71.3108"
  }, 
  {
    "province": "QC", 
    "latitude": "46.0654", 
    "postal_code": "G6H", 
    "longitude": "-71.356"
  }, 
  {
    "province": "QC", 
    "latitude": "46.6561", 
    "postal_code": "G6J", 
    "longitude": "-71.3095"
  }, 
  {
    "province": "QC", 
    "latitude": "46.7038", 
    "postal_code": "G6K", 
    "longitude": "-71.2837"
  }, 
  {
    "province": "QC", 
    "latitude": "46.2255", 
    "postal_code": "G6L", 
    "longitude": "-71.7779"
  }, 
  {
    "province": "QC", 
    "latitude": "46.0606", 
    "postal_code": "G6P", 
    "longitude": "-71.9477"
  }, 
  {
    "province": "QC", 
    "latitude": "46.0388", 
    "postal_code": "G6R", 
    "longitude": "-71.9596"
  }, 
  {
    "province": "QC", 
    "latitude": "46.0714", 
    "postal_code": "G6S", 
    "longitude": "-71.9332"
  }, 
  {
    "province": "QC", 
    "latitude": "46.0477", 
    "postal_code": "G6T", 
    "longitude": "-71.9549"
  }, 
  {
    "province": "QC", 
    "latitude": "46.8207", 
    "postal_code": "G6V", 
    "longitude": "-71.1787"
  }, 
  {
    "province": "QC", 
    "latitude": "46.7933", 
    "postal_code": "G6W", 
    "longitude": "-71.1885"
  }, 
  {
    "province": "QC", 
    "latitude": "46.7228", 
    "postal_code": "G6X", 
    "longitude": "-71.2788"
  }, 
  {
    "province": "QC", 
    "latitude": "46.7391", 
    "postal_code": "G6Z", 
    "longitude": "-71.2055"
  }, 
  {
    "province": "QC", 
    "latitude": "46.6709", 
    "postal_code": "G7A", 
    "longitude": "-71.3548"
  }, 
  {
    "province": "QC", 
    "latitude": "48.3133", 
    "postal_code": "G7B", 
    "longitude": "-70.8557"
  }, 
  {
    "province": "QC", 
    "latitude": "48.4572", 
    "postal_code": "G7G", 
    "longitude": "-71.0591"
  }, 
  {
    "province": "QC", 
    "latitude": "48.4337", 
    "postal_code": "G7H", 
    "longitude": "-71.0225"
  }, 
  {
    "province": "QC", 
    "latitude": "48.4377", 
    "postal_code": "G7J", 
    "longitude": "-71.1244"
  }, 
  {
    "province": "QC", 
    "latitude": "48.3976", 
    "postal_code": "G7K", 
    "longitude": "-71.11"
  }, 
  {
    "province": "QC", 
    "latitude": "48.3084", 
    "postal_code": "G7N", 
    "longitude": "-71.1104"
  }, 
  {
    "province": "QC", 
    "latitude": "48.51", 
    "postal_code": "G7P", 
    "longitude": "-71.268"
  }, 
  {
    "province": "QC", 
    "latitude": "48.4099", 
    "postal_code": "G7S", 
    "longitude": "-71.1961"
  }, 
  {
    "province": "QC", 
    "latitude": "48.4112", 
    "postal_code": "G7T", 
    "longitude": "-71.2149"
  }, 
  {
    "province": "QC", 
    "latitude": "48.4359", 
    "postal_code": "G7X", 
    "longitude": "-71.2318"
  }, 
  {
    "province": "QC", 
    "latitude": "48.3933", 
    "postal_code": "G7Y", 
    "longitude": "-71.267"
  }, 
  {
    "province": "QC", 
    "latitude": "48.4327", 
    "postal_code": "G7Z", 
    "longitude": "-71.262"
  }, 
  {
    "province": "QC", 
    "latitude": "48.4244", 
    "postal_code": "G8A", 
    "longitude": "-71.2619"
  }, 
  {
    "province": "QC", 
    "latitude": "48.5468", 
    "postal_code": "G8B", 
    "longitude": "-71.6399"
  }, 
  {
    "province": "QC", 
    "latitude": "48.5292", 
    "postal_code": "G8C", 
    "longitude": "-71.642"
  }, 
  {
    "province": "QC", 
    "latitude": "48.5592", 
    "postal_code": "G8E", 
    "longitude": "-71.6416"
  }, 
  {
    "province": "QC", 
    "latitude": "48.4223", 
    "postal_code": "G8G", 
    "longitude": "-71.8737"
  }, 
  {
    "province": "QC", 
    "latitude": "48.5044", 
    "postal_code": "G8H", 
    "longitude": "-72.2165"
  }, 
  {
    "province": "QC", 
    "latitude": "48.5774", 
    "postal_code": "G8J", 
    "longitude": "-72.441"
  }, 
  {
    "province": "QC", 
    "latitude": "48.6556", 
    "postal_code": "G8K", 
    "longitude": "-72.4469"
  }, 
  {
    "province": "QC", 
    "latitude": "48.8707", 
    "postal_code": "G8L", 
    "longitude": "-72.2141"
  }, 
  {
    "province": "QC", 
    "latitude": "48.8892", 
    "postal_code": "G8M", 
    "longitude": "-72.1938"
  }, 
  {
    "province": "QC", 
    "latitude": "48.3942", 
    "postal_code": "G8N", 
    "longitude": "-71.6775"
  }, 
  {
    "province": "QC", 
    "latitude": "49.9214", 
    "postal_code": "G8P", 
    "longitude": "-74.3601"
  }, 
  {
    "province": "QC", 
    "latitude": "46.419", 
    "postal_code": "G8T", 
    "longitude": "-72.6006"
  }, 
  {
    "province": "QC", 
    "latitude": "46.3887", 
    "postal_code": "G8V", 
    "longitude": "-72.4875"
  }, 
  {
    "province": "QC", 
    "latitude": "46.4024", 
    "postal_code": "G8W", 
    "longitude": "-72.5846"
  }, 
  {
    "province": "QC", 
    "latitude": "46.3688", 
    "postal_code": "G8Y", 
    "longitude": "-72.58"
  }, 
  {
    "province": "QC", 
    "latitude": "46.3648", 
    "postal_code": "G8Z", 
    "longitude": "-72.5564"
  }, 
  {
    "province": "QC", 
    "latitude": "46.3647", 
    "postal_code": "G9A", 
    "longitude": "-72.5558"
  }, 
  {
    "province": "QC", 
    "latitude": "46.3111", 
    "postal_code": "G9B", 
    "longitude": "-72.5718"
  }, 
  {
    "province": "QC", 
    "latitude": "46.3938", 
    "postal_code": "G9C", 
    "longitude": "-72.6534"
  }, 
  {
    "province": "QC", 
    "latitude": "46.3445", 
    "postal_code": "G9H", 
    "longitude": "-72.4369"
  }, 
  {
    "province": "QC", 
    "latitude": "46.5429", 
    "postal_code": "G9N", 
    "longitude": "-72.748"
  }, 
  {
    "province": "QC", 
    "latitude": "46.5258", 
    "postal_code": "G9P", 
    "longitude": "-72.7381"
  }, 
  {
    "province": "QC", 
    "latitude": "46.576", 
    "postal_code": "G9R", 
    "longitude": "-72.7764"
  }, 
  {
    "province": "QC", 
    "latitude": "46.6168", 
    "postal_code": "G9T", 
    "longitude": "-72.7336"
  }, 
  {
    "province": "QC", 
    "latitude": "47.4583", 
    "postal_code": "G9X", 
    "longitude": "-72.7729"
  }, 
  {
    "province": "QC", 
    "latitude": "90", 
    "postal_code": "H0H", 
    "longitude": "0"
  }, 
  {
    "province": "QC", 
    "latitude": "45.6986", 
    "postal_code": "H0M", 
    "longitude": "-73.5025"
  }, 
  {
    "province": "QC", 
    "latitude": "45.6587", 
    "postal_code": "H1A", 
    "longitude": "-73.5236"
  }, 
  {
    "province": "QC", 
    "latitude": "45.6454", 
    "postal_code": "H1B", 
    "longitude": "-73.5502"
  }, 
  {
    "province": "QC", 
    "latitude": "45.6596", 
    "postal_code": "H1C", 
    "longitude": "-73.5704"
  }, 
  {
    "province": "QC", 
    "latitude": "45.6595", 
    "postal_code": "H1E", 
    "longitude": "-73.5729"
  }, 
  {
    "province": "QC", 
    "latitude": "45.6061", 
    "postal_code": "H1G", 
    "longitude": "-73.6389"
  }, 
  {
    "province": "QC", 
    "latitude": "45.5829", 
    "postal_code": "H1H", 
    "longitude": "-73.6524"
  }, 
  {
    "province": "QC", 
    "latitude": "45.6036", 
    "postal_code": "H1J", 
    "longitude": "-73.569"
  }, 
  {
    "province": "QC", 
    "latitude": "45.6077", 
    "postal_code": "H1K", 
    "longitude": "-73.5428"
  }, 
  {
    "province": "QC", 
    "latitude": "45.5943", 
    "postal_code": "H1L", 
    "longitude": "-73.5362"
  }, 
  {
    "province": "QC", 
    "latitude": "45.5902", 
    "postal_code": "H1M", 
    "longitude": "-73.5559"
  }, 
  {
    "province": "QC", 
    "latitude": "45.5719", 
    "postal_code": "H1N", 
    "longitude": "-73.5499"
  }, 
  {
    "province": "QC", 
    "latitude": "45.6105", 
    "postal_code": "H1P", 
    "longitude": "-73.6048"
  }, 
  {
    "province": "QC", 
    "latitude": "45.5844", 
    "postal_code": "H1R", 
    "longitude": "-73.6229"
  }, 
  {
    "province": "QC", 
    "latitude": "45.5716", 
    "postal_code": "H1S", 
    "longitude": "-73.5985"
  }, 
  {
    "province": "QC", 
    "latitude": "45.5653", 
    "postal_code": "H1T", 
    "longitude": "-73.5869"
  }, 
  {
    "province": "QC", 
    "latitude": "45.5702", 
    "postal_code": "H1V", 
    "longitude": "-73.551"
  }, 
  {
    "province": "QC", 
    "latitude": "45.5423", 
    "postal_code": "H1W", 
    "longitude": "-73.5616"
  }, 
  {
    "province": "QC", 
    "latitude": "45.5577", 
    "postal_code": "H1X", 
    "longitude": "-73.5935"
  }, 
  {
    "province": "QC", 
    "latitude": "45.5525", 
    "postal_code": "H1Y", 
    "longitude": "-73.598"
  }, 
  {
    "province": "QC", 
    "latitude": "45.5652", 
    "postal_code": "H1Z", 
    "longitude": "-73.6444"
  }, 
  {
    "province": "QC", 
    "latitude": "45.5583", 
    "postal_code": "H2A", 
    "longitude": "-73.6118"
  }, 
  {
    "province": "QC", 
    "latitude": "45.5664", 
    "postal_code": "H2B", 
    "longitude": "-73.647"
  }, 
  {
    "province": "QC", 
    "latitude": "45.5593", 
    "postal_code": "H2C", 
    "longitude": "-73.6719"
  }, 
  {
    "province": "QC", 
    "latitude": "45.5522", 
    "postal_code": "H2E", 
    "longitude": "-73.6256"
  }, 
  {
    "province": "QC", 
    "latitude": "45.5434", 
    "postal_code": "H2G", 
    "longitude": "-73.6061"
  }, 
  {
    "province": "QC", 
    "latitude": "45.5377", 
    "postal_code": "H2H", 
    "longitude": "-73.5837"
  }, 
  {
    "province": "QC", 
    "latitude": "45.5289", 
    "postal_code": "H2J", 
    "longitude": "-73.5928"
  }, 
  {
    "province": "QC", 
    "latitude": "45.53", 
    "postal_code": "H2K", 
    "longitude": "-73.5672"
  }, 
  {
    "province": "QC", 
    "latitude": "45.5252", 
    "postal_code": "H2L", 
    "longitude": "-73.5744"
  }, 
  {
    "province": "QC", 
    "latitude": "45.55", 
    "postal_code": "H2M", 
    "longitude": "-73.6515"
  }, 
  {
    "province": "QC", 
    "latitude": "45.5402", 
    "postal_code": "H2N", 
    "longitude": "-73.659"
  }, 
  {
    "province": "QC", 
    "latitude": "45.5409", 
    "postal_code": "H2P", 
    "longitude": "-73.6418"
  }, 
  {
    "province": "QC", 
    "latitude": "45.5452", 
    "postal_code": "H2R", 
    "longitude": "-73.6266"
  }, 
  {
    "province": "QC", 
    "latitude": "45.5356", 
    "postal_code": "H2S", 
    "longitude": "-73.6144"
  }, 
  {
    "province": "QC", 
    "latitude": "45.5278", 
    "postal_code": "H2T", 
    "longitude": "-73.6024"
  }, 
  {
    "province": "QC", 
    "latitude": "45.5298", 
    "postal_code": "H2V", 
    "longitude": "-73.6153"
  }, 
  {
    "province": "QC", 
    "latitude": "45.5194", 
    "postal_code": "H2W", 
    "longitude": "-73.5839"
  }, 
  {
    "province": "QC", 
    "latitude": "45.5148", 
    "postal_code": "H2X", 
    "longitude": "-73.5739"
  }, 
  {
    "province": "QC", 
    "latitude": "45.508", 
    "postal_code": "H2Y", 
    "longitude": "-73.554"
  }, 
  {
    "province": "QC", 
    "latitude": "45.5066", 
    "postal_code": "H2Z", 
    "longitude": "-73.5623"
  }, 
  {
    "province": "QC", 
    "latitude": "45.5078", 
    "postal_code": "H3A", 
    "longitude": "-73.5804"
  }, 
  {
    "province": "QC", 
    "latitude": "45.5058", 
    "postal_code": "H3B", 
    "longitude": "-73.5672"
  }, 
  {
    "province": "QC", 
    "latitude": "45.503", 
    "postal_code": "H3C", 
    "longitude": "-73.5679"
  }, 
  {
    "province": "QC", 
    "latitude": "45.4679", 
    "postal_code": "H3E", 
    "longitude": "-73.5457"
  }, 
  {
    "province": "QC", 
    "latitude": "45.5019", 
    "postal_code": "H3G", 
    "longitude": "-73.5853"
  }, 
  {
    "province": "QC", 
    "latitude": "45.5123", 
    "postal_code": "H3H", 
    "longitude": "-73.5967"
  }, 
  {
    "province": "QC", 
    "latitude": "45.4922", 
    "postal_code": "H3J", 
    "longitude": "-73.5725"
  }, 
  {
    "province": "QC", 
    "latitude": "45.4858", 
    "postal_code": "H3K", 
    "longitude": "-73.564"
  }, 
  {
    "province": "QC", 
    "latitude": "45.5529", 
    "postal_code": "H3L", 
    "longitude": "-73.6754"
  }, 
  {
    "province": "QC", 
    "latitude": "45.5459", 
    "postal_code": "H3M", 
    "longitude": "-73.6979"
  }, 
  {
    "province": "QC", 
    "latitude": "45.5335", 
    "postal_code": "H3N", 
    "longitude": "-73.6464"
  }, 
  {
    "province": "QC", 
    "latitude": "45.5209", 
    "postal_code": "H3P", 
    "longitude": "-73.653"
  }, 
  {
    "province": "QC", 
    "latitude": "45.5181", 
    "postal_code": "H3R", 
    "longitude": "-73.6545"
  }, 
  {
    "province": "QC", 
    "latitude": "45.5155", 
    "postal_code": "H3S", 
    "longitude": "-73.6292"
  }, 
  {
    "province": "QC", 
    "latitude": "45.5115", 
    "postal_code": "H3T", 
    "longitude": "-73.616"
  }, 
  {
    "province": "QC", 
    "latitude": "45.4965", 
    "postal_code": "H3V", 
    "longitude": "-73.6177"
  }, 
  {
    "province": "QC", 
    "latitude": "45.4988", 
    "postal_code": "H3W", 
    "longitude": "-73.6442"
  }, 
  {
    "province": "QC", 
    "latitude": "45.4915", 
    "postal_code": "H3X", 
    "longitude": "-73.6483"
  }, 
  {
    "province": "QC", 
    "latitude": "45.489", 
    "postal_code": "H3Y", 
    "longitude": "-73.618"
  }, 
  {
    "province": "QC", 
    "latitude": "45.4909", 
    "postal_code": "H3Z", 
    "longitude": "-73.5885"
  }, 
  {
    "province": "QC", 
    "latitude": "45.4781", 
    "postal_code": "H4A", 
    "longitude": "-73.6252"
  }, 
  {
    "province": "QC", 
    "latitude": "45.4681", 
    "postal_code": "H4B", 
    "longitude": "-73.636"
  }, 
  {
    "province": "QC", 
    "latitude": "45.478", 
    "postal_code": "H4C", 
    "longitude": "-73.5922"
  }, 
  {
    "province": "QC", 
    "latitude": "45.468", 
    "postal_code": "H4E", 
    "longitude": "-73.5863"
  }, 
  {
    "province": "QC", 
    "latitude": "45.4644", 
    "postal_code": "H4G", 
    "longitude": "-73.5798"
  }, 
  {
    "province": "QC", 
    "latitude": "45.4532", 
    "postal_code": "H4H", 
    "longitude": "-73.5818"
  }, 
  {
    "province": "QC", 
    "latitude": "45.5353", 
    "postal_code": "H4J", 
    "longitude": "-73.7231"
  }, 
  {
    "province": "QC", 
    "latitude": "45.5248", 
    "postal_code": "H4K", 
    "longitude": "-73.7392"
  }, 
  {
    "province": "QC", 
    "latitude": "45.5269", 
    "postal_code": "H4L", 
    "longitude": "-73.6974"
  }, 
  {
    "province": "QC", 
    "latitude": "45.5067", 
    "postal_code": "H4M", 
    "longitude": "-73.6906"
  }, 
  {
    "province": "QC", 
    "latitude": "45.5329", 
    "postal_code": "H4N", 
    "longitude": "-73.6807"
  }, 
  {
    "province": "QC", 
    "latitude": "45.4991", 
    "postal_code": "H4P", 
    "longitude": "-73.6722"
  }, 
  {
    "province": "QC", 
    "latitude": "45.5148", 
    "postal_code": "H4R", 
    "longitude": "-73.7309"
  }, 
  {
    "province": "QC", 
    "latitude": "45.4958", 
    "postal_code": "H4S", 
    "longitude": "-73.754"
  }, 
  {
    "province": "QC", 
    "latitude": "45.4954", 
    "postal_code": "H4T", 
    "longitude": "-73.6798"
  }, 
  {
    "province": "QC", 
    "latitude": "45.4755", 
    "postal_code": "H4V", 
    "longitude": "-73.6555"
  }, 
  {
    "province": "QC", 
    "latitude": "45.478", 
    "postal_code": "H4W", 
    "longitude": "-73.6704"
  }, 
  {
    "province": "QC", 
    "latitude": "45.4575", 
    "postal_code": "H4X", 
    "longitude": "-73.6649"
  }, 
  {
    "province": "QC", 
    "latitude": "45.5103", 
    "postal_code": "H4Y", 
    "longitude": "-73.6818"
  }, 
  {
    "province": "QC", 
    "latitude": "45.5003", 
    "postal_code": "H4Z", 
    "longitude": "-73.5621"
  }, 
  {
    "province": "QC", 
    "latitude": "45.503", 
    "postal_code": "H5A", 
    "longitude": "-73.5679"
  }, 
  {
    "province": "QC", 
    "latitude": "45.5066", 
    "postal_code": "H5B", 
    "longitude": "-73.5623"
  }, 
  {
    "province": "QC", 
    "latitude": "45.6736", 
    "postal_code": "H7A", 
    "longitude": "-73.5919"
  }, 
  {
    "province": "QC", 
    "latitude": "45.6346", 
    "postal_code": "H7B", 
    "longitude": "-73.6769"
  }, 
  {
    "province": "QC", 
    "latitude": "45.6176", 
    "postal_code": "H7C", 
    "longitude": "-73.6637"
  }, 
  {
    "province": "QC", 
    "latitude": "45.6142", 
    "postal_code": "H7E", 
    "longitude": "-73.669"
  }, 
  {
    "province": "QC", 
    "latitude": "45.5565", 
    "postal_code": "H7G", 
    "longitude": "-73.6791"
  }, 
  {
    "province": "QC", 
    "latitude": "45.6429", 
    "postal_code": "H7H", 
    "longitude": "-73.7494"
  }, 
  {
    "province": "QC", 
    "latitude": "45.6837", 
    "postal_code": "H7J", 
    "longitude": "-73.6728"
  }, 
  {
    "province": "QC", 
    "latitude": "45.6121", 
    "postal_code": "H7K", 
    "longitude": "-73.7898"
  }, 
  {
    "province": "QC", 
    "latitude": "45.6303", 
    "postal_code": "H7L", 
    "longitude": "-73.7802"
  }, 
  {
    "province": "QC", 
    "latitude": "45.6089", 
    "postal_code": "H7M", 
    "longitude": "-73.7331"
  }, 
  {
    "province": "QC", 
    "latitude": "45.5772", 
    "postal_code": "H7N", 
    "longitude": "-73.7007"
  }, 
  {
    "province": "QC", 
    "latitude": "45.5917", 
    "postal_code": "H7P", 
    "longitude": "-73.8293"
  }, 
  {
    "province": "QC", 
    "latitude": "45.5483", 
    "postal_code": "H7R", 
    "longitude": "-73.8578"
  }, 
  {
    "province": "QC", 
    "latitude": "45.5732", 
    "postal_code": "H7S", 
    "longitude": "-73.7444"
  }, 
  {
    "province": "QC", 
    "latitude": "45.5569", 
    "postal_code": "H7T", 
    "longitude": "-73.748"
  }, 
  {
    "province": "QC", 
    "latitude": "45.5364", 
    "postal_code": "H7V", 
    "longitude": "-73.7267"
  }, 
  {
    "province": "QC", 
    "latitude": "45.549", 
    "postal_code": "H7W", 
    "longitude": "-73.7641"
  }, 
  {
    "province": "QC", 
    "latitude": "45.5359", 
    "postal_code": "H7X", 
    "longitude": "-73.8231"
  }, 
  {
    "province": "QC", 
    "latitude": "45.5209", 
    "postal_code": "H7Y", 
    "longitude": "-73.8354"
  }, 
  {
    "province": "QC", 
    "latitude": "45.4551", 
    "postal_code": "H8N", 
    "longitude": "-73.6084"
  }, 
  {
    "province": "QC", 
    "latitude": "45.4371", 
    "postal_code": "H8P", 
    "longitude": "-73.5979"
  }, 
  {
    "province": "QC", 
    "latitude": "45.4473", 
    "postal_code": "H8R", 
    "longitude": "-73.6557"
  }, 
  {
    "province": "QC", 
    "latitude": "45.4496", 
    "postal_code": "H8S", 
    "longitude": "-73.6811"
  }, 
  {
    "province": "QC", 
    "latitude": "45.4648", 
    "postal_code": "H8T", 
    "longitude": "-73.7192"
  }, 
  {
    "province": "QC", 
    "latitude": "45.5145", 
    "postal_code": "H8Y", 
    "longitude": "-73.8162"
  }, 
  {
    "province": "QC", 
    "latitude": "45.5135", 
    "postal_code": "H8Z", 
    "longitude": "-73.8389"
  }, 
  {
    "province": "QC", 
    "latitude": "45.5055", 
    "postal_code": "H9A", 
    "longitude": "-73.823"
  }, 
  {
    "province": "QC", 
    "latitude": "45.4937", 
    "postal_code": "H9B", 
    "longitude": "-73.8132"
  }, 
  {
    "province": "QC", 
    "latitude": "45.5141", 
    "postal_code": "H9C", 
    "longitude": "-73.9012"
  }, 
  {
    "province": "QC", 
    "latitude": "45.5106", 
    "postal_code": "H9E", 
    "longitude": "-73.91"
  }, 
  {
    "province": "QC", 
    "latitude": "45.4794", 
    "postal_code": "H9G", 
    "longitude": "-73.8446"
  }, 
  {
    "province": "QC", 
    "latitude": "45.4873", 
    "postal_code": "H9H", 
    "longitude": "-73.8635"
  }, 
  {
    "province": "QC", 
    "latitude": "45.469", 
    "postal_code": "H9J", 
    "longitude": "-73.8862"
  }, 
  {
    "province": "QC", 
    "latitude": "45.4643", 
    "postal_code": "H9K", 
    "longitude": "-73.8936"
  }, 
  {
    "province": "QC", 
    "latitude": "45.4617", 
    "postal_code": "H9P", 
    "longitude": "-73.7305"
  }, 
  {
    "province": "QC", 
    "latitude": "45.4748", 
    "postal_code": "H9R", 
    "longitude": "-73.8207"
  }, 
  {
    "province": "QC", 
    "latitude": "45.4409", 
    "postal_code": "H9S", 
    "longitude": "-73.7733"
  }, 
  {
    "province": "QC", 
    "latitude": "45.4407", 
    "postal_code": "H9W", 
    "longitude": "-73.8727"
  }, 
  {
    "province": "QC", 
    "latitude": "45.418", 
    "postal_code": "H9X", 
    "longitude": "-73.9515"
  }, 
  {
    "province": "QC", 
    "latitude": "45.6999", 
    "postal_code": "J0A", 
    "longitude": "-72.0033"
  }, 
  {
    "province": "QC", 
    "latitude": "45.242", 
    "postal_code": "J0B", 
    "longitude": "-72.0177"
  }, 
  {
    "province": "QC", 
    "latitude": "45.9914", 
    "postal_code": "J0C", 
    "longitude": "-72.3216"
  }, 
  {
    "province": "QC", 
    "latitude": "45.3973", 
    "postal_code": "J0E", 
    "longitude": "-72.8797"
  }, 
  {
    "province": "QC", 
    "latitude": "46.0668", 
    "postal_code": "J0G", 
    "longitude": "-72.8043"
  }, 
  {
    "province": "QC", 
    "latitude": "45.6125", 
    "postal_code": "J0H", 
    "longitude": "-72.5205"
  }, 
  {
    "province": "QC", 
    "latitude": "45.0784", 
    "postal_code": "J0J", 
    "longitude": "-73.0291"
  }, 
  {
    "province": "QC", 
    "latitude": "46.104", 
    "postal_code": "J0K", 
    "longitude": "-73.256"
  }, 
  {
    "province": "QC", 
    "latitude": "45.7317", 
    "postal_code": "J0L", 
    "longitude": "-73.2793"
  }, 
  {
    "province": "QC", 
    "latitude": "60.0342", 
    "postal_code": "J0M", 
    "longitude": "-70.0118"
  }, 
  {
    "province": "QC", 
    "latitude": "45.718", 
    "postal_code": "J0N", 
    "longitude": "-73.6354"
  }, 
  {
    "province": "QC", 
    "latitude": "45.4487", 
    "postal_code": "J0P", 
    "longitude": "-74.1015"
  }, 
  {
    "province": "QC", 
    "latitude": "45.8373", 
    "postal_code": "J0R", 
    "longitude": "-74.1387"
  }, 
  {
    "province": "QC", 
    "latitude": "45.0131", 
    "postal_code": "J0S", 
    "longitude": "-74.1744"
  }, 
  {
    "province": "QC", 
    "latitude": "46.2634", 
    "postal_code": "J0T", 
    "longitude": "-74.7687"
  }, 
  {
    "province": "QC", 
    "latitude": "45.7631", 
    "postal_code": "J0V", 
    "longitude": "-74.4624"
  }, 
  {
    "province": "QC", 
    "latitude": "46.7019", 
    "postal_code": "J0W", 
    "longitude": "-75.437"
  }, 
  {
    "province": "QC", 
    "latitude": "45.5234", 
    "postal_code": "J0X", 
    "longitude": "-76.4392"
  }, 
  {
    "province": "QC", 
    "latitude": "48.4606", 
    "postal_code": "J0Y", 
    "longitude": "-78.1936"
  }, 
  {
    "province": "QC", 
    "latitude": "47.4822", 
    "postal_code": "J0Z", 
    "longitude": "-79.2102"
  }, 
  {
    "province": "QC", 
    "latitude": "45.1563", 
    "postal_code": "J1A", 
    "longitude": "-71.8095"
  }, 
  {
    "province": "QC", 
    "latitude": "45.4301", 
    "postal_code": "J1E", 
    "longitude": "-71.8901"
  }, 
  {
    "province": "QC", 
    "latitude": "45.4038", 
    "postal_code": "J1G", 
    "longitude": "-71.8853"
  }, 
  {
    "province": "QC", 
    "latitude": "45.4117", 
    "postal_code": "J1H", 
    "longitude": "-71.9074"
  }, 
  {
    "province": "QC", 
    "latitude": "45.4242", 
    "postal_code": "J1J", 
    "longitude": "-71.9188"
  }, 
  {
    "province": "QC", 
    "latitude": "45.3928", 
    "postal_code": "J1K", 
    "longitude": "-71.9441"
  }, 
  {
    "province": "QC", 
    "latitude": "45.4053", 
    "postal_code": "J1L", 
    "longitude": "-71.9387"
  }, 
  {
    "province": "QC", 
    "latitude": "45.3672", 
    "postal_code": "J1M", 
    "longitude": "-71.8692"
  }, 
  {
    "province": "QC", 
    "latitude": "45.3814", 
    "postal_code": "J1N", 
    "longitude": "-71.9827"
  }, 
  {
    "province": "QC", 
    "latitude": "45.582", 
    "postal_code": "J1S", 
    "longitude": "-72.0094"
  }, 
  {
    "province": "QC", 
    "latitude": "45.7808", 
    "postal_code": "J1T", 
    "longitude": "-71.9348"
  }, 
  {
    "province": "QC", 
    "latitude": "45.282", 
    "postal_code": "J1X", 
    "longitude": "-72.139"
  }, 
  {
    "province": "QC", 
    "latitude": "45.8852", 
    "postal_code": "J1Z", 
    "longitude": "-72.414"
  }, 
  {
    "province": "QC", 
    "latitude": "45.8459", 
    "postal_code": "J2A", 
    "longitude": "-72.44"
  }, 
  {
    "province": "QC", 
    "latitude": "45.8845", 
    "postal_code": "J2B", 
    "longitude": "-72.4841"
  }, 
  {
    "province": "QC", 
    "latitude": "45.9092", 
    "postal_code": "J2C", 
    "longitude": "-72.4808"
  }, 
  {
    "province": "QC", 
    "latitude": "45.9037", 
    "postal_code": "J2E", 
    "longitude": "-72.5297"
  }, 
  {
    "province": "QC", 
    "latitude": "45.4109", 
    "postal_code": "J2G", 
    "longitude": "-72.7103"
  }, 
  {
    "province": "QC", 
    "latitude": "45.4036", 
    "postal_code": "J2H", 
    "longitude": "-72.7097"
  }, 
  {
    "province": "QC", 
    "latitude": "45.3915", 
    "postal_code": "J2J", 
    "longitude": "-72.7799"
  }, 
  {
    "province": "QC", 
    "latitude": "45.2214", 
    "postal_code": "J2K", 
    "longitude": "-72.7567"
  }, 
  {
    "province": "QC", 
    "latitude": "45.3161", 
    "postal_code": "J2L", 
    "longitude": "-72.6501"
  }, 
  {
    "province": "QC", 
    "latitude": "45.2925", 
    "postal_code": "J2N", 
    "longitude": "-72.978"
  }, 
  {
    "province": "QC", 
    "latitude": "45.648", 
    "postal_code": "J2R", 
    "longitude": "-73.0056"
  }, 
  {
    "province": "QC", 
    "latitude": "45.6352", 
    "postal_code": "J2S", 
    "longitude": "-72.9726"
  }, 
  {
    "province": "QC", 
    "latitude": "45.6414", 
    "postal_code": "J2T", 
    "longitude": "-72.9243"
  }, 
  {
    "province": "QC", 
    "latitude": "45.3988", 
    "postal_code": "J2W", 
    "longitude": "-73.3723"
  }, 
  {
    "province": "QC", 
    "latitude": "45.3167", 
    "postal_code": "J2X", 
    "longitude": "-73.2338"
  }, 
  {
    "province": "QC", 
    "latitude": "45.3172", 
    "postal_code": "J2Y", 
    "longitude": "-73.3346"
  }, 
  {
    "province": "QC", 
    "latitude": "45.334", 
    "postal_code": "J3A", 
    "longitude": "-73.2662"
  }, 
  {
    "province": "QC", 
    "latitude": "45.3234", 
    "postal_code": "J3B", 
    "longitude": "-73.2662"
  }, 
  {
    "province": "QC", 
    "latitude": "45.5806", 
    "postal_code": "J3E", 
    "longitude": "-73.336"
  }, 
  {
    "province": "QC", 
    "latitude": "45.5462", 
    "postal_code": "J3G", 
    "longitude": "-73.2339"
  }, 
  {
    "province": "QC", 
    "latitude": "45.5413", 
    "postal_code": "J3H", 
    "longitude": "-73.2215"
  }, 
  {
    "province": "QC", 
    "latitude": "45.4694", 
    "postal_code": "J3L", 
    "longitude": "-73.289"
  }, 
  {
    "province": "QC", 
    "latitude": "45.4355", 
    "postal_code": "J3M", 
    "longitude": "-73.1738"
  }, 
  {
    "province": "QC", 
    "latitude": "45.5355", 
    "postal_code": "J3N", 
    "longitude": "-73.2719"
  }, 
  {
    "province": "QC", 
    "latitude": "46.045", 
    "postal_code": "J3P", 
    "longitude": "-73.1172"
  }, 
  {
    "province": "QC", 
    "latitude": "46.0476", 
    "postal_code": "J3R", 
    "longitude": "-73.1263"
  }, 
  {
    "province": "QC", 
    "latitude": "46.2326", 
    "postal_code": "J3T", 
    "longitude": "-72.5995"
  }, 
  {
    "province": "QC", 
    "latitude": "45.5392", 
    "postal_code": "J3V", 
    "longitude": "-73.3598"
  }, 
  {
    "province": "QC", 
    "latitude": "45.6911", 
    "postal_code": "J3X", 
    "longitude": "-73.4312"
  }, 
  {
    "province": "QC", 
    "latitude": "45.4841", 
    "postal_code": "J3Y", 
    "longitude": "-73.4329"
  }, 
  {
    "province": "QC", 
    "latitude": "45.4732", 
    "postal_code": "J3Z", 
    "longitude": "-73.3716"
  }, 
  {
    "province": "QC", 
    "latitude": "45.5685", 
    "postal_code": "J4B", 
    "longitude": "-73.423"
  }, 
  {
    "province": "QC", 
    "latitude": "45.5535", 
    "postal_code": "J4G", 
    "longitude": "-73.4987"
  }, 
  {
    "province": "QC", 
    "latitude": "45.5428", 
    "postal_code": "J4H", 
    "longitude": "-73.5083"
  }, 
  {
    "province": "QC", 
    "latitude": "45.529", 
    "postal_code": "J4J", 
    "longitude": "-73.5039"
  }, 
  {
    "province": "QC", 
    "latitude": "45.5284", 
    "postal_code": "J4K", 
    "longitude": "-73.5246"
  }, 
  {
    "province": "QC", 
    "latitude": "45.5291", 
    "postal_code": "J4L", 
    "longitude": "-73.4708"
  }, 
  {
    "province": "QC", 
    "latitude": "45.544", 
    "postal_code": "J4M", 
    "longitude": "-73.4505"
  }, 
  {
    "province": "QC", 
    "latitude": "45.5382", 
    "postal_code": "J4N", 
    "longitude": "-73.4577"
  }, 
  {
    "province": "QC", 
    "latitude": "45.4993", 
    "postal_code": "J4P", 
    "longitude": "-73.5157"
  }, 
  {
    "province": "QC", 
    "latitude": "45.4876", 
    "postal_code": "J4R", 
    "longitude": "-73.5092"
  }, 
  {
    "province": "QC", 
    "latitude": "45.4832", 
    "postal_code": "J4S", 
    "longitude": "-73.5067"
  }, 
  {
    "province": "QC", 
    "latitude": "45.4966", 
    "postal_code": "J4T", 
    "longitude": "-73.4481"
  }, 
  {
    "province": "QC", 
    "latitude": "45.4926", 
    "postal_code": "J4V", 
    "longitude": "-73.4473"
  }, 
  {
    "province": "QC", 
    "latitude": "45.4769", 
    "postal_code": "J4W", 
    "longitude": "-73.4992"
  }, 
  {
    "province": "QC", 
    "latitude": "45.4564", 
    "postal_code": "J4X", 
    "longitude": "-73.4931"
  }, 
  {
    "province": "QC", 
    "latitude": "45.4605", 
    "postal_code": "J4Y", 
    "longitude": "-73.4651"
  }, 
  {
    "province": "QC", 
    "latitude": "45.4814", 
    "postal_code": "J4Z", 
    "longitude": "-73.4649"
  }, 
  {
    "province": "QC", 
    "latitude": "45.384", 
    "postal_code": "J5A", 
    "longitude": "-73.5591"
  }, 
  {
    "province": "QC", 
    "latitude": "45.4024", 
    "postal_code": "J5B", 
    "longitude": "-73.5376"
  }, 
  {
    "province": "QC", 
    "latitude": "45.8184", 
    "postal_code": "J5J", 
    "longitude": "-73.8983"
  }, 
  {
    "province": "QC", 
    "latitude": "45.7334", 
    "postal_code": "J5K", 
    "longitude": "-74.1309"
  }, 
  {
    "province": "QC", 
    "latitude": "45.8052", 
    "postal_code": "J5L", 
    "longitude": "-74.1051"
  }, 
  {
    "province": "QC", 
    "latitude": "45.8522", 
    "postal_code": "J5M", 
    "longitude": "-73.7577"
  }, 
  {
    "province": "QC", 
    "latitude": "45.3973", 
    "postal_code": "J5R", 
    "longitude": "-73.5284"
  }, 
  {
    "province": "QC", 
    "latitude": "45.905", 
    "postal_code": "J5T", 
    "longitude": "-73.2594"
  }, 
  {
    "province": "QC", 
    "latitude": "46.2675", 
    "postal_code": "J5V", 
    "longitude": "-72.9382"
  }, 
  {
    "province": "QC", 
    "latitude": "45.8313", 
    "postal_code": "J5W", 
    "longitude": "-73.4233"
  }, 
  {
    "province": "QC", 
    "latitude": "45.8508", 
    "postal_code": "J5X", 
    "longitude": "-73.4824"
  }, 
  {
    "province": "QC", 
    "latitude": "45.7599", 
    "postal_code": "J5Y", 
    "longitude": "-73.4343"
  }, 
  {
    "province": "QC", 
    "latitude": "45.7289", 
    "postal_code": "J5Z", 
    "longitude": "-73.4907"
  }, 
  {
    "province": "QC", 
    "latitude": "45.7134", 
    "postal_code": "J6A", 
    "longitude": "-73.4778"
  }, 
  {
    "province": "QC", 
    "latitude": "46.0551", 
    "postal_code": "J6E", 
    "longitude": "-73.432"
  }, 
  {
    "province": "QC", 
    "latitude": "45.3944", 
    "postal_code": "J6J", 
    "longitude": "-73.7494"
  }, 
  {
    "province": "QC", 
    "latitude": "45.3631", 
    "postal_code": "J6K", 
    "longitude": "-73.7085"
  }, 
  {
    "province": "QC", 
    "latitude": "45.3577", 
    "postal_code": "J6N", 
    "longitude": "-73.7851"
  }, 
  {
    "province": "QC", 
    "latitude": "45.3063", 
    "postal_code": "J6R", 
    "longitude": "-73.748"
  }, 
  {
    "province": "QC", 
    "latitude": "45.2788", 
    "postal_code": "J6S", 
    "longitude": "-74.1422"
  }, 
  {
    "province": "QC", 
    "latitude": "45.2571", 
    "postal_code": "J6T", 
    "longitude": "-74.12"
  }, 
  {
    "province": "QC", 
    "latitude": "45.7005", 
    "postal_code": "J6V", 
    "longitude": "-73.5298"
  }, 
  {
    "province": "QC", 
    "latitude": "45.6908", 
    "postal_code": "J6W", 
    "longitude": "-73.6308"
  }, 
  {
    "province": "QC", 
    "latitude": "45.6986", 
    "postal_code": "J6X", 
    "longitude": "-73.6632"
  }, 
  {
    "province": "QC", 
    "latitude": "45.6999", 
    "postal_code": "J6Y", 
    "longitude": "-73.8112"
  }, 
  {
    "province": "QC", 
    "latitude": "45.6693", 
    "postal_code": "J6Z", 
    "longitude": "-73.7484"
  }, 
  {
    "province": "QC", 
    "latitude": "45.6179", 
    "postal_code": "J7A", 
    "longitude": "-73.8038"
  }, 
  {
    "province": "QC", 
    "latitude": "45.6462", 
    "postal_code": "J7B", 
    "longitude": "-73.8092"
  }, 
  {
    "province": "QC", 
    "latitude": "45.6488", 
    "postal_code": "J7C", 
    "longitude": "-73.8466"
  }, 
  {
    "province": "QC", 
    "latitude": "45.6318", 
    "postal_code": "J7E", 
    "longitude": "-73.8261"
  }, 
  {
    "province": "QC", 
    "latitude": "45.5999", 
    "postal_code": "J7G", 
    "longitude": "-73.8301"
  }, 
  {
    "province": "QC", 
    "latitude": "45.62", 
    "postal_code": "J7H", 
    "longitude": "-73.8564"
  }, 
  {
    "province": "QC", 
    "latitude": "45.6563", 
    "postal_code": "J7J", 
    "longitude": "-73.9753"
  }, 
  {
    "province": "QC", 
    "latitude": "45.7551", 
    "postal_code": "J7K", 
    "longitude": "-73.5959"
  }, 
  {
    "province": "QC", 
    "latitude": "45.7567", 
    "postal_code": "J7L", 
    "longitude": "-73.6263"
  }, 
  {
    "province": "QC", 
    "latitude": "45.7915", 
    "postal_code": "J7M", 
    "longitude": "-73.7559"
  }, 
  {
    "province": "QC", 
    "latitude": "45.72", 
    "postal_code": "J7N", 
    "longitude": "-74.0327"
  }, 
  {
    "province": "QC", 
    "latitude": "45.5618", 
    "postal_code": "J7P", 
    "longitude": "-73.8881"
  }, 
  {
    "province": "QC", 
    "latitude": "45.5321", 
    "postal_code": "J7R", 
    "longitude": "-73.894"
  }, 
  {
    "province": "QC", 
    "latitude": "45.3135", 
    "postal_code": "J7T", 
    "longitude": "-74.0573"
  }, 
  {
    "province": "QC", 
    "latitude": "45.4042", 
    "postal_code": "J7V", 
    "longitude": "-74.034"
  }, 
  {
    "province": "QC", 
    "latitude": "45.2616", 
    "postal_code": "J7X", 
    "longitude": "-74.2078"
  }, 
  {
    "province": "QC", 
    "latitude": "45.814", 
    "postal_code": "J7Y", 
    "longitude": "-74.0176"
  }, 
  {
    "province": "QC", 
    "latitude": "45.795", 
    "postal_code": "J7Z", 
    "longitude": "-74.0017"
  }, 
  {
    "province": "QC", 
    "latitude": "45.9261", 
    "postal_code": "J8A", 
    "longitude": "-74.0244"
  }, 
  {
    "province": "QC", 
    "latitude": "45.9454", 
    "postal_code": "J8B", 
    "longitude": "-74.1327"
  }, 
  {
    "province": "QC", 
    "latitude": "46.0469", 
    "postal_code": "J8C", 
    "longitude": "-74.2901"
  }, 
  {
    "province": "QC", 
    "latitude": "46.156", 
    "postal_code": "J8E", 
    "longitude": "-74.5627"
  }, 
  {
    "province": "QC", 
    "latitude": "45.6068", 
    "postal_code": "J8G", 
    "longitude": "-74.4387"
  }, 
  {
    "province": "QC", 
    "latitude": "45.6484", 
    "postal_code": "J8H", 
    "longitude": "-74.3406"
  }, 
  {
    "province": "QC", 
    "latitude": "45.599", 
    "postal_code": "J8L", 
    "longitude": "-75.4206"
  }, 
  {
    "province": "QC", 
    "latitude": "45.5555", 
    "postal_code": "J8M", 
    "longitude": "-75.4352"
  }, 
  {
    "province": "QC", 
    "latitude": "45.688", 
    "postal_code": "J8N", 
    "longitude": "-75.7837"
  }, 
  {
    "province": "QC", 
    "latitude": "45.495", 
    "postal_code": "J8P", 
    "longitude": "-75.5883"
  }, 
  {
    "province": "QC", 
    "latitude": "45.4914", 
    "postal_code": "J8R", 
    "longitude": "-75.6057"
  }, 
  {
    "province": "QC", 
    "latitude": "45.4979", 
    "postal_code": "J8T", 
    "longitude": "-75.7043"
  }, 
  {
    "province": "QC", 
    "latitude": "45.488", 
    "postal_code": "J8V", 
    "longitude": "-75.7474"
  }, 
  {
    "province": "QC", 
    "latitude": "45.4465", 
    "postal_code": "J8X", 
    "longitude": "-75.7156"
  }, 
  {
    "province": "QC", 
    "latitude": "45.4603", 
    "postal_code": "J8Y", 
    "longitude": "-75.7606"
  }, 
  {
    "province": "QC", 
    "latitude": "45.4659", 
    "postal_code": "J8Z", 
    "longitude": "-75.7558"
  }, 
  {
    "province": "QC", 
    "latitude": "45.4206", 
    "postal_code": "J9A", 
    "longitude": "-75.7538"
  }, 
  {
    "province": "QC", 
    "latitude": "45.4039", 
    "postal_code": "J9B", 
    "longitude": "-75.826"
  }, 
  {
    "province": "QC", 
    "latitude": "46.3741", 
    "postal_code": "J9E", 
    "longitude": "-75.9823"
  }, 
  {
    "province": "QC", 
    "latitude": "45.3958", 
    "postal_code": "J9H", 
    "longitude": "-75.8259"
  }, 
  {
    "province": "QC", 
    "latitude": "45.4202", 
    "postal_code": "J9J", 
    "longitude": "-75.7748"
  }, 
  {
    "province": "QC", 
    "latitude": "46.5442", 
    "postal_code": "J9L", 
    "longitude": "-75.4972"
  }, 
  {
    "province": "QC", 
    "latitude": "48.1068", 
    "postal_code": "J9P", 
    "longitude": "-77.7833"
  }, 
  {
    "province": "QC", 
    "latitude": "48.5837", 
    "postal_code": "J9T", 
    "longitude": "-78.1002"
  }, 
  {
    "province": "QC", 
    "latitude": "47.3288", 
    "postal_code": "J9V", 
    "longitude": "-79.441"
  }, 
  {
    "province": "QC", 
    "latitude": "48.25", 
    "postal_code": "J9X", 
    "longitude": "-79.0253"
  }, 
  {
    "province": "QC", 
    "latitude": "48.8054", 
    "postal_code": "J9Y", 
    "longitude": "-79.1991"
  }, 
  {
    "province": "QC", 
    "latitude": "48.8131", 
    "postal_code": "J9Z", 
    "longitude": "-79.2026"
  }, 
  {
    "province": "SK", 
    "latitude": "51.8194", 
    "postal_code": "S0A", 
    "longitude": "-103.5644"
  }, 
  {
    "province": "SK", 
    "latitude": "49.1895", 
    "postal_code": "S0C", 
    "longitude": "-104.4374"
  }, 
  {
    "province": "SK", 
    "latitude": "53.1325", 
    "postal_code": "S0E", 
    "longitude": "-104.6719"
  }, 
  {
    "province": "SK", 
    "latitude": "51.3669", 
    "postal_code": "S0G", 
    "longitude": "-105.9973"
  }, 
  {
    "province": "SK", 
    "latitude": "50.1971", 
    "postal_code": "S0H", 
    "longitude": "-105.8481"
  }, 
  {
    "province": "SK", 
    "latitude": "52.7586", 
    "postal_code": "S0J", 
    "longitude": "-107.4669"
  }, 
  {
    "province": "SK", 
    "latitude": "52.807", 
    "postal_code": "S0K", 
    "longitude": "-105.3626"
  }, 
  {
    "province": "SK", 
    "latitude": "51.2296", 
    "postal_code": "S0L", 
    "longitude": "-108.702"
  }, 
  {
    "province": "SK", 
    "latitude": "54.2836", 
    "postal_code": "S0M", 
    "longitude": "-109.2415"
  }, 
  {
    "province": "SK", 
    "latitude": "50.3599", 
    "postal_code": "S0N", 
    "longitude": "-108.5139"
  }, 
  {
    "province": "SK", 
    "latitude": "54.663", 
    "postal_code": "S0P", 
    "longitude": "-102.0822"
  }, 
  {
    "province": "SK", 
    "latitude": "50.7763", 
    "postal_code": "S2V", 
    "longitude": "-104.9291"
  }, 
  {
    "province": "SK", 
    "latitude": "51.202", 
    "postal_code": "S3N", 
    "longitude": "-102.457"
  }, 
  {
    "province": "SK", 
    "latitude": "49.1433", 
    "postal_code": "S4A", 
    "longitude": "-102.9987"
  }, 
  {
    "province": "SK", 
    "latitude": "49.6719", 
    "postal_code": "S4H", 
    "longitude": "-103.8491"
  }, 
  {
    "province": "SK", 
    "latitude": "50.4395", 
    "postal_code": "S4L", 
    "longitude": "-104.5758"
  }, 
  {
    "province": "SK", 
    "latitude": "50.4399", 
    "postal_code": "S4N", 
    "longitude": "-104.574"
  }, 
  {
    "province": "SK", 
    "latitude": "50.4423", 
    "postal_code": "S4P", 
    "longitude": "-104.6116"
  }, 
  {
    "province": "SK", 
    "latitude": "50.4707", 
    "postal_code": "S4R", 
    "longitude": "-104.6116"
  }, 
  {
    "province": "SK", 
    "latitude": "50.4253", 
    "postal_code": "S4S", 
    "longitude": "-104.6347"
  }, 
  {
    "province": "SK", 
    "latitude": "50.4552", 
    "postal_code": "S4T", 
    "longitude": "-104.6376"
  }, 
  {
    "province": "SK", 
    "latitude": "50.4364", 
    "postal_code": "S4V", 
    "longitude": "-104.5438"
  }, 
  {
    "province": "SK", 
    "latitude": "50.4896", 
    "postal_code": "S4W", 
    "longitude": "-104.6694"
  }, 
  {
    "province": "SK", 
    "latitude": "50.4722", 
    "postal_code": "S4X", 
    "longitude": "-104.6828"
  }, 
  {
    "province": "SK", 
    "latitude": "50.478", 
    "postal_code": "S4Y", 
    "longitude": "-104.6987"
  }, 
  {
    "province": "SK", 
    "latitude": "50.4529", 
    "postal_code": "S4Z", 
    "longitude": "-104.5345"
  }, 
  {
    "province": "SK", 
    "latitude": "50.4019", 
    "postal_code": "S6H", 
    "longitude": "-105.5325"
  }, 
  {
    "province": "SK", 
    "latitude": "50.4241", 
    "postal_code": "S6J", 
    "longitude": "-105.5467"
  }, 
  {
    "province": "SK", 
    "latitude": "50.3768", 
    "postal_code": "S6K", 
    "longitude": "-105.5819"
  }, 
  {
    "province": "SK", 
    "latitude": "53.2027", 
    "postal_code": "S6V", 
    "longitude": "-105.7503"
  }, 
  {
    "province": "SK", 
    "latitude": "53.1744", 
    "postal_code": "S6W", 
    "longitude": "-105.7636"
  }, 
  {
    "province": "SK", 
    "latitude": "53.1922", 
    "postal_code": "S6X", 
    "longitude": "-105.7055"
  }, 
  {
    "province": "SK", 
    "latitude": "52.1131", 
    "postal_code": "S7H", 
    "longitude": "-106.622"
  }, 
  {
    "province": "SK", 
    "latitude": "52.1068", 
    "postal_code": "S7J", 
    "longitude": "-106.6552"
  }, 
  {
    "province": "SK", 
    "latitude": "52.1542", 
    "postal_code": "S7K", 
    "longitude": "-106.6415"
  }, 
  {
    "province": "SK", 
    "latitude": "52.1449", 
    "postal_code": "S7L", 
    "longitude": "-106.6704"
  }, 
  {
    "province": "SK", 
    "latitude": "52.1261", 
    "postal_code": "S7M", 
    "longitude": "-106.6985"
  }, 
  {
    "province": "SK", 
    "latitude": "52.1193", 
    "postal_code": "S7N", 
    "longitude": "-106.6594"
  }, 
  {
    "province": "SK", 
    "latitude": "52.1695", 
    "postal_code": "S7P", 
    "longitude": "-106.5869"
  }, 
  {
    "province": "SK", 
    "latitude": "52.2022", 
    "postal_code": "S7R", 
    "longitude": "-106.6765"
  }, 
  {
    "province": "SK", 
    "latitude": "52.1584", 
    "postal_code": "S7S", 
    "longitude": "-106.5955"
  }, 
  {
    "province": "SK", 
    "latitude": "52.0554", 
    "postal_code": "S7T", 
    "longitude": "-106.7036"
  }, 
  {
    "province": "SK", 
    "latitude": "52.1103", 
    "postal_code": "S7V", 
    "longitude": "-106.5698"
  }, 
  {
    "province": "SK", 
    "latitude": "52.779", 
    "postal_code": "S9A", 
    "longitude": "-108.2983"
  }, 
  {
    "province": "SK", 
    "latitude": "50.2875", 
    "postal_code": "S9H", 
    "longitude": "-107.8113"
  }, 
  {
    "province": "SK", 
    "latitude": "53.2719", 
    "postal_code": "S9V", 
    "longitude": "-110.0044"
  }, 
  {
    "province": "SK", 
    "latitude": "54.132", 
    "postal_code": "S9X", 
    "longitude": "-108.4314"
  }, 
  {
    "province": "YT", 
    "latitude": "60.1734", 
    "postal_code": "Y0A", 
    "longitude": "-129.0159"
  }, 
  {
    "province": "YT", 
    "latitude": "64.062", 
    "postal_code": "Y0B", 
    "longitude": "-139.4351"
  }, 
  {
    "province": "YT", 
    "latitude": "60.7227", 
    "postal_code": "Y1A", 
    "longitude": "-135.0534"
  }
]